zip,sortCode,state,city,proposal,startZip
01801,MA-EJ05,MA,Boston,BOS,11434
01803,MA-EJ04,MA,Boston,BOS,11434
01867,MA-EJ06,MA,Boston,BOS,11434
01880,MA-EJ07,MA,Boston,BOS,11434
01890,MA-EJ03,MA,Boston,BOS,11434
01901,MA-EK03,MA,Boston,BOS,11434
01902,MA-EK04,MA,Boston,BOS,11434
01904,MA-EK06,MA,Boston,BOS,11434
01905,MA-EJ02,MA,Boston,BOS,11434
01906,MA-EK01,MA,Boston,BOS,11434
01907,MA-EK05,MA,Boston,BOS,11434
01915,MA-EL06,MA,Boston,BOS,11434
01923,MA-EL05,MA,Boston,BOS,11434
01937,MA-EL04,MA,Boston,BOS,11434
01940,MA-EK07,MA,Boston,BOS,11434
01945,MA-EL01,MA,Boston,BOS,11434
01960,MA-EL03,MA,Boston,BOS,11434
01970,MA-EL02,MA,Boston,BOS,11434
02026,MA-EC09,MA,Boston,BOS,11434
02032,MA-EC12,MA,Boston,BOS,11434
02062,MA-EC11,MA,Boston,BOS,11434
02090,MA-EC10,MA,Boston,BOS,11434
02108,MA-EA05,MA,Boston,BOS,11434
02109,MA-EA01,MA,Boston,BOS,11434
02110,MA-EA03,MA,Boston,BOS,11434
02111,MA-EA07,MA,Boston,BOS,11434
02113,MA-EA02,MA,Boston,BOS,11434
02114,MA-EA06,MA,Boston,BOS,11434
02115,MA-EB04,MA,Boston,BOS,11434
02116,MA-EB01,MA,Boston,BOS,11434
02118,MA-EB07,MA,Boston,BOS,11434
02119,MA-EB06,MA,Boston,BOS,11434
02120,MA-EB05,MA,Boston,BOS,11434
02121,MA-EC04,MA,Boston,BOS,11434
02122,MA-EC05,MA,Boston,BOS,11434
02124,MA-EC06,MA,Boston,BOS,11434
02125,MA-EB09,MA,Boston,BOS,11434
02126,MA-EC07,MA,Boston,BOS,11434
02127,MA-EB08,MA,Boston,BOS,11434
02128,MA-EI01,MA,Boston,BOS,11434
02129,MA-EG01,MA,Boston,BOS,11434
02130,MA-EC01,MA,Boston,BOS,11434
02131,MA-EC02,MA,Boston,BOS,11434
02132,MA-EC03,MA,Boston,BOS,11434
02134,MA-EE03,MA,Boston,BOS,11434
02135,MA-EE05,MA,Boston,BOS,11434
02136,MA-EC08,MA,Boston,BOS,11434
02138,MA-EG09,MA,Boston,BOS,11434
02139,MA-EG04,MA,Boston,BOS,11434
02140,MA-EG08,MA,Boston,BOS,11434
02141,MA-EG02,MA,Boston,BOS,11434
02142,MA-EG03,MA,Boston,BOS,11434
02143,MA-EG05,MA,Boston,BOS,11434
02144,MA-EG07,MA,Boston,BOS,11434
02145,MA-EG06,MA,Boston,BOS,11434
02148,MA-EI06,MA,Boston,BOS,11434
02149,MA-EI05,MA,Boston,BOS,11434
02150,MA-EI04,MA,Boston,BOS,11434
02151,MA-EI03,MA,Boston,BOS,11434
02152,MA-EI02,MA,Boston,BOS,11434
02155,MA-EG10,MA,Boston,BOS,11434
02163,MA-EE04,MA,Boston,BOS,11434
02169,MA-ED04,MA,Boston,BOS,11434
02170,MA-ED02,MA,Boston,BOS,11434
02171,MA-ED01,MA,Boston,BOS,11434
02176,MA-EJ01,MA,Boston,BOS,11434
02180,MA-EJ02,MA,Boston,BOS,11434
02184,MA-ED06,MA,Boston,BOS,11434
02186,MA-ED03,MA,Boston,BOS,11434
02188,MA-ED07,MA,Boston,BOS,11434
02189,MA-ED08,MA,Boston,BOS,11434
02191,MA-ED05,MA,Boston,BOS,11434
02199,MA-EB02,MA,Boston,BOS,11434
02203,MA-EA04,MA,Boston,BOS,11434
02210,MA-EA08,MA,Boston,BOS,11434
02215,MA-EB03,MA,Boston,BOS,11434
02420,MA-EH09,MA,Boston,BOS,11434
02421,MA-EH08,MA,Boston,BOS,11434
02445,MA-EE02,MA,Boston,BOS,11434
02446,MA-EE01,MA,Boston,BOS,11434
02451,MA-EI07,MA,Boston,BOS,11434
02452,MA-EH05,MA,Boston,BOS,11434
02453,MA-EH06,MA,Boston,BOS,11434
02457,MA-EF10,MA,Boston,BOS,11434
02458,MA-EE08,MA,Boston,BOS,11434
02459,MA-EE07,MA,Boston,BOS,11434
02460,MA-EF01,MA,Boston,BOS,11434
02461,MA-EF06,MA,Boston,BOS,11434
02462,MA-EF04,MA,Boston,BOS,11434
02464,MA-EF07,MA,Boston,BOS,11434
02465,MA-EF02,MA,Boston,BOS,11434
02466,MA-EF03,MA,Boston,BOS,11434
02467,MA-EE06,MA,Boston,BOS,11434
02468,MA-EF05,MA,Boston,BOS,11434
02472,MA-EH04,MA,Boston,BOS,11434
02474,MA-EH01,MA,Boston,BOS,11434
02476,MA-EH02,MA,Boston,BOS,11434
02478,MA-EH03,MA,Boston,BOS,11434
02481,MA-EF09,MA,Boston,BOS,11434
02482,MA-EF11,MA,Boston,BOS,11434
02492,MA-EF12,MA,Boston,BOS,11434
02494,MA-EF08,MA,Boston,BOS,11434
06807,NY-FK03,NY,North,JFK,11434
06820,NY-FM01,NY,North,JFK,11434
06830,NY-FK02,NY,North,JFK,11434
06831,NY-FK01,NY,North,JFK,11434
06840,NY-FM02,NY,North,JFK,11434
06850,NY-FM03,NY,North,JFK,11434
06851,NY-FN02,NY,North,JFK,11434
06853,NY-FM05,NY,North,JFK,11434
06854,NY-FM04,NY,North,JFK,11434
06855,NY-FN01,NY,North,JFK,11434
06870,NY-FK05,NY,North,JFK,11434
06878,NY-FK04,NY,North,JFK,11434
06880,NY-FN03,NY,North,JFK,11434
06883,NY-FN04,NY,North,JFK,11434
06897,NY-FN05,NY,North,JFK,11434
06901,NY-FL02,NY,North,JFK,11434
06902,NY-FL01,NY,North,JFK,11434
06903,NY-FL06,NY,North,JFK,11434
06905,NY-FL03,NY,North,JFK,11434
06906,NY-FL04,NY,North,JFK,11434
06907,NY-FL05,NY,North,JFK,11434
07001,NJ-BJ05,NJ,Newark,JFK,11434
07002,NJ-AJ14,NJ,Newark,JFK,11434
07003,NJ-BA10,NJ,Newark,JFK,11434
07004,NJ-BC01,NJ,Newark,JFK,11434
07005,NJ-BC07,NJ,Newark,JFK,11434
07006,NJ-BB06,NJ,Newark,JFK,11434
07008,NJ-BJ01,NJ,Newark,JFK,11434
07009,NJ-BB05,NJ,Newark,JFK,11434
07010,NJ-AI11,NJ,Newark,JFK,11434
07011,NJ-AG11,NJ,Newark,JFK,11434
07012,NJ-AG14,NJ,Newark,JFK,11434
07013,NJ-AG15,NJ,Newark,JFK,11434
07014,NJ-AG13,NJ,Newark,JFK,11434
07016,NJ-BE11,NJ,Newark,JFK,11434
07017,NJ-BA09,NJ,Newark,JFK,11434
07018,NJ-BD12,NJ,Newark,JFK,11434
07020,NJ-AI12,NJ,Newark,JFK,11434
07021,NJ-BB07,NJ,Newark,JFK,11434
07022,NJ-AI10,NJ,Newark,JFK,11434
07023,NJ-BF05,NJ,Newark,JFK,11434
07024,NJ-AI07,NJ,Newark,JFK,11434
07026,NJ-AH05,NJ,Newark,JFK,11434
07027,NJ-BE12,NJ,Newark,JFK,11434
07028,NJ-BA11,NJ,Newark,JFK,11434
07029,NJ-BA01,NJ,Newark,JFK,11434
07030,NJ-AJ06,NJ,Newark,JFK,11434
07031,NJ-BA03,NJ,Newark,JFK,11434
07032,NJ-BA02,NJ,Newark,JFK,11434
07033,NJ-BE10,NJ,Newark,JFK,11434
07034,NJ-BC08,NJ,Newark,JFK,11434
07035,NJ-AF12,NJ,Newark,JFK,11434
07036,NJ-BE04,NJ,Newark,JFK,11434
07039,NJ-BB09,NJ,Newark,JFK,11434
07040,NJ-BD08,NJ,Newark,JFK,11434
07041,NJ-BG01,NJ,Newark,JFK,11434
07042,NJ-BB02,NJ,Newark,JFK,11434
07043,NJ-BB01,NJ,Newark,JFK,11434
07044,NJ-BB04,NJ,Newark,JFK,11434
07045,NJ-BC09,NJ,Newark,JFK,11434
07046,NJ-BC06,NJ,Newark,JFK,11434
07047,NJ-AJ01,NJ,Newark,JFK,11434
07050,NJ-BD11,NJ,Newark,JFK,11434
07052,NJ-BB03,NJ,Newark,JFK,11434
07054,NJ-BC03,NJ,Newark,JFK,11434
07055,NJ-AG12,NJ,Newark,JFK,11434
07057,NJ-AH04,NJ,Newark,JFK,11434
07058,NJ-BC02,NJ,Newark,JFK,11434
07059,NJ-BI05,NJ,Newark,JFK,11434
07060,NJ-BF08,NJ,Newark,JFK,11434
07062,NJ-BF06,NJ,Newark,JFK,11434
07063,NJ-BF09,NJ,Newark,JFK,11434
07064,NJ-BJ02,NJ,Newark,JFK,11434
07065,NJ-BJ06,NJ,Newark,JFK,11434
07066,NJ-BJ07,NJ,Newark,JFK,11434
07067,NJ-BJ08,NJ,Newark,JFK,11434
07068,NJ-BB08,NJ,Newark,JFK,11434
07069,NJ-BF07,NJ,Newark,JFK,11434
07070,NJ-AH01,NJ,Newark,JFK,11434
07071,NJ-BA04,NJ,Newark,JFK,11434
07072,NJ-AH03,NJ,Newark,JFK,11434
07073,NJ-AH02,NJ,Newark,JFK,11434
07074,NJ-AH17,NJ,Newark,JFK,11434
07075,NJ-AH16,NJ,Newark,JFK,11434
07076,NJ-BF04,NJ,Newark,JFK,11434
07077,NJ-BJ03,NJ,Newark,JFK,11434
07078,NJ-BG02,NJ,Newark,JFK,11434
07079,NJ-BD10,NJ,Newark,JFK,11434
07080,NJ-BK04,NJ,Newark,JFK,11434
07081,NJ-BF03,NJ,Newark,JFK,11434
07082,NJ-BC10,NJ,Newark,JFK,11434
07083,NJ-BE09,NJ,Newark,JFK,11434
07086,NJ-AJ04,NJ,Newark,JFK,11434
07087,NJ-AJ05,NJ,Newark,JFK,11434
07088,NJ-BE13,NJ,Newark,JFK,11434
07090,NJ-BF01,NJ,Newark,JFK,11434
07092,NJ-BF02,NJ,Newark,JFK,11434
07093,NJ-AJ03,NJ,Newark,JFK,11434
07094,NJ-AJ02,NJ,Newark,JFK,11434
07095,NJ-BJ04,NJ,Newark,JFK,11434
07102,NJ-BD03,NJ,Newark,JFK,11434
07103,NJ-BD04,NJ,Newark,JFK,11434
07104,NJ-BA07,NJ,Newark,JFK,11434
07105,NJ-BD02,NJ,Newark,JFK,11434
07106,NJ-BD09,NJ,Newark,JFK,11434
07107,NJ-BA08,NJ,Newark,JFK,11434
07108,NJ-BD05,NJ,Newark,JFK,11434
07109,NJ-BA06,NJ,Newark,JFK,11434
07110,NJ-BA05,NJ,Newark,JFK,11434
07111,NJ-BD07,NJ,Newark,JFK,11434
07112,NJ-BD06,NJ,Newark,JFK,11434
07114,NJ-BD01,NJ,Newark,JFK,11434
07201,NJ-BE01,NJ,Newark,JFK,11434
07202,NJ-BE03,NJ,Newark,JFK,11434
07203,NJ-BE05,NJ,Newark,JFK,11434
07204,NJ-BE06,NJ,Newark,JFK,11434
07205,NJ-BE08,NJ,Newark,JFK,11434
07206,NJ-BE02,NJ,Newark,JFK,11434
07208,NJ-BE07,NJ,Newark,JFK,11434
07302,NJ-AJ10,NJ,Newark,JFK,11434
07304,NJ-AJ12,NJ,Newark,JFK,11434
07305,NJ-AJ13,NJ,Newark,JFK,11434
07306,NJ-AJ08,NJ,Newark,JFK,11434
07307,NJ-AJ07,NJ,Newark,JFK,11434
07310,NJ-AJ09,NJ,Newark,JFK,11434
07311,NJ-AJ11,NJ,Newark,JFK,11434
07401,NJ-AE08,NJ,Newark,JFK,11434
07403,NJ-AF04,NJ,Newark,JFK,11434
07405,NJ-AF05,NJ,Newark,JFK,11434
07407,NJ-AH06,NJ,Newark,JFK,11434
07410,NJ-AD07,NJ,Newark,JFK,11434
07417,NJ-AE06,NJ,Newark,JFK,11434
07420,NJ-AF03,NJ,Newark,JFK,11434
07423,NJ-AE03,NJ,Newark,JFK,11434
07424,NJ-AG16,NJ,Newark,JFK,11434
07430,NJ-AE10,NJ,Newark,JFK,11434
07432,NJ-AE02,NJ,Newark,JFK,11434
07436,NJ-AE07,NJ,Newark,JFK,11434
07440,NJ-AF09,NJ,Newark,JFK,11434
07442,NJ-AF07,NJ,Newark,JFK,11434
07444,NJ-AF08,NJ,Newark,JFK,11434
07446,NJ-AE09,NJ,Newark,JFK,11434
07450,NJ-AD09,NJ,Newark,JFK,11434
07452,NJ-AD08,NJ,Newark,JFK,11434
07456,NJ-AF01,NJ,Newark,JFK,11434
07457,NJ-AF06,NJ,Newark,JFK,11434
07458,NJ-AE05,NJ,Newark,JFK,11434
07463,NJ-AE04,NJ,Newark,JFK,11434
07465,NJ-AF02,NJ,Newark,JFK,11434
07470,NJ-AF10,NJ,Newark,JFK,11434
07481,NJ-AE01,NJ,Newark,JFK,11434
07501,NJ-AG01,NJ,Newark,JFK,11434
07502,NJ-AG03,NJ,Newark,JFK,11434
07503,NJ-AG10,NJ,Newark,JFK,11434
07504,NJ-AG08,NJ,Newark,JFK,11434
07505,NJ-AG02,NJ,Newark,JFK,11434
07506,NJ-AD10,NJ,Newark,JFK,11434
07508,NJ-AG04,NJ,Newark,JFK,11434
07512,NJ-AF11,NJ,Newark,JFK,11434
07513,NJ-AG09,NJ,Newark,JFK,11434
07514,NJ-AG07,NJ,Newark,JFK,11434
07522,NJ-AG05,NJ,Newark,JFK,11434
07524,NJ-AG06,NJ,Newark,JFK,11434
07601,NJ-AH11,NJ,Newark,JFK,11434
07603,NJ-AI02,NJ,Newark,JFK,11434
07604,NJ-AH15,NJ,Newark,JFK,11434
07605,NJ-AI06,NJ,Newark,JFK,11434
07606,NJ-AH12,NJ,Newark,JFK,11434
07607,NJ-AH10,NJ,Newark,JFK,11434
07608,NJ-AH14,NJ,Newark,JFK,11434
07620,NJ-AC01,NJ,Newark,JFK,11434
07621,NJ-AC08,NJ,Newark,JFK,11434
07624,NJ-AC05,NJ,Newark,JFK,11434
07626,NJ-AC03,NJ,Newark,JFK,11434
07627,NJ-AC04,NJ,Newark,JFK,11434
07628,NJ-AC07,NJ,Newark,JFK,11434
07630,NJ-AC12,NJ,Newark,JFK,11434
07631,NJ-AI04,NJ,Newark,JFK,11434
07632,NJ-AI05,NJ,Newark,JFK,11434
07640,NJ-AC14,NJ,Newark,JFK,11434
07641,NJ-AC06,NJ,Newark,JFK,11434
07642,NJ-AD04,NJ,Newark,JFK,11434
07643,NJ-AH13,NJ,Newark,JFK,11434
07644,NJ-AH09,NJ,Newark,JFK,11434
07645,NJ-AD01,NJ,Newark,JFK,11434
07646,NJ-AC09,NJ,Newark,JFK,11434
07647,NJ-AC16,NJ,Newark,JFK,11434
07648,NJ-AC15,NJ,Newark,JFK,11434
07649,NJ-AC11,NJ,Newark,JFK,11434
07650,NJ-AI08,NJ,Newark,JFK,11434
07652,NJ-AD06,NJ,Newark,JFK,11434
07656,NJ-AD02,NJ,Newark,JFK,11434
07657,NJ-AI09,NJ,Newark,JFK,11434
07660,NJ-AI01,NJ,Newark,JFK,11434
07661,NJ-AC10,NJ,Newark,JFK,11434
07662,NJ-AH08,NJ,Newark,JFK,11434
07663,NJ-AH07,NJ,Newark,JFK,11434
07666,NJ-AI03,NJ,Newark,JFK,11434
07670,NJ-AC02,NJ,Newark,JFK,11434
07675,NJ-AC13,NJ,Newark,JFK,11434
07676,NJ-AD05,NJ,Newark,JFK,11434
07677,NJ-AD03,NJ,Newark,JFK,11434
07834,NJ-BC05,NJ,Newark,JFK,11434
07878,NJ-BC04,NJ,Newark,JFK,11434
07901,NJ-BG03,NJ,Newark,JFK,11434
07920,NJ-BI02,NJ,Newark,JFK,11434
07921,NJ-BL04,NJ,Newark,JFK,11434
07922,NJ-BG05,NJ,Newark,JFK,11434
07924,NJ-BI01,NJ,Newark,JFK,11434
07926,NJ-BH07,NJ,Newark,JFK,11434
07927,NJ-BH03,NJ,Newark,JFK,11434
07928,NJ-BG06,NJ,Newark,JFK,11434
07930,NJ-BH10,NJ,Newark,JFK,11434
07931,NJ-BL05,NJ,Newark,JFK,11434
07932,NJ-BG09,NJ,Newark,JFK,11434
07933,NJ-BI08,NJ,Newark,JFK,11434
07934,NJ-BL07,NJ,Newark,JFK,11434
07935,NJ-BG07,NJ,Newark,JFK,11434
07936,NJ-BH01,NJ,Newark,JFK,11434
07939,NJ-BI03,NJ,Newark,JFK,11434
07940,NJ-BG08,NJ,Newark,JFK,11434
07945,NJ-BH09,NJ,Newark,JFK,11434
07946,NJ-BI06,NJ,Newark,JFK,11434
07950,NJ-BH04,NJ,Newark,JFK,11434
07960,NJ-BH05,NJ,Newark,JFK,11434
07961,NJ-BH06,NJ,Newark,JFK,11434
07970,NJ-BH08,NJ,Newark,JFK,11434
07974,NJ-BG04,NJ,Newark,JFK,11434
07976,NJ-BI04,NJ,Newark,JFK,11434
07977,NJ-BL06,NJ,Newark,JFK,11434
07979,NJ-BL08,NJ,Newark,JFK,11434
07980,NJ-BI07,NJ,Newark,JFK,11434
07981,NJ-BH02,NJ,Newark,JFK,11434
08002,PA-CC04,PA,Philadelphia,JFK,11434
08007,PA-CB02,PA,Philadelphia,JFK,11434
08010,NJ-CA06,NJ,Trenton,JFK,11434
08016,NJ-CA07,NJ,Trenton,JFK,11434
08029,PA-CB06,PA,Philadelphia,JFK,11434
08030,PA-CA06,PA,Philadelphia,JFK,11434
08031,PA-CB01,PA,Philadelphia,JFK,11434
08033,PA-CA09,PA,Philadelphia,JFK,11434
08034,PA-CC06,PA,Philadelphia,JFK,11434
08035,PA-CA10,PA,Philadelphia,JFK,11434
08045,PA-CB03,PA,Philadelphia,JFK,11434
08046,NJ-CA05,NJ,Trenton,JFK,11434
08049,PA-CB04,PA,Philadelphia,JFK,11434
08052,PA-CC05,PA,Philadelphia,JFK,11434
08057,NJ-CA03,NJ,Trenton,JFK,11434
08059,PA-CA07,PA,Philadelphia,JFK,11434
08065,NJ-CA01,NJ,Trenton,JFK,11434
08075,NJ-CA04,NJ,Trenton,JFK,11434
08077,NJ-CA02,NJ,Trenton,JFK,11434
08078,PA-CB05,PA,Philadelphia,JFK,11434
08083,PA-CB07,PA,Philadelphia,JFK,11434
08084,PA-CB08,PA,Philadelphia,JFK,11434
08102,PA-CA01,PA,Philadelphia,JFK,11434
08103,PA-CA02,PA,Philadelphia,JFK,11434
08104,PA-CA03,PA,Philadelphia,JFK,11434
08105,PA-CC01,PA,Philadelphia,JFK,11434
08106,PA-CA08,PA,Philadelphia,JFK,11434
08107,PA-CA05,PA,Philadelphia,JFK,11434
08108,PA-CA04,PA,Philadelphia,JFK,11434
08109,PA-CC03,PA,Philadelphia,JFK,11434
08110,PA-CC02,PA,Philadelphia,JFK,11434
08505,NJ-CA10,NJ,Trenton,JFK,11434
08518,NJ-CA08,NJ,Trenton,JFK,11434
08534,NJ-CB02,NJ,Trenton,JFK,11434
08536,NJ-CC04,NJ,Trenton,JFK,11434
08540,NJ-CC01,NJ,Trenton,JFK,11434
08542,NJ-CC02,NJ,Trenton,JFK,11434
08550,NJ-CC03,NJ,Trenton,JFK,11434
08554,NJ-CA09,NJ,Trenton,JFK,11434
08560,NJ-CB01,NJ,Trenton,JFK,11434
08608,NJ-CB07,NJ,Trenton,JFK,11434
08609,NJ-CB08,NJ,Trenton,JFK,11434
08610,NJ-CB12,NJ,Trenton,JFK,11434
08611,NJ-CB13,NJ,Trenton,JFK,11434
08618,NJ-CB04,NJ,Trenton,JFK,11434
08619,NJ-CB10,NJ,Trenton,JFK,11434
08628,NJ-CB03,NJ,Trenton,JFK,11434
08629,NJ-CB09,NJ,Trenton,JFK,11434
08638,NJ-CB05,NJ,Trenton,JFK,11434
08648,NJ-CB06,NJ,Trenton,JFK,11434
08690,NJ-CB11,NJ,Trenton,JFK,11434
08805,NJ-BK10,NJ,Newark,JFK,11434
08807,NJ-BL01,NJ,Newark,JFK,11434
08812,NJ-BK09,NJ,Newark,JFK,11434
08817,NJ-BK05,NJ,Newark,JFK,11434
08820,NJ-BK03,NJ,Newark,JFK,11434
08830,NJ-BJ12,NJ,Newark,JFK,11434
08832,NJ-BJ10,NJ,Newark,JFK,11434
08836,NJ-BK11,NJ,Newark,JFK,11434
08837,NJ-BK01,NJ,Newark,JFK,11434
08840,NJ-BK02,NJ,Newark,JFK,11434
08846,NJ-BK08,NJ,Newark,JFK,11434
08852,NJ-CC05,NJ,Trenton,JFK,11434
08854,NJ-BK07,NJ,Newark,JFK,11434
08858,NJ-BL09,NJ,Newark,JFK,11434
08861,NJ-BJ09,NJ,Newark,JFK,11434
08863,NJ-BJ11,NJ,Newark,JFK,11434
08869,NJ-BL02,NJ,Newark,JFK,11434
08876,NJ-BL03,NJ,Newark,JFK,11434
08904,NJ-BK06,NJ,Newark,JFK,11434
10001,NY-AA20,NY,Manhattan,JFK,11434
10002,NY-AA12,NY,Manhattan,JFK,11434
10003,NY-AA15,NY,Manhattan,JFK,11434
10004,NY-AA01,NY,Manhattan,JFK,11434
10005,NY-AA02,NY,Manhattan,JFK,11434
10006,NY-AA04,NY,Manhattan,JFK,11434
10007,NY-AA07,NY,Manhattan,JFK,11434
10009,NY-AA14,NY,Manhattan,JFK,11434
10010,NY-AA18,NY,Manhattan,JFK,11434
10011,NY-AA16,NY,Manhattan,JFK,11434
10012,NY-AA13,NY,Manhattan,JFK,11434
10013,NY-AA11,NY,Manhattan,JFK,11434
10014,NY-AA17,NY,Manhattan,JFK,11434
10016,NY-AA19,NY,Manhattan,JFK,11434
10017,NY-AA27,NY,Manhattan,JFK,11434
10018,NY-AA23,NY,Manhattan,JFK,11434
10019,NY-AA45,NY,Manhattan,JFK,11434
10020,NY-AA42,NY,Manhattan,JFK,11434
10021,NY-AA47,NY,Manhattan,JFK,11434
10022,NY-AA37,NY,Manhattan,JFK,11434
10023,NY-AA59,NY,Manhattan,JFK,11434
10024,NY-AA58,NY,Manhattan,JFK,11434
10025,NY-AA57,NY,Manhattan,JFK,11434
10026,NY-AA56,NY,Manhattan,JFK,11434
10027,NY-AA54,NY,Manhattan,JFK,11434
10028,NY-AA50,NY,Manhattan,JFK,11434
10029,NY-AA52,NY,Manhattan,JFK,11434
10030,NY-AA62,NY,Manhattan,JFK,11434
10031,NY-AA63,NY,Manhattan,JFK,11434
10032,NY-AA65,NY,Manhattan,JFK,11434
10033,NY-AA66,NY,Manhattan,JFK,11434
10034,NY-AA68,NY,Manhattan,JFK,11434
10035,NY-AA53,NY,Manhattan,JFK,11434
10036,NY-AA24,NY,Manhattan,JFK,11434
10037,NY-AA61,NY,Manhattan,JFK,11434
10038,NY-AA09,NY,Manhattan,JFK,11434
10039,NY-AA64,NY,Manhattan,JFK,11434
10040,NY-AA67,NY,Manhattan,JFK,11434
10044,NY-AA69,NY,Manhattan,JFK,11434
10065,NY-AA46,NY,Manhattan,JFK,11434
10069,NY-AA60,NY,Manhattan,JFK,11434
10075,NY-AA49,NY,Manhattan,JFK,11434
10103,NY-AA44,NY,Manhattan,JFK,11434
10110,NY-AA25,NY,Manhattan,JFK,11434
10111,NY-AA41,NY,Manhattan,JFK,11434
10112,NY-AA43,NY,Manhattan,JFK,11434
10115,NY-AA55,NY,Manhattan,JFK,11434
10119,NY-AA21,NY,Manhattan,JFK,11434
10128,NY-AA51,NY,Manhattan,JFK,11434
10152,NY-AA38,NY,Manhattan,JFK,11434
10153,NY-AA40,NY,Manhattan,JFK,11434
10154,NY-AA39,NY,Manhattan,JFK,11434
10162,NY-AA48,NY,Manhattan,JFK,11434
10165,NY-AA28,NY,Manhattan,JFK,11434
10167,NY-AA34,NY,Manhattan,JFK,11434
10168,NY-AA29,NY,Manhattan,JFK,11434
10169,NY-AA32,NY,Manhattan,JFK,11434
10170,NY-AA31,NY,Manhattan,JFK,11434
10171,NY-AA36,NY,Manhattan,JFK,11434
10172,NY-AA35,NY,Manhattan,JFK,11434
10173,NY-AA26,NY,Manhattan,JFK,11434
10174,NY-AA30,NY,Manhattan,JFK,11434
10177,NY-AA33,NY,Manhattan,JFK,11434
10199,NY-AA22,NY,Manhattan,JFK,11434
10271,NY-AA03,NY,Manhattan,JFK,11434
10278,NY-AA10,NY,Manhattan,JFK,11434
10279,NY-AA08,NY,Manhattan,JFK,11434
10280,NY-AA05,NY,Manhattan,JFK,11434
10282,NY-AA06,NY,Manhattan,JFK,11434
10301,NY-BA04,NY,Mid Island,JFK,11434
10302,NY-BA02,NY,Mid Island,JFK,11434
10303,NY-BA01,NY,Mid Island,JFK,11434
10304,NY-BA05,NY,Mid Island,JFK,11434
10305,NY-BA06,NY,Mid Island,JFK,11434
10306,NY-BB01,NY,Mid Island,JFK,11434
10307,NY-BB07,NY,Mid Island,JFK,11434
10308,NY-BB04,NY,Mid Island,JFK,11434
10309,NY-BB06,NY,Mid Island,JFK,11434
10310,NY-BA03,NY,Mid Island,JFK,11434
10311,NY-BB03,NY,Mid Island,JFK,11434
10312,NY-BB05,NY,Mid Island,JFK,11434
10314,NY-BB02,NY,Mid Island,JFK,11434
10451,NY-FA02,NY,North,JFK,11434
10452,NY-FA07,NY,North,JFK,11434
10453,NY-FA08,NY,North,JFK,11434
10454,NY-FA01,NY,North,JFK,11434
10455,NY-FA03,NY,North,JFK,11434
10456,NY-FA06,NY,North,JFK,11434
10457,NY-FB01,NY,North,JFK,11434
10458,NY-FB03,NY,North,JFK,11434
10459,NY-FA05,NY,North,JFK,11434
10460,NY-FB02,NY,North,JFK,11434
10461,NY-FB06,NY,North,JFK,11434
10462,NY-FB05,NY,North,JFK,11434
10463,NY-FC01,NY,North,JFK,11434
10464,NY-FC08,NY,North,JFK,11434
10465,NY-FB07,NY,North,JFK,11434
10466,NY-FC05,NY,North,JFK,11434
10467,NY-FC03,NY,North,JFK,11434
10468,NY-FB04,NY,North,JFK,11434
10469,NY-FC06,NY,North,JFK,11434
10470,NY-FC04,NY,North,JFK,11434
10471,NY-FC02,NY,North,JFK,11434
10472,NY-FB09,NY,North,JFK,11434
10473,NY-FB08,NY,North,JFK,11434
10474,NY-FA04,NY,North,JFK,11434
10475,NY-FC07,NY,North,JFK,11434
10502,NY-FF04,NY,North,JFK,11434
10503,NY-FF03,NY,North,JFK,11434
10510,NY-FJ02,NY,North,JFK,11434
10514,NY-FJ03,NY,North,JFK,11434
10522,NY-FF01,NY,North,JFK,11434
10523,NY-FI01,NY,North,JFK,11434
10528,NY-FG03,NY,North,JFK,11434
10530,NY-FF05,NY,North,JFK,11434
10532,NY-FI04,NY,North,JFK,11434
10533,NY-FF02,NY,North,JFK,11434
10538,NY-FG01,NY,North,JFK,11434
10543,NY-FG02,NY,North,JFK,11434
10545,NY-FJ06,NY,North,JFK,11434
10546,NY-FJ04,NY,North,JFK,11434
10550,NY-FE08,NY,North,JFK,11434
10552,NY-FE06,NY,North,JFK,11434
10553,NY-FE07,NY,North,JFK,11434
10562,NY-FJ05,NY,North,JFK,11434
10570,NY-FJ01,NY,North,JFK,11434
10573,NY-FG05,NY,North,JFK,11434
10577,NY-FH04,NY,North,JFK,11434
10580,NY-FG04,NY,North,JFK,11434
10583,NY-FF06,NY,North,JFK,11434
10591,NY-FI05,NY,North,JFK,11434
10594,NY-FI03,NY,North,JFK,11434
10595,NY-FI02,NY,North,JFK,11434
10601,NY-FH01,NY,North,JFK,11434
10603,NY-FH02,NY,North,JFK,11434
10604,NY-FH03,NY,North,JFK,11434
10605,NY-FH05,NY,North,JFK,11434
10606,NY-FH06,NY,North,JFK,11434
10607,NY-FH07,NY,North,JFK,11434
10701,NY-FD03,NY,North,JFK,11434
10703,NY-FD04,NY,North,JFK,11434
10704,NY-FD02,NY,North,JFK,11434
10705,NY-FD01,NY,North,JFK,11434
10706,NY-FD05,NY,North,JFK,11434
10707,NY-FD07,NY,North,JFK,11434
10708,NY-FD08,NY,North,JFK,11434
10709,NY-FE01,NY,North,JFK,11434
10710,NY-FD06,NY,North,JFK,11434
10801,NY-FE03,NY,North,JFK,11434
10803,NY-FE05,NY,North,JFK,11434
10804,NY-FE02,NY,North,JFK,11434
10805,NY-FE04,NY,North,JFK,11434
10901,NJ-AA07,NJ,Newark,JFK,11434
10913,NJ-AB05,NJ,Newark,JFK,11434
10920,NJ-AB01,NJ,Newark,JFK,11434
10923,NJ-AA03,NJ,Newark,JFK,11434
10927,NJ-AA05,NJ,Newark,JFK,11434
10952,NJ-AA08,NJ,Newark,JFK,11434
10954,NJ-AA11,NJ,Newark,JFK,11434
10956,NJ-AA10,NJ,Newark,JFK,11434
10960,NJ-AB03,NJ,Newark,JFK,11434
10962,NJ-AB07,NJ,Newark,JFK,11434
10964,NJ-AB11,NJ,Newark,JFK,11434
10965,NJ-AB06,NJ,Newark,JFK,11434
10968,NJ-AB10,NJ,Newark,JFK,11434
10970,NJ-AA06,NJ,Newark,JFK,11434
10976,NJ-AB09,NJ,Newark,JFK,11434
10977,NJ-AA09,NJ,Newark,JFK,11434
10980,NJ-AA01,NJ,Newark,JFK,11434
10983,NJ-AB08,NJ,Newark,JFK,11434
10984,NJ-AA02,NJ,Newark,JFK,11434
10989,NJ-AB02,NJ,Newark,JFK,11434
10993,NJ-AA04,NJ,Newark,JFK,11434
10994,NJ-AB04,NJ,Newark,JFK,11434
11001,NY-EC09,NY,Long Island,JFK,11434
11003,NY-EC01,NY,Long Island,JFK,11434
11004,NY-ED01,NY,Long Island,JFK,11434
11005,NY-EC02,NY,Long Island,JFK,11434
11010,NY-EC02,NY,Long Island,JFK,11434
11020,NY-ED05,NY,Long Island,JFK,11434
11021,NY-ED06,NY,Long Island,JFK,11434
11023,NY-ED07,NY,Long Island,JFK,11434
11024,NY-ED08,NY,Long Island,JFK,11434
11030,NY-EF01,NY,Long Island,JFK,11434
11040,NY-ED03,NY,Long Island,JFK,11434
11042,NY-ED04,NY,Long Island,JFK,11434
11050,NY-EF02,NY,Long Island,JFK,11434
11096,NY-EA01,NY,Long Island,JFK,11434
11101,NY-DA02,NY,Queens,JFK,11434
11102,NY-DA06,NY,Queens,JFK,11434
11103,NY-DA04,NY,Queens,JFK,11434
11104,NY-DA03,NY,Queens,JFK,11434
11105,NY-DA07,NY,Queens,JFK,11434
11106,NY-DA05,NY,Queens,JFK,11434
11109,NY-DA01,NY,Queens,JFK,11434
11201,NY-CC06,NY,Brooklyn,JFK,11434
11203,NY-CE09,NY,Brooklyn,JFK,11434
11204,NY-CA05,NY,Brooklyn,JFK,11434
11205,NY-CD03,NY,Brooklyn,JFK,11434
11206,NY-CD04,NY,Brooklyn,JFK,11434
11207,NY-CE05,NY,Brooklyn,JFK,11434
11208,NY-CE06,NY,Brooklyn,JFK,11434
11209,NY-CA01,NY,Brooklyn,JFK,11434
11210,NY-CB07,NY,Brooklyn,JFK,11434
11211,NY-CD02,NY,Brooklyn,JFK,11434
11212,NY-CE08,NY,Brooklyn,JFK,11434
11213,NY-CE03,NY,Brooklyn,JFK,11434
11214,NY-CA04,NY,Brooklyn,JFK,11434
11215,NY-CC02,NY,Brooklyn,JFK,11434
11216,NY-CD07,NY,Brooklyn,JFK,11434
11217,NY-CC05,NY,Brooklyn,JFK,11434
11218,NY-CC03,NY,Brooklyn,JFK,11434
11219,NY-CA06,NY,Brooklyn,JFK,11434
11220,NY-CA07,NY,Brooklyn,JFK,11434
11221,NY-CD06,NY,Brooklyn,JFK,11434
11222,NY-CD01,NY,Brooklyn,JFK,11434
11223,NY-CB03,NY,Brooklyn,JFK,11434
11224,NY-CB01,NY,Brooklyn,JFK,11434
11225,NY-CE02,NY,Brooklyn,JFK,11434
11226,NY-CE01,NY,Brooklyn,JFK,11434
11228,NY-CA03,NY,Brooklyn,JFK,11434
11229,NY-CB04,NY,Brooklyn,JFK,11434
11230,NY-CB06,NY,Brooklyn,JFK,11434
11231,NY-CC04,NY,Brooklyn,JFK,11434
11232,NY-CC01,NY,Brooklyn,JFK,11434
11233,NY-CE04,NY,Brooklyn,JFK,11434
11234,NY-CB05,NY,Brooklyn,JFK,11434
11235,NY-CB02,NY,Brooklyn,JFK,11434
11236,NY-CE10,NY,Brooklyn,JFK,11434
11237,NY-CD05,NY,Brooklyn,JFK,11434
11238,NY-CD08,NY,Brooklyn,JFK,11434
11239,NY-CE07,NY,Brooklyn,JFK,11434
11354,NY-DC10,NY,Queens,JFK,11434
11355,NY-DC09,NY,Queens,JFK,11434
11356,NY-DC11,NY,Queens,JFK,11434
11357,NY-DC12,NY,Queens,JFK,11434
11358,NY-DC08,NY,Queens,JFK,11434
11359,NY-DC14,NY,Queens,JFK,11434
11360,NY-DC13,NY,Queens,JFK,11434
11361,NY-DC07,NY,Queens,JFK,11434
11362,NY-DC05,NY,Queens,JFK,11434
11363,NY-DC06,NY,Queens,JFK,11434
11364,NY-DC04,NY,Queens,JFK,11434
11365,NY-DC03,NY,Queens,JFK,11434
11366,NY-DC02,NY,Queens,JFK,11434
11367,NY-DC01,NY,Queens,JFK,11434
11368,NY-DB12,NY,Queens,JFK,11434
11369,NY-DB10,NY,Queens,JFK,11434
11370,NY-DB09,NY,Queens,JFK,11434
11371,NY-DB11,NY,Queens,JFK,11434
11372,NY-DB08,NY,Queens,JFK,11434
11373,NY-DB06,NY,Queens,JFK,11434
11374,NY-DB04,NY,Queens,JFK,11434
11375,NY-DB05,NY,Queens,JFK,11434
11377,NY-DB07,NY,Queens,JFK,11434
11378,NY-DB02,NY,Queens,JFK,11434
11379,NY-DB03,NY,Queens,JFK,11434
11385,NY-DB01,NY,Queens,JFK,11434
11411,NY-DE11,NY,Queens,JFK,11434
11412,NY-DE08,NY,Queens,JFK,11434
11413,NY-DE09,NY,Queens,JFK,11434
11414,NY-DD04,NY,Queens,JFK,11434
11415,NY-DD08,NY,Queens,JFK,11434
11416,NY-DD02,NY,Queens,JFK,11434
11417,NY-DD03,NY,Queens,JFK,11434
11418,NY-DD07,NY,Queens,JFK,11434
11419,NY-DD06,NY,Queens,JFK,11434
11420,NY-DD05,NY,Queens,JFK,11434
11421,NY-DD01,NY,Queens,JFK,11434
11422,NY-DE10,NY,Queens,JFK,11434
11423,NY-DE07,NY,Queens,JFK,11434
11424,NY-DD09,NY,Queens,JFK,11434
11425,NY-CA02,NY,Brooklyn,JFK,11434
11426,NY-DE15,NY,Queens,JFK,11434
11427,NY-DE14,NY,Queens,JFK,11434
11428,NY-DE13,NY,Queens,JFK,11434
11429,NY-DE12,NY,Queens,JFK,11434
11430,NY-DD10,NY,Queens,JFK,11434
11432,NY-DE06,NY,Queens,JFK,11434
11433,NY-DE04,NY,Queens,JFK,11434
11434,NY-DE03,NY,Queens,JFK,11434
11435,NY-DE01,NY,Queens,JFK,11434
11436,NY-DE02,NY,Queens,JFK,11434
11451,NY-DE05,NY,Queens,JFK,11434
11501,NY-EF07,NY,Long Island,JFK,11434
11507,NY-EF05,NY,Long Island,JFK,11434
11509,NY-EB01,NY,Long Island,JFK,11434
11510,NY-EB07,NY,Long Island,JFK,11434
11514,NY-EF08,NY,Long Island,JFK,11434
11516,NY-EA03,NY,Long Island,JFK,11434
11518,NY-EA07,NY,Long Island,JFK,11434
11520,NY-EB09,NY,Long Island,JFK,11434
11530,NY-EC08,NY,Long Island,JFK,11434
11542,NY-EI06,NY,Long Island,JFK,11434
11545,NY-EI03,NY,Long Island,JFK,11434
11547,NY-EI04,NY,Long Island,JFK,11434
11548,NY-EI02,NY,Long Island,JFK,11434
11549,NY-EC07,NY,Long Island,JFK,11434
11550,NY-EC04,NY,Long Island,JFK,11434
11552,NY-EC03,NY,Long Island,JFK,11434
11553,NY-EC05,NY,Long Island,JFK,11434
11554,NY-EH02,NY,Long Island,JFK,11434
11556,NY-EC06,NY,Long Island,JFK,11434
11557,NY-EA05,NY,Long Island,JFK,11434
11558,NY-EB04,NY,Long Island,JFK,11434
11559,NY-EA02,NY,Long Island,JFK,11434
11560,NY-EI07,NY,Long Island,JFK,11434
11561,NY-EB02,NY,Long Island,JFK,11434
11563,NY-EA08,NY,Long Island,JFK,11434
11565,NY-EA09,NY,Long Island,JFK,11434
11566,NY-EG01,NY,Long Island,JFK,11434
11568,NY-EI01,NY,Long Island,JFK,11434
11569,NY-EB03,NY,Long Island,JFK,11434
11570,NY-EB06,NY,Long Island,JFK,11434
11572,NY-EB05,NY,Long Island,JFK,11434
11575,NY-EB08,NY,Long Island,JFK,11434
11576,NY-EF03,NY,Long Island,JFK,11434
11577,NY-EF04,NY,Long Island,JFK,11434
11579,NY-EI05,NY,Long Island,JFK,11434
11580,NY-EA10,NY,Long Island,JFK,11434
11581,NY-EA06,NY,Long Island,JFK,11434
11590,NY-EH01,NY,Long Island,JFK,11434
11596,NY-EF06,NY,Long Island,JFK,11434
11598,NY-EA04,NY,Long Island,JFK,11434
11691,NY-DF05,NY,Queens,JFK,11434
11692,NY-DF04,NY,Queens,JFK,11434
11693,NY-DF03,NY,Queens,JFK,11434
11694,NY-DF02,NY,Queens,JFK,11434
11697,NY-DF01,NY,Queens,JFK,11434
11701,NY-EG07,NY,Long Island,JFK,11434
11702,NY-EL02,NY,Long Island,JFK,11434
11703,NY-EL03,NY,Long Island,JFK,11434
11704,NY-EL02,NY,Long Island,JFK,11434
11705,NY-EN04,NY,Long Island,JFK,11434
11706,NY-EL06,NY,Long Island,JFK,11434
11709,NY-EI08,NY,Long Island,JFK,11434
11710,NY-EG02,NY,Long Island,JFK,11434
11713,NY-EN07,NY,Long Island,JFK,11434
11714,NY-EH05,NY,Long Island,JFK,11434
11715,NY-EN05,NY,Long Island,JFK,11434
11716,NY-EO05,NY,Long Island,JFK,11434
11717,NY-EL05,NY,Long Island,JFK,11434
11718,NY-EL08,NY,Long Island,JFK,11434
11719,NY-ER02,NY,Long Island,JFK,11434
11720,NY-EP06,NY,Long Island,JFK,11434
11721,NY-EJ06,NY,Long Island,JFK,11434
11722,NY-EM05,NY,Long Island,JFK,11434
11724,NY-EJ04,NY,Long Island,JFK,11434
11725,NY-EK02,NY,Long Island,JFK,11434
11726,NY-EG08,NY,Long Island,JFK,11434
11727,NY-EQ02,NY,Long Island,JFK,11434
11729,NY-EL04,NY,Long Island,JFK,11434
11730,NY-EM02,NY,Long Island,JFK,11434
11731,NY-EK01,NY,Long Island,JFK,11434
11732,NY-EI11,NY,Long Island,JFK,11434
11733,NY-EQ06,NY,Long Island,JFK,11434
11735,NY-EH06,NY,Long Island,JFK,11434
11738,NY-EO02,NY,Long Island,JFK,11434
11739,NY-EM03,NY,Long Island,JFK,11434
11740,NY-EJ05,NY,Long Island,JFK,11434
11741,NY-EO04,NY,Long Island,JFK,11434
11742,NY-EO03,NY,Long Island,JFK,11434
11743,NY-EJ03,NY,Long Island,JFK,11434
11746,NY-EJ02,NY,Long Island,JFK,11434
11747,NY-EJ01,NY,Long Island,JFK,11434
11749,NY-EM06,NY,Long Island,JFK,11434
11751,NY-EM01,NY,Long Island,JFK,11434
11752,NY-EM04,NY,Long Island,JFK,11434
11753,NY-EI14,NY,Long Island,JFK,11434
11754,NY-EK05,NY,Long Island,JFK,11434
11755,NY-EP05,NY,Long Island,JFK,11434
11756,NY-EH04,NY,Long Island,JFK,11434
11757,NY-EL01,NY,Long Island,JFK,11434
11758,NY-EG05,NY,Long Island,JFK,11434
11762,NY-EG06,NY,Long Island,JFK,11434
11763,NY-EO01,NY,Long Island,JFK,11434
11764,NY-ET01,NY,Long Island,JFK,11434
11765,NY-EI09,NY,Long Island,JFK,11434
11766,NY-EQ03,NY,Long Island,JFK,11434
11767,NY-EP01,NY,Long Island,JFK,11434
11768,NY-EK06,NY,Long Island,JFK,11434
11769,NY-EN01,NY,Long Island,JFK,11434
11770,NY-EM07,NY,Long Island,JFK,11434
11771,NY-EI10,NY,Long Island,JFK,11434
11772,NY-EN06,NY,Long Island,JFK,11434
11776,NY-EQ04,NY,Long Island,JFK,11434
11777,NY-EQ05,NY,Long Island,JFK,11434
11778,NY-ET04,NY,Long Island,JFK,11434
11779,NY-EO06,NY,Long Island,JFK,11434
11780,NY-EP02,NY,Long Island,JFK,11434
11782,NY-EN03,NY,Long Island,JFK,11434
11783,NY-EG04,NY,Long Island,JFK,11434
11784,NY-EQ01,NY,Long Island,JFK,11434
11786,NY-ET05,NY,Long Island,JFK,11434
11787,NY-EK04,NY,Long Island,JFK,11434
11788,NY-EK03,NY,Long Island,JFK,11434
11789,NY-ET02,NY,Long Island,JFK,11434
11790,NY-EP03,NY,Long Island,JFK,11434
11791,NY-EI12,NY,Long Island,JFK,11434
11792,NY-EU01,NY,Long Island,JFK,11434
11793,NY-EG03,NY,Long Island,JFK,11434
11794,NY-EP04,NY,Long Island,JFK,11434
11795,NY-EL07,NY,Long Island,JFK,11434
11796,NY-EN02,NY,Long Island,JFK,11434
11797,NY-EI13,NY,Long Island,JFK,11434
11798,NY-EL01,NY,Long Island,JFK,11434
11801,NY-EH03,NY,Long Island,JFK,11434
11803,NY-EH08,NY,Long Island,JFK,11434
11804,NY-EH07,NY,Long Island,JFK,11434
11901,NY-EV01,NY,Long Island,JFK,11434
11930,NY-EY07,NY,Long Island,JFK,11434
11931,NY-EV02,NY,Long Island,JFK,11434
11932,NY-EX07,NY,Long Island,JFK,11434
11933,NY-EU05,NY,Long Island,JFK,11434
11934,NY-ES01,NY,Long Island,JFK,11434
11935,NY-EV07,NY,Long Island,JFK,11434
11937,NY-EY06,NY,Long Island,JFK,11434
11939,NY-EW05,NY,Long Island,JFK,11434
11940,NY-ES02,NY,Long Island,JFK,11434
11941,NY-ES03,NY,Long Island,JFK,11434
11942,NY-EX03,NY,Long Island,JFK,11434
11944,NY-EW04,NY,Long Island,JFK,11434
11946,NY-EX04,NY,Long Island,JFK,11434
11947,NY-EV04,NY,Long Island,JFK,11434
11948,NY-EV05,NY,Long Island,JFK,11434
11949,NY-EU04,NY,Long Island,JFK,11434
11950,NY-ER04,NY,Long Island,JFK,11434
11951,NY-ER05,NY,Long Island,JFK,11434
11952,NY-EV06,NY,Long Island,JFK,11434
11953,NY-ET03,NY,Long Island,JFK,11434
11954,NY-EY08,NY,Long Island,JFK,11434
11955,NY-ER06,NY,Long Island,JFK,11434
11956,NY-EW01,NY,Long Island,JFK,11434
11957,NY-EW06,NY,Long Island,JFK,11434
11958,NY-EW02,NY,Long Island,JFK,11434
11959,NY-EX02,NY,Long Island,JFK,11434
11960,NY-ES05,NY,Long Island,JFK,11434
11961,NY-EU02,NY,Long Island,JFK,11434
11962,NY-EY01,NY,Long Island,JFK,11434
11963,NY-EY03,NY,Long Island,JFK,11434
11964,NY-EY04,NY,Long Island,JFK,11434
11965,NY-EY05,NY,Long Island,JFK,11434
11967,NY-ER03,NY,Long Island,JFK,11434
11968,NY-EX05,NY,Long Island,JFK,11434
11970,NY-EV03,NY,Long Island,JFK,11434
11971,NY-EW03,NY,Long Island,JFK,11434
11972,NY-ES04,NY,Long Island,JFK,11434
11973,NY-EU03,NY,Long Island,JFK,11434
11975,NY-EY02,NY,Long Island,JFK,11434
11976,NY-EX06,NY,Long Island,JFK,11434
11977,NY-ES06,NY,Long Island,JFK,11434
11978,NY-EX01,NY,Long Island,JFK,11434
11980,NY-ER01,NY,Long Island,JFK,11434
15001,,PA,Pittsburgh,JFK,11434
15003,,PA,Pittsburgh,JFK,11434
15004,,PA,Pittsburgh,JFK,11434
15005,,PA,Pittsburgh,JFK,11434
15006,,PA,Pittsburgh,JFK,11434
15007,,PA,Pittsburgh,JFK,11434
15012,,PA,Pittsburgh,JFK,11434
15014,,PA,Pittsburgh,JFK,11434
15015,,PA,Pittsburgh,JFK,11434
15017,,PA,Pittsburgh,JFK,11434
15018,,PA,Pittsburgh,JFK,11434
15019,,PA,Pittsburgh,JFK,11434
15020,,PA,Pittsburgh,JFK,11434
15021,,PA,Pittsburgh,JFK,11434
15022,,PA,Pittsburgh,JFK,11434
15024,,PA,Pittsburgh,JFK,11434
15025,,PA,Pittsburgh,JFK,11434
15026,,PA,Pittsburgh,JFK,11434
15027,,PA,Pittsburgh,JFK,11434
15028,,PA,Pittsburgh,JFK,11434
15030,,PA,Pittsburgh,JFK,11434
15031,,PA,Pittsburgh,JFK,11434
15033,,PA,Pittsburgh,JFK,11434
15034,,PA,Pittsburgh,JFK,11434
15035,,PA,Pittsburgh,JFK,11434
15037,,PA,Pittsburgh,JFK,11434
15038,,PA,Pittsburgh,JFK,11434
15042,,PA,Pittsburgh,JFK,11434
15044,,PA,Pittsburgh,JFK,11434
15045,,PA,Pittsburgh,JFK,11434
15046,,PA,Pittsburgh,JFK,11434
15047,,PA,Pittsburgh,JFK,11434
15049,,PA,Pittsburgh,JFK,11434
15051,,PA,Pittsburgh,JFK,11434
15053,,PA,Pittsburgh,JFK,11434
15055,,PA,Pittsburgh,JFK,11434
15056,,PA,Pittsburgh,JFK,11434
15057,,PA,Pittsburgh,JFK,11434
15060,,PA,Pittsburgh,JFK,11434
15061,,PA,Pittsburgh,JFK,11434
15062,,PA,Pittsburgh,JFK,11434
15063,,PA,Pittsburgh,JFK,11434
15064,,PA,Pittsburgh,JFK,11434
15065,,PA,Pittsburgh,JFK,11434
15067,,PA,Pittsburgh,JFK,11434
15068,,PA,Pittsburgh,JFK,11434
15071,,PA,Pittsburgh,JFK,11434
15072,,PA,Pittsburgh,JFK,11434
15074,,PA,Pittsburgh,JFK,11434
15075,,PA,Pittsburgh,JFK,11434
15076,,PA,Pittsburgh,JFK,11434
15078,,PA,Pittsburgh,JFK,11434
15081,,PA,Pittsburgh,JFK,11434
15082,,PA,Pittsburgh,JFK,11434
15083,,PA,Pittsburgh,JFK,11434
15084,,PA,Pittsburgh,JFK,11434
15085,,PA,Pittsburgh,JFK,11434
15086,,PA,Pittsburgh,JFK,11434
15087,,PA,Pittsburgh,JFK,11434
15088,,PA,Pittsburgh,JFK,11434
15089,,PA,Pittsburgh,JFK,11434
15090,,PA,Pittsburgh,JFK,11434
15101,,PA,Pittsburgh,JFK,11434
15102,,PA,Pittsburgh,JFK,11434
15104,,PA,Pittsburgh,JFK,11434
15106,,PA,Pittsburgh,JFK,11434
15108,,PA,Pittsburgh,JFK,11434
15110,,PA,Pittsburgh,JFK,11434
15112,,PA,Pittsburgh,JFK,11434
15116,,PA,Pittsburgh,JFK,11434
15120,,PA,Pittsburgh,JFK,11434
15122,,PA,Pittsburgh,JFK,11434
15126,,PA,Pittsburgh,JFK,11434
15129,,PA,Pittsburgh,JFK,11434
15131,,PA,Pittsburgh,JFK,11434
15132,,PA,Pittsburgh,JFK,11434
15133,,PA,Pittsburgh,JFK,11434
15135,,PA,Pittsburgh,JFK,11434
15136,,PA,Pittsburgh,JFK,11434
15137,,PA,Pittsburgh,JFK,11434
15139,,PA,Pittsburgh,JFK,11434
15140,,PA,Pittsburgh,JFK,11434
15142,,PA,Pittsburgh,JFK,11434
15143,,PA,Pittsburgh,JFK,11434
15144,,PA,Pittsburgh,JFK,11434
15145,,PA,Pittsburgh,JFK,11434
15146,,PA,Pittsburgh,JFK,11434
15147,,PA,Pittsburgh,JFK,11434
15148,,PA,Pittsburgh,JFK,11434
15201,,PA,Pittsburgh,JFK,11434
15202,,PA,Pittsburgh,JFK,11434
15203,,PA,Pittsburgh,JFK,11434
15204,,PA,Pittsburgh,JFK,11434
15205,,PA,Pittsburgh,JFK,11434
15206,,PA,Pittsburgh,JFK,11434
15207,,PA,Pittsburgh,JFK,11434
15208,,PA,Pittsburgh,JFK,11434
15209,,PA,Pittsburgh,JFK,11434
15210,,PA,Pittsburgh,JFK,11434
15211,,PA,Pittsburgh,JFK,11434
15212,,PA,Pittsburgh,JFK,11434
15213,,PA,Pittsburgh,JFK,11434
15214,,PA,Pittsburgh,JFK,11434
15215,,PA,Pittsburgh,JFK,11434
15216,,PA,Pittsburgh,JFK,11434
15217,,PA,Pittsburgh,JFK,11434
15218,,PA,Pittsburgh,JFK,11434
15219,,PA,Pittsburgh,JFK,11434
15220,,PA,Pittsburgh,JFK,11434
15221,,PA,Pittsburgh,JFK,11434
15222,,PA,Pittsburgh,JFK,11434
15223,,PA,Pittsburgh,JFK,11434
15224,,PA,Pittsburgh,JFK,11434
15225,,PA,Pittsburgh,JFK,11434
15226,,PA,Pittsburgh,JFK,11434
15227,,PA,Pittsburgh,JFK,11434
15228,,PA,Pittsburgh,JFK,11434
15229,,PA,Pittsburgh,JFK,11434
15232,,PA,Pittsburgh,JFK,11434
15233,,PA,Pittsburgh,JFK,11434
15234,,PA,Pittsburgh,JFK,11434
15235,,PA,Pittsburgh,JFK,11434
15236,,PA,Pittsburgh,JFK,11434
15237,,PA,Pittsburgh,JFK,11434
15238,,PA,Pittsburgh,JFK,11434
15239,,PA,Pittsburgh,JFK,11434
15241,,PA,Pittsburgh,JFK,11434
15243,,PA,Pittsburgh,JFK,11434
15260,,PA,Pittsburgh,JFK,11434
15290,,PA,Pittsburgh,JFK,11434
15314,,PA,Pittsburgh,JFK,11434
15317,,PA,Pittsburgh,JFK,11434
15321,,PA,Pittsburgh,JFK,11434
15330,,PA,Pittsburgh,JFK,11434
15331,,PA,Pittsburgh,JFK,11434
15332,,PA,Pittsburgh,JFK,11434
15340,,PA,Pittsburgh,JFK,11434
15342,,PA,Pittsburgh,JFK,11434
15347,,PA,Pittsburgh,JFK,11434
15350,,PA,Pittsburgh,JFK,11434
15361,,PA,Pittsburgh,JFK,11434
15363,,PA,Pittsburgh,JFK,11434
15366,,PA,Pittsburgh,JFK,11434
15367,,PA,Pittsburgh,JFK,11434
15378,,PA,Pittsburgh,JFK,11434
15423,,PA,Pittsburgh,JFK,11434
15432,,PA,Pittsburgh,JFK,11434
15438,,PA,Pittsburgh,JFK,11434
15448,,PA,Pittsburgh,JFK,11434
15479,,PA,Pittsburgh,JFK,11434
15492,,PA,Pittsburgh,JFK,11434
15601,,PA,Pittsburgh,JFK,11434
15611,,PA,Pittsburgh,JFK,11434
15613,,PA,Pittsburgh,JFK,11434
15615,,PA,Pittsburgh,JFK,11434
15617,,PA,Pittsburgh,JFK,11434
15618,,PA,Pittsburgh,JFK,11434
15623,,PA,Pittsburgh,JFK,11434
15625,,PA,Pittsburgh,JFK,11434
15626,,PA,Pittsburgh,JFK,11434
15629,,PA,Pittsburgh,JFK,11434
15632,,PA,Pittsburgh,JFK,11434
15633,,PA,Pittsburgh,JFK,11434
15634,,PA,Pittsburgh,JFK,11434
15635,,PA,Pittsburgh,JFK,11434
15636,,PA,Pittsburgh,JFK,11434
15637,,PA,Pittsburgh,JFK,11434
15639,,PA,Pittsburgh,JFK,11434
15640,,PA,Pittsburgh,JFK,11434
15641,,PA,Pittsburgh,JFK,11434
15642,,PA,Pittsburgh,JFK,11434
15644,,PA,Pittsburgh,JFK,11434
15647,,PA,Pittsburgh,JFK,11434
15656,,PA,Pittsburgh,JFK,11434
15660,,PA,Pittsburgh,JFK,11434
15663,,PA,Pittsburgh,JFK,11434
15665,,PA,Pittsburgh,JFK,11434
15668,,PA,Pittsburgh,JFK,11434
15672,,PA,Pittsburgh,JFK,11434
15673,,PA,Pittsburgh,JFK,11434
15675,,PA,Pittsburgh,JFK,11434
15678,,PA,Pittsburgh,JFK,11434
15680,,PA,Pittsburgh,JFK,11434
15684,,PA,Pittsburgh,JFK,11434
15690,,PA,Pittsburgh,JFK,11434
15691,,PA,Pittsburgh,JFK,11434
15692,,PA,Pittsburgh,JFK,11434
15695,,PA,Pittsburgh,JFK,11434
15697,,PA,Pittsburgh,JFK,11434
15698,,PA,Pittsburgh,JFK,11434
16023,,PA,Pittsburgh,JFK,11434
16024,,PA,Pittsburgh,JFK,11434
16033,,PA,Pittsburgh,JFK,11434
16046,,PA,Pittsburgh,JFK,11434
16053,,PA,Pittsburgh,JFK,11434
16055,,PA,Pittsburgh,JFK,11434
16056,,PA,Pittsburgh,JFK,11434
16059,,PA,Pittsburgh,JFK,11434
16066,,PA,Pittsburgh,JFK,11434
16229,,PA,Pittsburgh,JFK,11434
18940,PA-AA02,PA,Trenton,JFK,11434
18977,PA-AA03,PA,Trenton,JFK,11434
18980,PA-AA01,PA,Trenton,JFK,11434
19003,PA-EB08,PA,Philadelphia,JFK,11434
19004,PA-EB01,PA,Philadelphia,JFK,11434
19007,PA-AB03,PA,Trenton,JFK,11434
19008,PA-EB11,PA,Philadelphia,JFK,11434
19010,PA-EB06,PA,Philadelphia,JFK,11434
19013,PA-EG01,PA,Philadelphia,JFK,11434
19014,PA-EG03,PA,Philadelphia,JFK,11434
19015,PA-EG02,PA,Philadelphia,JFK,11434
19017,PA-EG04,PA,Philadelphia,JFK,11434
19018,PA-EC04,PA,Philadelphia,JFK,11434
19020,PA-AB01,PA,Trenton,JFK,11434
19021,PA-AB02,PA,Trenton,JFK,11434
19022,PA-EF06,PA,Philadelphia,JFK,11434
19023,PA-EC05,PA,Philadelphia,JFK,11434
19026,PA-EC03,PA,Philadelphia,JFK,11434
19029,PA-EA09,PA,Philadelphia,JFK,11434
19030,PA-AB07,PA,Trenton,JFK,11434
19032,PA-EC08,PA,Philadelphia,JFK,11434
19033,PA-ED06,PA,Philadelphia,JFK,11434
19035,PA-EB04,PA,Philadelphia,JFK,11434
19036,PA-EC06,PA,Philadelphia,JFK,11434
19041,PA-EB07,PA,Philadelphia,JFK,11434
19043,PA-EF01,PA,Philadelphia,JFK,11434
19047,PA-AA05,PA,Trenton,JFK,11434
19050,PA-EC02,PA,Philadelphia,JFK,11434
19053,PA-AA06,PA,Trenton,JFK,11434
19054,PA-AB08,PA,Trenton,JFK,11434
19055,PA-AB06,PA,Trenton,JFK,11434
19056,PA-AB05,PA,Trenton,JFK,11434
19057,PA-AB04,PA,Trenton,JFK,11434
19060,PA-EG05,PA,Philadelphia,JFK,11434
19061,PA-EG06,PA,Philadelphia,JFK,11434
19063,PA-ED02,PA,Philadelphia,JFK,11434
19064,PA-ED01,PA,Philadelphia,JFK,11434
19066,PA-EB02,PA,Philadelphia,JFK,11434
19067,PA-AA04,PA,Trenton,JFK,11434
19070,PA-ED05,PA,Philadelphia,JFK,11434
19072,PA-EB03,PA,Philadelphia,JFK,11434
19073,PA-EB12,PA,Philadelphia,JFK,11434
19074,PA-EF02,PA,Philadelphia,JFK,11434
19076,PA-EF03,PA,Philadelphia,JFK,11434
19078,PA-EF04,PA,Philadelphia,JFK,11434
19079,PA-EC07,PA,Philadelphia,JFK,11434
19081,PA-ED04,PA,Philadelphia,JFK,11434
19082,PA-EC01,PA,Philadelphia,JFK,11434
19083,PA-EB10,PA,Philadelphia,JFK,11434
19085,PA-EB05,PA,Philadelphia,JFK,11434
19086,PA-ED03,PA,Philadelphia,JFK,11434
19094,PA-EF05,PA,Philadelphia,JFK,11434
19096,PA-EB09,PA,Philadelphia,JFK,11434
19102,PA-DB04,PA,Philadelphia,JFK,11434
19103,PA-DB05,PA,Philadelphia,JFK,11434
19104,PA-EA04,PA,Philadelphia,JFK,11434
19106,PA-DB02,PA,Philadelphia,JFK,11434
19107,PA-DB03,PA,Philadelphia,JFK,11434
19109,PA-DB01,PA,Philadelphia,JFK,11434
19111,PA-DF01,PA,Philadelphia,JFK,11434
19112,PA-DA01,PA,Philadelphia,JFK,11434
19113,PA-EA08,PA,Philadelphia,JFK,11434
19114,PA-DF09,PA,Philadelphia,JFK,11434
19115,PA-DF06,PA,Philadelphia,JFK,11434
19116,PA-DF07,PA,Philadelphia,JFK,11434
19118,PA-DE07,PA,Philadelphia,JFK,11434
19119,PA-DE06,PA,Philadelphia,JFK,11434
19120,PA-DD03,PA,Philadelphia,JFK,11434
19121,PA-DC03,PA,Philadelphia,JFK,11434
19122,PA-DC04,PA,Philadelphia,JFK,11434
19123,PA-DC01,PA,Philadelphia,JFK,11434
19124,PA-DD05,PA,Philadelphia,JFK,11434
19125,PA-DC05,PA,Philadelphia,JFK,11434
19126,PA-DD04,PA,Philadelphia,JFK,11434
19127,PA-DE04,PA,Philadelphia,JFK,11434
19128,PA-DE05,PA,Philadelphia,JFK,11434
19129,PA-DE03,PA,Philadelphia,JFK,11434
19130,PA-DC02,PA,Philadelphia,JFK,11434
19131,PA-EA01,PA,Philadelphia,JFK,11434
19132,PA-DC08,PA,Philadelphia,JFK,11434
19133,PA-DC07,PA,Philadelphia,JFK,11434
19134,PA-DC06,PA,Philadelphia,JFK,11434
19135,PA-DF03,PA,Philadelphia,JFK,11434
19136,PA-DF05,PA,Philadelphia,JFK,11434
19137,PA-DD06,PA,Philadelphia,JFK,11434
19138,PA-DE01,PA,Philadelphia,JFK,11434
19139,PA-EA03,PA,Philadelphia,JFK,11434
19140,PA-DD01,PA,Philadelphia,JFK,11434
19141,PA-DD02,PA,Philadelphia,JFK,11434
19142,PA-EA06,PA,Philadelphia,JFK,11434
19143,PA-EA05,PA,Philadelphia,JFK,11434
19144,PA-DE02,PA,Philadelphia,JFK,11434
19145,PA-DA03,PA,Philadelphia,JFK,11434
19146,PA-DA04,PA,Philadelphia,JFK,11434
19147,PA-DA05,PA,Philadelphia,JFK,11434
19148,PA-DA02,PA,Philadelphia,JFK,11434
19149,PA-DF02,PA,Philadelphia,JFK,11434
19151,PA-EA02,PA,Philadelphia,JFK,11434
19152,PA-DF04,PA,Philadelphia,JFK,11434
19153,PA-EA07,PA,Philadelphia,JFK,11434
19154,PA-DF08,PA,Philadelphia,JFK,11434
30002,GA -AG08,GA,Atlanta,ATL,30024
30004,GA -AA01,GA,Atlanta,ATL,30024
30005,GA -AA08,GA,Atlanta,ATL,30024
30008,GA -CB06,GA,Atlanta,ATL,30024
30009,GA -AA02,GA,Atlanta,ATL,30024
30012,GA -BC06,GA,Atlanta,ATL,30024
30013,GA -BD04,GA,Atlanta,ATL,30024
30014,GA -BD01,GA,Atlanta,ATL,30024
30016,GA -BD05,GA,Atlanta,ATL,30024
30017,GA -BC04,GA,Atlanta,ATL,30024
30021,GA -AE06,GA,Atlanta,ATL,30024
30022,GA -AA07,GA,Atlanta,ATL,30024
30024,GA -AB01,GA,Atlanta,ATL,30024
30030,GA -AG07,GA,Atlanta,ATL,30024
30032,GA -AG09,GA,Atlanta,ATL,30024
30033,GA -AE07,GA,Atlanta,ATL,30024
30034,GA -AG10,GA,Atlanta,ATL,30024
30035,GA -AA04,GA,Atlanta,ATL,30024
30038,GA -BB04,GA,Atlanta,ATL,30024
30039,GA -BC01,GA,Atlanta,ATL,30024
30043,GA -AB08,GA,Atlanta,ATL,30024
30044,GA -AB07,GA,Atlanta,ATL,30024
30045,GA -BC03,GA,Atlanta,ATL,30024
30046,GA -AB09,GA,Atlanta,ATL,30024
30047,GA -AB06,GA,Atlanta,ATL,30024
30052,GA -BC05,GA,Atlanta,ATL,30024
30054,GA -BD03,GA,Atlanta,ATL,30024
30058,GA -BB05,GA,Atlanta,ATL,30024
30060,GA -CB07,GA,Atlanta,ATL,30024
30062,GA -CA08,GA,Atlanta,ATL,30024
30064,GA -CB05,GA,Atlanta,ATL,30024
30066,GA -CA07,GA,Atlanta,ATL,30024
30067,GA -CB09,GA,Atlanta,ATL,30024
30068,GA -CB08,GA,Atlanta,ATL,30024
30070,GA -BD02,GA,Atlanta,ATL,30024
30071,GA -AB04,GA,Atlanta,ATL,30024
30072,GA -AE04,GA,Atlanta,ATL,30024
30075,GA -CA09,GA,Atlanta,ATL,30024
30076,GA -AA03,GA,Atlanta,ATL,30024
30078,GA -BC02,GA,Atlanta,ATL,30024
30079,GA -AE08,GA,Atlanta,ATL,30024
30080,GA -CC02,GA,Atlanta,ATL,30024
30082,GA -CC03,GA,Atlanta,ATL,30024
30083,GA -AE03,GA,Atlanta,ATL,30024
30084,GA -AE01,GA,Atlanta,ATL,30024
30087,GA -AE02,GA,Atlanta,ATL,30024
30088,GA -AE05,GA,Atlanta,ATL,30024
30092,GA -AA06,GA,Atlanta,ATL,30024
30093,GA -AB05,GA,Atlanta,ATL,30024
30094,GA -BD06,GA,Atlanta,ATL,30024
30096,GA -AB03,GA,Atlanta,ATL,30024
30097,GA -AB02,GA,Atlanta,ATL,30024
30101,GA -CA01,GA,Atlanta,ATL,30024
30102,GA -CA04,GA,Atlanta,ATL,30024
30106,GA -CC05,GA,Atlanta,ATL,30024
30116,GA -CD07,GA,Atlanta,ATL,30024
30122,GA -CD01,GA,Atlanta,ATL,30024
30126,GA -CC04,GA,Atlanta,ATL,30024
30127,GA -CB04,GA,Atlanta,ATL,30024
30132,GA -CB01,GA,Atlanta,ATL,30024
30134,GA -CD03,GA,Atlanta,ATL,30024
30135,GA -CD02,GA,Atlanta,ATL,30024
30141,GA -CB03,GA,Atlanta,ATL,30024
30144,GA -CA03,GA,Atlanta,ATL,30024
30152,GA -CA02,GA,Atlanta,ATL,30024
30157,GA -CB02,GA,Atlanta,ATL,30024
30168,GA -CC06,GA,Atlanta,ATL,30024
30179,GA -CD06,GA,Atlanta,ATL,30024
30180,GA -CD05,GA,Atlanta,ATL,30024
30185,GA -CD08,GA,Atlanta,ATL,30024
30187,GA -CD04,GA,Atlanta,ATL,30024
30188,GA -CA06,GA,Atlanta,ATL,30024
30189,GA -CA05,GA,Atlanta,ATL,30024
30213,GA -CE09,GA,Atlanta,ATL,30024
30214,GA -BF05,GA,Atlanta,ATL,30024
30215,GA -BF04,GA,Atlanta,ATL,30024
30228,GA -BF09,GA,Atlanta,ATL,30024
30236,GA -BF01,GA,Atlanta,ATL,30024
30238,GA -BF03,GA,Atlanta,ATL,30024
30250,GA -BF02,GA,Atlanta,ATL,30024
30252,GA -BD07,GA,Atlanta,ATL,30024
30253,GA -BD09,GA,Atlanta,ATL,30024
30260,GA -BB01,GA,Atlanta,ATL,30024
30263,GA -CE01,GA,Atlanta,ATL,30024
30265,GA -CE03,GA,Atlanta,ATL,30024
30268,GA -CE08,GA,Atlanta,ATL,30024
30269,GA -CE06,GA,Atlanta,ATL,30024
30273,GA -BB02,GA,Atlanta,ATL,30024
30274,GA -BF06,GA,Atlanta,ATL,30024
30275,GA -CE02,GA,Atlanta,ATL,30024
30277,GA -CE04,GA,Atlanta,ATL,30024
30281,GA -BD08,GA,Atlanta,ATL,30024
30288,GA -BA08,GA,Atlanta,ATL,30024
30289,GA -CE05,GA,Atlanta,ATL,30024
30290,GA -CE07,GA,Atlanta,ATL,30024
30291,GA -CE10,GA,Atlanta,ATL,30024
30294,GA -BB03,GA,Atlanta,ATL,30024
30296,GA -BF07,GA,Atlanta,ATL,30024
30297,GA -BA07,GA,Atlanta,ATL,30024
30303,GA -AF07,GA,Atlanta,ATL,30024
30305,GA -AC03,GA,Atlanta,ATL,30024
30306,GA -AG01,GA,Atlanta,ATL,30024
30307,GA -AG03,GA,Atlanta,ATL,30024
30308,GA -AF09,GA,Atlanta,ATL,30024
30309,GA -AF04,GA,Atlanta,ATL,30024
30310,GA -BA03,GA,Atlanta,ATL,30024
30311,GA -BA01,GA,Atlanta,ATL,30024
30312,GA -AG04,GA,Atlanta,ATL,30024
30313,GA -AF06,GA,Atlanta,ATL,30024
30314,GA -AF02,GA,Atlanta,ATL,30024
30315,GA -BA04,GA,Atlanta,ATL,30024
30316,GA -AG05,GA,Atlanta,ATL,30024
30317,GA -AG06,GA,Atlanta,ATL,30024
30318,GA -AF01,GA,Atlanta,ATL,30024
30319,GA -AD01,GA,Atlanta,ATL,30024
30322,GA -AG02,GA,Atlanta,ATL,30024
30324,GA -AD06,GA,Atlanta,ATL,30024
30326,GA -AC04,GA,Atlanta,ATL,30024
30327,GA -AC02,GA,Atlanta,ATL,30024
30328,GA -AC01,GA,Atlanta,ATL,30024
30329,GA -AD05,GA,Atlanta,ATL,30024
30331,GA -CC08,GA,Atlanta,ATL,30024
30332,GA -AF05,GA,Atlanta,ATL,30024
30334,GA -AF08,GA,Atlanta,ATL,30024
30336,GA -CC07,GA,Atlanta,ATL,30024
30337,GA -BA06,GA,Atlanta,ATL,30024
30338,GA -AC07,GA,Atlanta,ATL,30024
30339,GA -CC01,GA,Atlanta,ATL,30024
30340,GA -AD03,GA,Atlanta,ATL,30024
30341,GA -AD02,GA,Atlanta,ATL,30024
30342,GA -AC05,GA,Atlanta,ATL,30024
30344,GA -BA02,GA,Atlanta,ATL,30024
30345,GA -AD04,GA,Atlanta,ATL,30024
30346,GA -AC06,GA,Atlanta,ATL,30024
30349,GA -BF08,GA,Atlanta,ATL,30024
30350,GA -AA05,GA,Atlanta,ATL,30024
30354,GA -BA05,GA,Atlanta,ATL,30024
30360,GA -AC08,GA,Atlanta,ATL,30024
30363,GA -AF03,GA,Atlanta,ATL,30024
32003,FL-KC07,FL,Jacksonville,MIA,33122
32065,FL-KC04,FL,Jacksonville,MIA,33122
32068,FL-KC06,FL,Jacksonville,MIA,33122
32073,FL-KC05,FL,Jacksonville,MIA,33122
32081,FL-KE07,FL,Jacksonville,MIA,33122
32082,FL-KE08,FL,Jacksonville,MIA,33122
32202,FL-KA01,FL,Jacksonville,MIA,33122
32204,FL-KB01,FL,Jacksonville,MIA,33122
32205,FL-KB02,FL,Jacksonville,MIA,33122
32206,FL-KA02,FL,Jacksonville,MIA,33122
32207,FL-KD03,FL,Jacksonville,MIA,33122
32208,FL-KA04,FL,Jacksonville,MIA,33122
32209,FL-KA03,FL,Jacksonville,MIA,33122
32210,FL-KB06,FL,Jacksonville,MIA,33122
32211,FL-KD02,FL,Jacksonville,MIA,33122
32212,FL-KC01,FL,Jacksonville,MIA,33122
32216,FL-KD04,FL,Jacksonville,MIA,33122
32217,FL-KE01,FL,Jacksonville,MIA,33122
32218,FL-KA05,FL,Jacksonville,MIA,33122
32219,FL-KA06,FL,Jacksonville,MIA,33122
32220,FL-KB04,FL,Jacksonville,MIA,33122
32221,FL-KB05,FL,Jacksonville,MIA,33122
32222,FL-KC03,FL,Jacksonville,MIA,33122
32223,FL-KE03,FL,Jacksonville,MIA,33122
32224,FL-KD06,FL,Jacksonville,MIA,33122
32225,FL-KD07,FL,Jacksonville,MIA,33122
32227,FL-KD01,FL,Jacksonville,MIA,33122
32228,FL-KD09,FL,Jacksonville,MIA,33122
32233,FL-KD10,FL,Jacksonville,MIA,33122
32244,FL-KC02,FL,Jacksonville,MIA,33122
32246,FL-KD05,FL,Jacksonville,MIA,33122
32250,FL-KD12,FL,Jacksonville,MIA,33122
32254,FL-KB03,FL,Jacksonville,MIA,33122
32256,FL-KE06,FL,Jacksonville,MIA,33122
32257,FL-KE02,FL,Jacksonville,MIA,33122
32258,FL-KE04,FL,Jacksonville,MIA,33122
32259,FL-KE05,FL,Jacksonville,MIA,33122
32266,FL-KD11,FL,Jacksonville,MIA,33122
32277,FL-KD08,FL,Jacksonville,MIA,33122
32701,FL-EA03,FL,Orlando,MIA,33122
32703,FL-EC01,FL,Orlando,MIA,33122
32707,FL-EA01,FL,Orlando,MIA,33122
32708,FL-DC01,FL,Orlando,MIA,33122
32712,FL-EC02,FL,Orlando,MIA,33122
32713,FL-EB01,FL,Orlando,MIA,33122
32714,FL-EA04,FL,Orlando,MIA,33122
32720,FL-EB07,FL,Orlando,MIA,33122
32724,FL-EB06,FL,Orlando,MIA,33122
32725,FL-EB02,FL,Orlando,MIA,33122
32726,FL-EC06,FL,Orlando,MIA,33122
32730,FL-EA02,FL,Orlando,MIA,33122
32738,FL-EB03,FL,Orlando,MIA,33122
32744,FL-EB05,FL,Orlando,MIA,33122
32746,FL-EA07,FL,Orlando,MIA,33122
32750,FL-EA06,FL,Orlando,MIA,33122
32751,FL-DB01,FL,Orlando,MIA,33122
32757,FL-EC05,FL,Orlando,MIA,33122
32763,FL-EB04,FL,Orlando,MIA,33122
32765,FL-DC02,FL,Orlando,MIA,33122
32766,FL-DC03,FL,Orlando,MIA,33122
32771,FL-EA09,FL,Orlando,MIA,33122
32773,FL-EA08,FL,Orlando,MIA,33122
32776,FL-EC04,FL,Orlando,MIA,33122
32778,FL-EC07,FL,Orlando,MIA,33122
32779,FL-EA05,FL,Orlando,MIA,33122
32789,FL-DB02,FL,Orlando,MIA,33122
32792,FL-DB03,FL,Orlando,MIA,33122
32798,FL-EC03,FL,Orlando,MIA,33122
32801,FL-DB05,FL,Orlando,MIA,33122
32803,FL-DB06,FL,Orlando,MIA,33122
32804,FL-DA04,FL,Orlando,MIA,33122
32805,FL-DA05,FL,Orlando,MIA,33122
32806,FL-DB08,FL,Orlando,MIA,33122
32807,FL-DB07,FL,Orlando,MIA,33122
32808,FL-DA03,FL,Orlando,MIA,33122
32809,FL-DA09,FL,Orlando,MIA,33122
32810,FL-DA01,FL,Orlando,MIA,33122
32811,FL-DA06,FL,Orlando,MIA,33122
32812,FL-DB09,FL,Orlando,MIA,33122
32814,FL-DB04,FL,Orlando,MIA,33122
32816,FL-DC05,FL,Orlando,MIA,33122
32817,FL-DC04,FL,Orlando,MIA,33122
32818,FL-DA02,FL,Orlando,MIA,33122
32819,FL-DA10,FL,Orlando,MIA,33122
32820,FL-DC07,FL,Orlando,MIA,33122
32821,FL-FB01,FL,Orlando,MIA,33122
32822,FL-DB10,FL,Orlando,MIA,33122
32824,FL-FC01,FL,Orlando,MIA,33122
32825,FL-DC09,FL,Orlando,MIA,33122
32826,FL-DC06,FL,Orlando,MIA,33122
32827,FL-FC02,FL,Orlando,MIA,33122
32828,FL-DC08,FL,Orlando,MIA,33122
32829,FL-DC10,FL,Orlando,MIA,33122
32830,FL-FA04,FL,Orlando,MIA,33122
32835,FL-DA07,FL,Orlando,MIA,33122
32836,FL-FA05,FL,Orlando,MIA,33122
32837,FL-FB02,FL,Orlando,MIA,33122
32839,FL-DA08,FL,Orlando,MIA,33122
33004,FL-BA04,FL,Miami,MIA,33122
33009,FL-BA01,FL,Miami,MIA,33122
33010,FL-AJ01,FL,Miami,MIA,33122
33012,FL-AJ03,FL,Miami,MIA,33122
33013,FL-AJ02,FL,Miami,MIA,33122
33014,FL-AJ07,FL,Miami,MIA,33122
33015,FL-AJ06,FL,Miami,MIA,33122
33016,FL-AJ04,FL,Miami,MIA,33122
33018,FL-AJ05,FL,Miami,MIA,33122
33019,FL-BA02,FL,Miami,MIA,33122
33020,FL-BA03,FL,Miami,MIA,33122
33021,FL-BA05,FL,Miami,MIA,33122
33023,FL-BA06,FL,Miami,MIA,33122
33024,FL-BA07,FL,Miami,MIA,33122
33025,FL-BB01,FL,Miami,MIA,33122
33026,FL-BB02,FL,Miami,MIA,33122
33027,FL-BB04,FL,Miami,MIA,33122
33028,FL-BB03,FL,Miami,MIA,33122
33029,FL-BB05,FL,Miami,MIA,33122
33030,FL-AA04,FL,Miami,MIA,33122
33031,FL-AA07,FL,Miami,MIA,33122
33032,FL-AA06,FL,Miami,MIA,33122
33033,FL-AA03,FL,Miami,MIA,33122
33034,FL-AA01,FL,Miami,MIA,33122
33035,FL-AA02,FL,Miami,MIA,33122
33039,FL-AA05,FL,Miami,MIA,33122
33054,FL-AJ10,FL,Miami,MIA,33122
33055,FL-AJ08,FL,Miami,MIA,33122
33056,FL-AJ09,FL,Miami,MIA,33122
33060,FL-BG06,FL,Miami,MIA,33122
33062,FL-BG07,FL,Miami,MIA,33122
33063,FL-BF06,FL,Miami,MIA,33122
33064,FL-BG04,FL,Miami,MIA,33122
33065,FL-BF03,FL,Miami,MIA,33122
33066,FL-BF08,FL,Miami,MIA,33122
33067,FL-BF05,FL,Miami,MIA,33122
33068,FL-BF07,FL,Miami,MIA,33122
33069,FL-BG05,FL,Miami,MIA,33122
33071,FL-BF02,FL,Miami,MIA,33122
33073,FL-BG01,FL,Miami,MIA,33122
33076,FL-BF04,FL,Miami,MIA,33122
33101,FL-AF07,FL,Miami,MIA,33122
33109,FL-AG08,FL,Miami,MIA,33122
33111,FL-AG05,FL,Miami,MIA,33122
33114,FL-AF05,FL,Miami,MIA,33122
33122,FL-AE09,FL,Miami,MIA,33122
33125,FL-AF04,FL,Miami,MIA,33122
33126,FL-AE08,FL,Miami,MIA,33122
33127,FL-AH02,FL,Miami,MIA,33122
33128,FL-AG01,FL,Miami,MIA,33122
33129,FL-AG06,FL,Miami,MIA,33122
33130,FL-AG03,FL,Miami,MIA,33122
33131,FL-AG04,FL,Miami,MIA,33122
33132,FL-AG02,FL,Miami,MIA,33122
33133,FL-AF01,FL,Miami,MIA,33122
33134,FL-AE06,FL,Miami,MIA,33122
33135,FL-AF03,FL,Miami,MIA,33122
33136,FL-AF06,FL,Miami,MIA,33122
33137,FL-AH03,FL,Miami,MIA,33122
33138,FL-AH08,FL,Miami,MIA,33122
33139,FL-AH05,FL,Miami,MIA,33122
33140,FL-AH04,FL,Miami,MIA,33122
33141,FL-AH06,FL,Miami,MIA,33122
33142,FL-AH01,FL,Miami,MIA,33122
33143,FL-AE03,FL,Miami,MIA,33122
33144,FL-AE07,FL,Miami,MIA,33122
33145,FL-AF02,FL,Miami,MIA,33122
33146,FL-AE05,FL,Miami,MIA,33122
33147,FL-AH10,FL,Miami,MIA,33122
33149,FL-AG07,FL,Miami,MIA,33122
33150,FL-AH09,FL,Miami,MIA,33122
33154,FL-AH07,FL,Miami,MIA,33122
33155,FL-AE04,FL,Miami,MIA,33122
33156,FL-AE02,FL,Miami,MIA,33122
33157,FL-AB11,FL,Miami,MIA,33122
33158,FL-AE01,FL,Miami,MIA,33122
33160,FL-AI06,FL,Miami,MIA,33122
33161,FL-AI03,FL,Miami,MIA,33122
33162,FL-AI09,FL,Miami,MIA,33122
33165,FL-AD05,FL,Miami,MIA,33122
33166,FL-AE10,FL,Miami,MIA,33122
33167,FL-AI01,FL,Miami,MIA,33122
33168,FL-AI02,FL,Miami,MIA,33122
33169,FL-AI10,FL,Miami,MIA,33122
33170,FL-AB09,FL,Miami,MIA,33122
33172,FL-AD04,FL,Miami,MIA,33122
33173,FL-AD07,FL,Miami,MIA,33122
33174,FL-AD06,FL,Miami,MIA,33122
33175,FL-AC07,FL,Miami,MIA,33122
33176,FL-AD08,FL,Miami,MIA,33122
33177,FL-AB12,FL,Miami,MIA,33122
33178,FL-AD03,FL,Miami,MIA,33122
33179,FL-AI08,FL,Miami,MIA,33122
33180,FL-AI07,FL,Miami,MIA,33122
33181,FL-AI05,FL,Miami,MIA,33122
33182,FL-AD02,FL,Miami,MIA,33122
33183,FL-AC03,FL,Miami,MIA,33122
33184,FL-AD01,FL,Miami,MIA,33122
33185,FL-AC06,FL,Miami,MIA,33122
33186,FL-AC01,FL,Miami,MIA,33122
33187,FL-AB13,FL,Miami,MIA,33122
33189,FL-AB10,FL,Miami,MIA,33122
33190,FL-AB08,FL,Miami,MIA,33122
33193,FL-AC04,FL,Miami,MIA,33122
33194,FL-AC05,FL,Miami,MIA,33122
33196,FL-AC02,FL,Miami,MIA,33122
33261,FL-AI04,FL,Miami,MIA,33122
33301,FL-BE04,FL,Miami,MIA,33122
33304,FL-BE05,FL,Miami,MIA,33122
33305,FL-BE06,FL,Miami,MIA,33122
33306,FL-BE08,FL,Miami,MIA,33122
33308,FL-BE09,FL,Miami,MIA,33122
33309,FL-BE11,FL,Miami,MIA,33122
33311,FL-BE07,FL,Miami,MIA,33122
33312,FL-BE01,FL,Miami,MIA,33122
33313,FL-BC03,FL,Miami,MIA,33122
33314,FL-BC01,FL,Miami,MIA,33122
33315,FL-BE02,FL,Miami,MIA,33122
33316,FL-BE03,FL,Miami,MIA,33122
33317,FL-BC02,FL,Miami,MIA,33122
33319,FL-BB06,FL,Miami,MIA,33122
33321,FL-BF01,FL,Miami,MIA,33122
33322,FL-BC04,FL,Miami,MIA,33122
33323,FL-BD03,FL,Miami,MIA,33122
33324,FL-BC05,FL,Miami,MIA,33122
33325,FL-BD02,FL,Miami,MIA,33122
33326,FL-BD04,FL,Miami,MIA,33122
33327,FL-BD05,FL,Miami,MIA,33122
33328,FL-BC06,FL,Miami,MIA,33122
33330,FL-BD01,FL,Miami,MIA,33122
33331,FL-BD06,FL,Miami,MIA,33122
33332,FL-BD07,FL,Miami,MIA,33122
33334,FL-BE10,FL,Miami,MIA,33122
33351,FL-BB07,FL,Miami,MIA,33122
33401,FL-CC10,FL,Miami,MIA,33122
33403,FL-CF03,FL,Miami,MIA,33122
33404,FL-CF02,FL,Miami,MIA,33122
33405,FL-CC08,FL,Miami,MIA,33122
33406,FL-CC07,FL,Miami,MIA,33122
33407,FL-CF01,FL,Miami,MIA,33122
33408,FL-CF04,FL,Miami,MIA,33122
33409,FL-CC09,FL,Miami,MIA,33122
33410,FL-CF05,FL,Miami,MIA,33122
33411,FL-CE04,FL,Miami,MIA,33122
33412,FL-CE06,FL,Miami,MIA,33122
33413,FL-CE01,FL,Miami,MIA,33122
33414,FL-CE02,FL,Miami,MIA,33122
33415,FL-CD07,FL,Miami,MIA,33122
33417,FL-CE03,FL,Miami,MIA,33122
33418,FL-CF06,FL,Miami,MIA,33122
33426,FL-CC02,FL,Miami,MIA,33122
33428,FL-CA01,FL,Miami,MIA,33122
33431,FL-CA05,FL,Miami,MIA,33122
33432,FL-CA04,FL,Miami,MIA,33122
33433,FL-CA02,FL,Miami,MIA,33122
33434,FL-CA06,FL,Miami,MIA,33122
33435,FL-CC01,FL,Miami,MIA,33122
33436,FL-CC03,FL,Miami,MIA,33122
33437,FL-CD01,FL,Miami,MIA,33122
33441,FL-BG03,FL,Miami,MIA,33122
33442,FL-BG02,FL,Miami,MIA,33122
33444,FL-CB04,FL,Miami,MIA,33122
33445,FL-CB05,FL,Miami,MIA,33122
33446,FL-CB07,FL,Miami,MIA,33122
33449,FL-CE07,FL,Miami,MIA,33122
33458,FL-CF08,FL,Miami,MIA,33122
33460,FL-CC06,FL,Miami,MIA,33122
33461,FL-CC05,FL,Miami,MIA,33122
33462,FL-CC04,FL,Miami,MIA,33122
33463,FL-CD04,FL,Miami,MIA,33122
33467,FL-CD05,FL,Miami,MIA,33122
33469,FL-CD06,FL,Miami,MIA,33122
33470,FL-CE05,FL,Miami,MIA,33122
33472,FL-CD03,FL,Miami,MIA,33122
33473,FL-CD02,FL,Miami,MIA,33122
33477,FL-CF07,FL,Miami,MIA,33122
33478,FL-CF09,FL,Miami,MIA,33122
33480,FL-CC11,FL,Miami,MIA,33122
33483,FL-CB03,FL,Miami,MIA,33122
33484,FL-CB06,FL,Miami,MIA,33122
33486,FL-CA03,FL,Miami,MIA,33122
33487,FL-CB02,FL,Miami,MIA,33122
33496,FL-CB01,FL,Miami,MIA,33122
33498,FL-CA07,FL,Miami,MIA,33122
33503,FL-GF05,FL,Tampa,MIA,33122
33510,FL-GE03,FL,Tampa,MIA,33122
33511,FL-GE04,FL,Tampa,MIA,33122
33527,FL-GE07,FL,Tampa,MIA,33122
33534,FL-GF02,FL,Tampa,MIA,33122
33548,FL-GC06,FL,Tampa,MIA,33122
33549,FL-GD06,FL,Tampa,MIA,33122
33556,FL-GC04,FL,Tampa,MIA,33122
33558,FL-GC05,FL,Tampa,MIA,33122
33559,FL-GD07,FL,Tampa,MIA,33122
33563,FL-GE08,FL,Tampa,MIA,33122
33566,FL-GE09,FL,Tampa,MIA,33122
33569,FL-GF03,FL,Tampa,MIA,33122
33570,FL-GF08,FL,Tampa,MIA,33122
33572,FL-GF07,FL,Tampa,MIA,33122
33573,FL-GF06,FL,Tampa,MIA,33122
33578,FL-GF01,FL,Tampa,MIA,33122
33579,FL-GF04,FL,Tampa,MIA,33122
33584,FL-GE02,FL,Tampa,MIA,33122
33594,FL-GE05,FL,Tampa,MIA,33122
33596,FL-GE06,FL,Tampa,MIA,33122
33602,FL-GA07,FL,Tampa,MIA,33122
33603,FL-GB06,FL,Tampa,MIA,33122
33604,FL-GB07,FL,Tampa,MIA,33122
33605,FL-GA08,FL,Tampa,MIA,33122
33606,FL-GA05,FL,Tampa,MIA,33122
33607,FL-GA06,FL,Tampa,MIA,33122
33609,FL-GA04,FL,Tampa,MIA,33122
33610,FL-GB08,FL,Tampa,MIA,33122
33611,FL-GA02,FL,Tampa,MIA,33122
33612,FL-GD01,FL,Tampa,MIA,33122
33613,FL-GD05,FL,Tampa,MIA,33122
33614,FL-GB05,FL,Tampa,MIA,33122
33615,FL-GB03,FL,Tampa,MIA,33122
33616,FL-GA01,FL,Tampa,MIA,33122
33617,FL-GD03,FL,Tampa,MIA,33122
33618,FL-GC07,FL,Tampa,MIA,33122
33619,FL-GE01,FL,Tampa,MIA,33122
33620,FL-GD02,FL,Tampa,MIA,33122
33624,FL-GC08,FL,Tampa,MIA,33122
33625,FL-GC09,FL,Tampa,MIA,33122
33626,FL-GC03,FL,Tampa,MIA,33122
33629,FL-GA03,FL,Tampa,MIA,33122
33634,FL-GB04,FL,Tampa,MIA,33122
33635,FL-GB02,FL,Tampa,MIA,33122
33637,FL-GD04,FL,Tampa,MIA,33122
33647,FL-GD08,FL,Tampa,MIA,33122
33701,FL-HA07,FL,Tampa,MIA,33122
33702,FL-HB05,FL,Tampa,MIA,33122
33703,FL-HB04,FL,Tampa,MIA,33122
33704,FL-HA08,FL,Tampa,MIA,33122
33705,FL-HA06,FL,Tampa,MIA,33122
33706,FL-HA02,FL,Tampa,MIA,33122
33707,FL-HA03,FL,Tampa,MIA,33122
33708,FL-HC02,FL,Tampa,MIA,33122
33709,FL-HB02,FL,Tampa,MIA,33122
33710,FL-HA10,FL,Tampa,MIA,33122
33711,FL-HA04,FL,Tampa,MIA,33122
33712,FL-HA05,FL,Tampa,MIA,33122
33713,FL-HA09,FL,Tampa,MIA,33122
33714,FL-HB03,FL,Tampa,MIA,33122
33715,FL-HA01,FL,Tampa,MIA,33122
33716,FL-HB09,FL,Tampa,MIA,33122
33744,FL-HC01,FL,Tampa,MIA,33122
33755,FL-HE04,FL,Tampa,MIA,33122
33756,FL-HD07,FL,Tampa,MIA,33122
33759,FL-HE01,FL,Tampa,MIA,33122
33760,FL-HD02,FL,Tampa,MIA,33122
33761,FL-HE07,FL,Tampa,MIA,33122
33762,FL-HD01,FL,Tampa,MIA,33122
33763,FL-HE06,FL,Tampa,MIA,33122
33764,FL-HD05,FL,Tampa,MIA,33122
33765,FL-HE03,FL,Tampa,MIA,33122
33767,FL-HD09,FL,Tampa,MIA,33122
33770,FL-HD06,FL,Tampa,MIA,33122
33771,FL-HD04,FL,Tampa,MIA,33122
33772,FL-HC03,FL,Tampa,MIA,33122
33773,FL-HD03,FL,Tampa,MIA,33122
33774,FL-HC06,FL,Tampa,MIA,33122
33776,FL-HC04,FL,Tampa,MIA,33122
33777,FL-HB07,FL,Tampa,MIA,33122
33778,FL-HC07,FL,Tampa,MIA,33122
33781,FL-HB06,FL,Tampa,MIA,33122
33782,FL-HB08,FL,Tampa,MIA,33122
33785,FL-HC05,FL,Tampa,MIA,33122
33786,FL-HD08,FL,Tampa,MIA,33122
33801,FL-FE02,FL,Orlando,MIA,33122
33803,FL-FE03,FL,Orlando,MIA,33122
33805,FL-FE01,FL,Orlando,MIA,33122
33809,FL-FE09,FL,Orlando,MIA,33122
33810,FL-FE08,FL,Orlando,MIA,33122
33811,FL-FE06,FL,Orlando,MIA,33122
33812,FL-FE04,FL,Orlando,MIA,33122
33813,FL-FE05,FL,Orlando,MIA,33122
33815,FL-FE07,FL,Orlando,MIA,33122
33823,FL-FD10,FL,Orlando,MIA,33122
33837,FL-FD01,FL,Orlando,MIA,33122
33838,FL-FD04,FL,Orlando,MIA,33122
33839,FL-FD08,FL,Orlando,MIA,33122
33844,FL-FD02,FL,Orlando,MIA,33122
33850,FL-FD12,FL,Orlando,MIA,33122
33851,FL-FD03,FL,Orlando,MIA,33122
33877,FL-FD05,FL,Orlando,MIA,33122
33880,FL-FD07,FL,Orlando,MIA,33122
33881,FL-FD09,FL,Orlando,MIA,33122
33884,FL-FD06,FL,Orlando,MIA,33122
33896,FL-FB09,FL,Orlando,MIA,33122
33897,FL-FB08,FL,Orlando,MIA,33122
33901,FL-JC01,FL,Fort Myers,MIA,33122
33903,FL-JA09,FL,Fort Myers,MIA,33122
33904,FL-JA06,FL,Fort Myers,MIA,33122
33905,FL-JB01,FL,Fort Myers,MIA,33122
33907,FL-JC04,FL,Fort Myers,MIA,33122
33908,FL-JC06,FL,Fort Myers,MIA,33122
33909,FL-JA08,FL,Fort Myers,MIA,33122
33912,FL-JC07,FL,Fort Myers,MIA,33122
33913,FL-JB02,FL,Fort Myers,MIA,33122
33914,FL-JA05,FL,Fort Myers,MIA,33122
33916,FL-JC02,FL,Fort Myers,MIA,33122
33917,FL-JA10,FL,Fort Myers,MIA,33122
33919,FL-JC05,FL,Fort Myers,MIA,33122
33921,FL-FD11,FL,Orlando,MIA,33122
33922,FL-JA02,FL,Fort Myers,MIA,33122
33928,FL-JC10,FL,Fort Myers,MIA,33122
33931,FL-JC08,FL,Fort Myers,MIA,33122
33936,FL-JB08,FL,Fort Myers,MIA,33122
33946,FL-IE07,FL,Tampa,MIA,33122
33947,FL-IE06,FL,Tampa,MIA,33122
33948,FL-ID12,FL,Tampa,MIA,33122
33950,FL-ID09,FL,Tampa,MIA,33122
33952,FL-ID10,FL,Tampa,MIA,33122
33953,FL-ID13,FL,Tampa,MIA,33122
33954,FL-ID11,FL,Tampa,MIA,33122
33956,FL-JA03,FL,Fort Myers,MIA,33122
33965,FL-JB03,FL,Fort Myers,MIA,33122
33966,FL-JC03,FL,Fort Myers,MIA,33122
33967,FL-JC09,FL,Fort Myers,MIA,33122
33971,FL-JB06,FL,Fort Myers,MIA,33122
33972,FL-JB07,FL,Fort Myers,MIA,33122
33973,FL-JB04,FL,Fort Myers,MIA,33122
33974,FL-JB09,FL,Fort Myers,MIA,33122
33976,FL-JB05,FL,Fort Myers,MIA,33122
33980,FL-ID08,FL,Tampa,MIA,33122
33981,FL-IE08,FL,Tampa,MIA,33122
33983,FL-ID07,FL,Tampa,MIA,33122
33990,FL-JA07,FL,Fort Myers,MIA,33122
33991,FL-JA04,FL,Fort Myers,MIA,33122
33993,FL-JA01,FL,Fort Myers,MIA,33122
34101,FL-JE09,FL,Fort Myers,MIA,33122
34102,FL-JE05,FL,Fort Myers,MIA,33122
34103,FL-JE01,FL,Fort Myers,MIA,33122
34104,FL-JE06,FL,Fort Myers,MIA,33122
34105,FL-JE02,FL,Fort Myers,MIA,33122
34108,FL-JD07,FL,Fort Myers,MIA,33122
34109,FL-JD06,FL,Fort Myers,MIA,33122
34110,FL-JD05,FL,Fort Myers,MIA,33122
34112,FL-JE07,FL,Fort Myers,MIA,33122
34113,FL-JE08,FL,Fort Myers,MIA,33122
34114,FL-JE10,FL,Fort Myers,MIA,33122
34116,FL-JE03,FL,Fort Myers,MIA,33122
34117,FL-JE04,FL,Fort Myers,MIA,33122
34119,FL-JD04,FL,Fort Myers,MIA,33122
34120,FL-JD03,FL,Fort Myers,MIA,33122
34134,FL-JD01,FL,Fort Myers,MIA,33122
34135,FL-JD02,FL,Fort Myers,MIA,33122
34201,FL-IB01,FL,Tampa,MIA,33122
34203,FL-IA04,FL,Tampa,MIA,33122
34205,FL-IA06,FL,Tampa,MIA,33122
34207,FL-IA05,FL,Tampa,MIA,33122
34208,FL-IA03,FL,Tampa,MIA,33122
34209,FL-IA07,FL,Tampa,MIA,33122
34210,FL-IA08,FL,Tampa,MIA,33122
34215,FL-IA09,FL,Tampa,MIA,33122
34216,FL-IA11,FL,Tampa,MIA,33122
34217,FL-IA10,FL,Tampa,MIA,33122
34221,FL-IA01,FL,Tampa,MIA,33122
34222,FL-IA02,FL,Tampa,MIA,33122
34223,FL-IE04,FL,Tampa,MIA,33122
34224,FL-IE05,FL,Tampa,MIA,33122
34228,FL-IB06,FL,Tampa,MIA,33122
34229,FL-IC05,FL,Tampa,MIA,33122
34231,FL-IC02,FL,Tampa,MIA,33122
34232,FL-IB09,FL,Tampa,MIA,33122
34233,FL-IC01,FL,Tampa,MIA,33122
34234,FL-IB03,FL,Tampa,MIA,33122
34235,FL-IB04,FL,Tampa,MIA,33122
34236,FL-IB05,FL,Tampa,MIA,33122
34237,FL-IB07,FL,Tampa,MIA,33122
34238,FL-IC04,FL,Tampa,MIA,33122
34239,FL-IB08,FL,Tampa,MIA,33122
34242,FL-IC03,FL,Tampa,MIA,33122
34243,FL-IB02,FL,Tampa,MIA,33122
34269,FL-ID06,FL,Tampa,MIA,33122
34275,FL-IC06,FL,Tampa,MIA,33122
34285,FL-IE01,FL,Tampa,MIA,33122
34286,FL-ID03,FL,Tampa,MIA,33122
34287,FL-ID02,FL,Tampa,MIA,33122
34288,FL-ID05,FL,Tampa,MIA,33122
34289,FL-ID04,FL,Tampa,MIA,33122
34291,FL-ID01,FL,Tampa,MIA,33122
34292,FL-IE02,FL,Tampa,MIA,33122
34293,FL-IE03,FL,Tampa,MIA,33122
34606,FL-HG01,FL,Tampa,MIA,33122
34608,FL-HG02,FL,Tampa,MIA,33122
34609,FL-HG03,FL,Tampa,MIA,33122
34613,FL-HG04,FL,Tampa,MIA,33122
34652,FL-HF05,FL,Tampa,MIA,33122
34653,FL-HF04,FL,Tampa,MIA,33122
34654,FL-HF06,FL,Tampa,MIA,33122
34655,FL-HF01,FL,Tampa,MIA,33122
34667,FL-HF09,FL,Tampa,MIA,33122
34668,FL-HF07,FL,Tampa,MIA,33122
34669,FL-HF08,FL,Tampa,MIA,33122
34677,FL-GB01,FL,Tampa,MIA,33122
34679,FL-HF10,FL,Tampa,MIA,33122
34681,FL-HE10,FL,Tampa,MIA,33122
34683,FL-HE09,FL,Tampa,MIA,33122
34684,FL-HE08,FL,Tampa,MIA,33122
34685,FL-GC01,FL,Tampa,MIA,33122
34688,FL-GC02,FL,Tampa,MIA,33122
34689,FL-HE11,FL,Tampa,MIA,33122
34690,FL-HF02,FL,Tampa,MIA,33122
34691,FL-HF03,FL,Tampa,MIA,33122
34695,FL-HE02,FL,Tampa,MIA,33122
34698,FL-HE05,FL,Tampa,MIA,33122
34711,FL-FA08,FL,Orlando,MIA,33122
34734,FL-FC03,FL,Orlando,MIA,33122
34741,FL-FB03,FL,Orlando,MIA,33122
34743,FL-FA02,FL,Orlando,MIA,33122
34744,FL-FC04,FL,Orlando,MIA,33122
34746,FL-FB04,FL,Orlando,MIA,33122
34747,FL-FB07,FL,Orlando,MIA,33122
34756,FL-FA09,FL,Orlando,MIA,33122
34758,FL-FB05,FL,Orlando,MIA,33122
34759,FL-FB06,FL,Orlando,MIA,33122
34760,FL-FA07,FL,Orlando,MIA,33122
34761,FL-FA01,FL,Orlando,MIA,33122
34769,FL-FC05,FL,Orlando,MIA,33122
34771,FL-FC06,FL,Orlando,MIA,33122
34772,FL-FC07,FL,Orlando,MIA,33122
34786,FL-FA03,FL,Orlando,MIA,33122
34787,FL-FA06,FL,Orlando,MIA,33122
41001,,OH,Cincinnati,ORD,60007
41005,,OH,Cincinnati,ORD,60007
41007,,OH,Cincinnati,ORD,60007
41011,,OH,Cincinnati,ORD,60007
41014,,OH,Cincinnati,ORD,60007
41015,,OH,Cincinnati,ORD,60007
41016,,OH,Cincinnati,ORD,60007
41017,,OH,Cincinnati,ORD,60007
41018,,OH,Cincinnati,ORD,60007
41042,,OH,Cincinnati,ORD,60007
41048,,OH,Cincinnati,ORD,60007
41051,,OH,Cincinnati,ORD,60007
41059,,OH,Cincinnati,ORD,60007
41063,,OH,Cincinnati,ORD,60007
41071,,OH,Cincinnati,ORD,60007
41073,,OH,Cincinnati,ORD,60007
41074,,OH,Cincinnati,ORD,60007
41075,,OH,Cincinnati,ORD,60007
41076,,OH,Cincinnati,ORD,60007
41080,,OH,Cincinnati,ORD,60007
41085,,OH,Cincinnati,ORD,60007
41091,,OH,Cincinnati,ORD,60007
41092,,OH,Cincinnati,ORD,60007
41094,,OH,Cincinnati,ORD,60007
41099,,OH,Cincinnati,ORD,60007
43002,,OH,Columbus,ORD,60007
43004,,OH,Columbus,ORD,60007
43016,,OH,Columbus,ORD,60007
43017,,OH,Columbus,ORD,60007
43026,,OH,Columbus,ORD,60007
43035,,OH,Columbus,ORD,60007
43054,,OH,Columbus,ORD,60007
43065,,OH,Columbus,ORD,60007
43068,,OH,Columbus,ORD,60007
43081,,OH,Columbus,ORD,60007
43082,,OH,Columbus,ORD,60007
43085,,OH,Columbus,ORD,60007
43109,,OH,Columbus,ORD,60007
43110,,OH,Columbus,ORD,60007
43119,,OH,Columbus,ORD,60007
43123,,OH,Columbus,ORD,60007
43125,,OH,Columbus,ORD,60007
43137,,OH,Columbus,ORD,60007
43147,,OH,Columbus,ORD,60007
43201,,OH,Columbus,ORD,60007
43202,,OH,Columbus,ORD,60007
43203,,OH,Columbus,ORD,60007
43204,,OH,Columbus,ORD,60007
43205,,OH,Columbus,ORD,60007
43206,,OH,Columbus,ORD,60007
43207,,OH,Columbus,ORD,60007
43209,,OH,Columbus,ORD,60007
43210,,OH,Columbus,ORD,60007
43211,,OH,Columbus,ORD,60007
43212,,OH,Columbus,ORD,60007
43213,,OH,Columbus,ORD,60007
43214,,OH,Columbus,ORD,60007
43215,,OH,Columbus,ORD,60007
43217,,OH,Columbus,ORD,60007
43219,,OH,Columbus,ORD,60007
43220,,OH,Columbus,ORD,60007
43221,,OH,Columbus,ORD,60007
43222,,OH,Columbus,ORD,60007
43223,,OH,Columbus,ORD,60007
43224,,OH,Columbus,ORD,60007
43227,,OH,Columbus,ORD,60007
43228,,OH,Columbus,ORD,60007
43229,,OH,Columbus,ORD,60007
43230,,OH,Columbus,ORD,60007
43231,,OH,Columbus,ORD,60007
43232,,OH,Columbus,ORD,60007
43235,,OH,Columbus,ORD,60007
43240,,OH,Columbus,ORD,60007
43962,,OH,Canton,ORD,60007
44017,,OH,Cleveland,ORD,60007
44022,,OH,Cleveland,ORD,60007
44040,,OH,Cleveland,ORD,60007
44067,,OH,Cleveland,ORD,60007
44092,,OH,Cleveland,ORD,60007
44101,,OH,Cleveland,ORD,60007
44102,,OH,Cleveland,ORD,60007
44103,,OH,Cleveland,ORD,60007
44104,,OH,Cleveland,ORD,60007
44105,,OH,Cleveland,ORD,60007
44106,,OH,Cleveland,ORD,60007
44107,,OH,Cleveland,ORD,60007
44108,,OH,Cleveland,ORD,60007
44109,,OH,Cleveland,ORD,60007
44110,,OH,Cleveland,ORD,60007
44111,,OH,Cleveland,ORD,60007
44112,,OH,Cleveland,ORD,60007
44113,,OH,Cleveland,ORD,60007
44114,,OH,Cleveland,ORD,60007
44115,,OH,Cleveland,ORD,60007
44116,,OH,Cleveland,ORD,60007
44117,,OH,Cleveland,ORD,60007
44118,,OH,Cleveland,ORD,60007
44119,,OH,Cleveland,ORD,60007
44120,,OH,Cleveland,ORD,60007
44121,,OH,Cleveland,ORD,60007
44122,,OH,Cleveland,ORD,60007
44123,,OH,Cleveland,ORD,60007
44124,,OH,Cleveland,ORD,60007
44125,,OH,Cleveland,ORD,60007
44126,,OH,Cleveland,ORD,60007
44127,,OH,Cleveland,ORD,60007
44128,,OH,Cleveland,ORD,60007
44129,,OH,Cleveland,ORD,60007
44130,,OH,Cleveland,ORD,60007
44131,,OH,Cleveland,ORD,60007
44132,,OH,Cleveland,ORD,60007
44133,,OH,Cleveland,ORD,60007
44134,,OH,Cleveland,ORD,60007
44135,,OH,Cleveland,ORD,60007
44137,,OH,Cleveland,ORD,60007
44139,,OH,Cleveland,ORD,60007
44140,,OH,Cleveland,ORD,60007
44141,,OH,Cleveland,ORD,60007
44142,,OH,Cleveland,ORD,60007
44143,,OH,Cleveland,ORD,60007
44144,,OH,Cleveland,ORD,60007
44145,,OH,Cleveland,ORD,60007
44146,,OH,Cleveland,ORD,60007
44147,,OH,Cleveland,ORD,60007
44201,,OH,Canton,ORD,60007
44203,,OH,Canton,ORD,60007
44216,,OH,Canton,ORD,60007
44221,,OH,Canton,ORD,60007
44224,,OH,Canton,ORD,60007
44230,,OH,Canton,ORD,60007
44240,,OH,Canton,ORD,60007
44243,,OH,Canton,ORD,60007
44250,,OH,Canton,ORD,60007
44260,,OH,Canton,ORD,60007
44262,,OH,Canton,ORD,60007
44265,,OH,Canton,ORD,60007
44266,,OH,Canton,ORD,60007
44272,,OH,Canton,ORD,60007
44278,,OH,Canton,ORD,60007
44285,,OH,Canton,ORD,60007
44301,,OH,Canton,ORD,60007
44302,,OH,Canton,ORD,60007
44303,,OH,Canton,ORD,60007
44304,,OH,Canton,ORD,60007
44305,,OH,Canton,ORD,60007
44306,,OH,Canton,ORD,60007
44307,,OH,Canton,ORD,60007
44308,,OH,Canton,ORD,60007
44310,,OH,Canton,ORD,60007
44311,,OH,Canton,ORD,60007
44312,,OH,Canton,ORD,60007
44314,,OH,Canton,ORD,60007
44319,,OH,Canton,ORD,60007
44320,,OH,Canton,ORD,60007
44401,,OH,Canton,ORD,60007
44411,,OH,Canton,ORD,60007
44412,,OH,Canton,ORD,60007
44423,,OH,Canton,ORD,60007
44427,,OH,Canton,ORD,60007
44429,,OH,Canton,ORD,60007
44449,,OH,Canton,ORD,60007
44460,,OH,Canton,ORD,60007
44493,,OH,Canton,ORD,60007
44601,,OH,Canton,ORD,60007
44607,,OH,Canton,ORD,60007
44608,,OH,Canton,ORD,60007
44609,,OH,Canton,ORD,60007
44612,,OH,Canton,ORD,60007
44613,,OH,Canton,ORD,60007
44614,,OH,Canton,ORD,60007
44615,,OH,Canton,ORD,60007
44618,,OH,Canton,ORD,60007
44620,,OH,Canton,ORD,60007
44622,,OH,Canton,ORD,60007
44624,,OH,Canton,ORD,60007
44625,,OH,Canton,ORD,60007
44626,,OH,Canton,ORD,60007
44632,,OH,Canton,ORD,60007
44634,,OH,Canton,ORD,60007
44640,,OH,Canton,ORD,60007
44641,,OH,Canton,ORD,60007
44643,,OH,Canton,ORD,60007
44644,,OH,Canton,ORD,60007
44645,,OH,Canton,ORD,60007
44646,,OH,Canton,ORD,60007
44647,,OH,Canton,ORD,60007
44651,,OH,Canton,ORD,60007
44652,,OH,Canton,ORD,60007
44656,,OH,Canton,ORD,60007
44657,,OH,Canton,ORD,60007
44659,,OH,Canton,ORD,60007
44662,,OH,Canton,ORD,60007
44666,,OH,Canton,ORD,60007
44669,,OH,Canton,ORD,60007
44670,,OH,Canton,ORD,60007
44671,,OH,Canton,ORD,60007
44672,,OH,Canton,ORD,60007
44675,,OH,Canton,ORD,60007
44678,,OH,Canton,ORD,60007
44680,,OH,Canton,ORD,60007
44685,,OH,Canton,ORD,60007
44688,,OH,Canton,ORD,60007
44689,,OH,Canton,ORD,60007
44697,,OH,Canton,ORD,60007
44702,,OH,Canton,ORD,60007
44703,,OH,Canton,ORD,60007
44704,,OH,Canton,ORD,60007
44705,,OH,Canton,ORD,60007
44706,,OH,Canton,ORD,60007
44707,,OH,Canton,ORD,60007
44708,,OH,Canton,ORD,60007
44709,,OH,Canton,ORD,60007
44710,,OH,Canton,ORD,60007
44714,,OH,Canton,ORD,60007
44718,,OH,Canton,ORD,60007
44720,,OH,Canton,ORD,60007
44721,,OH,Canton,ORD,60007
44730,,OH,Canton,ORD,60007
45001,,OH,Cincinnati,ORD,60007
45002,,OH,Cincinnati,ORD,60007
45011,,OH,Cincinnati,ORD,60007
45013,,OH,Cincinnati,ORD,60007
45014,,OH,Cincinnati,ORD,60007
45015,,OH,Cincinnati,ORD,60007
45030,,OH,Cincinnati,ORD,60007
45033,,OH,Cincinnati,ORD,60007
45034,,OH,Cincinnati,ORD,60007
45039,,OH,Cincinnati,ORD,60007
45040,,OH,Cincinnati,ORD,60007
45041,,OH,Cincinnati,ORD,60007
45050,,OH,Cincinnati,ORD,60007
45051,,OH,Cincinnati,ORD,60007
45052,,OH,Cincinnati,ORD,60007
45053,,OH,Cincinnati,ORD,60007
45062,,OH,Cincinnati,ORD,60007
45065,,OH,Cincinnati,ORD,60007
45067,,OH,Cincinnati,ORD,60007
45069,,OH,Cincinnati,ORD,60007
45102,,OH,Cincinnati,ORD,60007
45103,,OH,Cincinnati,ORD,60007
45111,,OH,Cincinnati,ORD,60007
45122,,OH,Cincinnati,ORD,60007
45140,,OH,Cincinnati,ORD,60007
45147,,OH,Cincinnati,ORD,60007
45150,,OH,Cincinnati,ORD,60007
45157,,OH,Cincinnati,ORD,60007
45158,,OH,Cincinnati,ORD,60007
45160,,OH,Cincinnati,ORD,60007
45174,,OH,Cincinnati,ORD,60007
45202,,OH,Cincinnati,ORD,60007
45203,,OH,Cincinnati,ORD,60007
45204,,OH,Cincinnati,ORD,60007
45205,,OH,Cincinnati,ORD,60007
45206,,OH,Cincinnati,ORD,60007
45207,,OH,Cincinnati,ORD,60007
45208,,OH,Cincinnati,ORD,60007
45209,,OH,Cincinnati,ORD,60007
45211,,OH,Cincinnati,ORD,60007
45212,,OH,Cincinnati,ORD,60007
45213,,OH,Cincinnati,ORD,60007
45214,,OH,Cincinnati,ORD,60007
45215,,OH,Cincinnati,ORD,60007
45216,,OH,Cincinnati,ORD,60007
45217,,OH,Cincinnati,ORD,60007
45218,,OH,Cincinnati,ORD,60007
45219,,OH,Cincinnati,ORD,60007
45220,,OH,Cincinnati,ORD,60007
45223,,OH,Cincinnati,ORD,60007
45224,,OH,Cincinnati,ORD,60007
45225,,OH,Cincinnati,ORD,60007
45226,,OH,Cincinnati,ORD,60007
45227,,OH,Cincinnati,ORD,60007
45229,,OH,Cincinnati,ORD,60007
45230,,OH,Cincinnati,ORD,60007
45231,,OH,Cincinnati,ORD,60007
45232,,OH,Cincinnati,ORD,60007
45233,,OH,Cincinnati,ORD,60007
45236,,OH,Cincinnati,ORD,60007
45237,,OH,Cincinnati,ORD,60007
45238,,OH,Cincinnati,ORD,60007
45239,,OH,Cincinnati,ORD,60007
45240,,OH,Cincinnati,ORD,60007
45241,,OH,Cincinnati,ORD,60007
45242,,OH,Cincinnati,ORD,60007
45243,,OH,Cincinnati,ORD,60007
45244,,OH,Cincinnati,ORD,60007
45245,,OH,Cincinnati,ORD,60007
45246,,OH,Cincinnati,ORD,60007
45247,,OH,Cincinnati,ORD,60007
45248,,OH,Cincinnati,ORD,60007
45249,,OH,Cincinnati,ORD,60007
45251,,OH,Cincinnati,ORD,60007
45252,,OH,Cincinnati,ORD,60007
45255,,OH,Cincinnati,ORD,60007
46032,,IN,Indianapolis,ORD,60007
46033,,IN,Indianapolis,ORD,60007
46034,,IN,Indianapolis,ORD,60007
46037,,IN,Indianapolis,ORD,60007
46038,,IN,Indianapolis,ORD,60007
46040,,IN,Indianapolis,ORD,60007
46048,,IN,Indianapolis,ORD,60007
46051,,IN,Indianapolis,ORD,60007
46055,,IN,Indianapolis,ORD,60007
46060,,IN,Indianapolis,ORD,60007
46062,,IN,Indianapolis,ORD,60007
46069,,IN,Indianapolis,ORD,60007
46074,,IN,Indianapolis,ORD,60007
46075,,IN,Indianapolis,ORD,60007
46077,,IN,Indianapolis,ORD,60007
46106,,IN,Indianapolis,ORD,60007
46107,,IN,Indianapolis,ORD,60007
46110,,IN,Indianapolis,ORD,60007
46111,,IN,Indianapolis,ORD,60007
46112,,IN,Indianapolis,ORD,60007
46113,,IN,Indianapolis,ORD,60007
46118,,IN,Indianapolis,ORD,60007
46122,,IN,Indianapolis,ORD,60007
46123,,IN,Indianapolis,ORD,60007
46126,,IN,Indianapolis,ORD,60007
46130,,IN,Indianapolis,ORD,60007
46131,,IN,Indianapolis,ORD,60007
46140,,IN,Indianapolis,ORD,60007
46142,,IN,Indianapolis,ORD,60007
46143,,IN,Indianapolis,ORD,60007
46149,,IN,Indianapolis,ORD,60007
46157,,IN,Indianapolis,ORD,60007
46158,,IN,Indianapolis,ORD,60007
46162,,IN,Indianapolis,ORD,60007
46163,,IN,Indianapolis,ORD,60007
46167,,IN,Indianapolis,ORD,60007
46168,,IN,Indianapolis,ORD,60007
46183,,IN,Indianapolis,ORD,60007
46184,,IN,Indianapolis,ORD,60007
46201,,IN,Indianapolis,ORD,60007
46202,,IN,Indianapolis,ORD,60007
46203,,IN,Indianapolis,ORD,60007
46204,,IN,Indianapolis,ORD,60007
46205,,IN,Indianapolis,ORD,60007
46208,,IN,Indianapolis,ORD,60007
46214,,IN,Indianapolis,ORD,60007
46216,,IN,Indianapolis,ORD,60007
46217,,IN,Indianapolis,ORD,60007
46218,,IN,Indianapolis,ORD,60007
46219,,IN,Indianapolis,ORD,60007
46220,,IN,Indianapolis,ORD,60007
46221,,IN,Indianapolis,ORD,60007
46222,,IN,Indianapolis,ORD,60007
46224,,IN,Indianapolis,ORD,60007
46225,,IN,Indianapolis,ORD,60007
46226,,IN,Indianapolis,ORD,60007
46227,,IN,Indianapolis,ORD,60007
46228,,IN,Indianapolis,ORD,60007
46229,,IN,Indianapolis,ORD,60007
46231,,IN,Indianapolis,ORD,60007
46234,,IN,Indianapolis,ORD,60007
46235,,IN,Indianapolis,ORD,60007
46236,,IN,Indianapolis,ORD,60007
46237,,IN,Indianapolis,ORD,60007
46239,,IN,Indianapolis,ORD,60007
46240,,IN,Indianapolis,ORD,60007
46241,,IN,Indianapolis,ORD,60007
46250,,IN,Indianapolis,ORD,60007
46254,,IN,Indianapolis,ORD,60007
46256,,IN,Indianapolis,ORD,60007
46259,,IN,Indianapolis,ORD,60007
46260,,IN,Indianapolis,ORD,60007
46268,,IN,Indianapolis,ORD,60007
46278,,IN,Indianapolis,ORD,60007
46280,,IN,Indianapolis,ORD,60007
46290,,IN,Indianapolis,ORD,60007
46301,IN-GC08,IN,East Chicago,ORD,60007
46304,IN-GC07,IN,East Chicago,ORD,60007
46307,IN-GB08,IN,East Chicago,ORD,60007
46311,IN-GA09,IN,East Chicago,ORD,60007
46312,IN-GA03,IN,East Chicago,ORD,60007
46319,IN-GA12,IN,East Chicago,ORD,60007
46320,IN-GA04,IN,East Chicago,ORD,60007
46321,IN-GA07,IN,East Chicago,ORD,60007
46322,IN-GA08,IN,East Chicago,ORD,60007
46323,IN-GA06,IN,East Chicago,ORD,60007
46324,IN-GA05,IN,East Chicago,ORD,60007
46327,IN-GA02,IN,East Chicago,ORD,60007
46342,IN-GC03,IN,East Chicago,ORD,60007
46360,IN-GC09,IN,East Chicago,ORD,60007
46368,IN-GC05,IN,East Chicago,ORD,60007
46373,IN-GA10,IN,East Chicago,ORD,60007
46375,IN-GA11,IN,East Chicago,ORD,60007
46383,IN-GC10,IN,East Chicago,ORD,60007
46385,IN-GC06,IN,East Chicago,ORD,60007
46393,IN-GC04,IN,East Chicago,ORD,60007
46394,IN-GA01,IN,East Chicago,ORD,60007
46402,IN-GB06,IN,East Chicago,ORD,60007
46403,IN-GC01,IN,East Chicago,ORD,60007
46404,IN-GB02,IN,East Chicago,ORD,60007
46405,IN-GC02,IN,East Chicago,ORD,60007
46406,IN-GB01,IN,East Chicago,ORD,60007
46407,IN-GB05,IN,East Chicago,ORD,60007
46408,IN-GB03,IN,East Chicago,ORD,60007
46409,IN-GB04,IN,East Chicago,ORD,60007
46410,IN-GB07,IN,East Chicago,ORD,60007
47001,,OH,Cincinnati,ORD,60007
47016,,OH,Cincinnati,ORD,60007
47022,,OH,Cincinnati,ORD,60007
47025,,OH,Cincinnati,ORD,60007
47035,,OH,Cincinnati,ORD,60007
47040,,OH,Cincinnati,ORD,60007
47060,,OH,Cincinnati,ORD,60007
53005,WI-FE12,WI,Milwaukee ,ORD,60007
53007,WI-FF05,WI,Milwaukee ,ORD,60007
53012,WI-FG05,WI,Milwaukee ,ORD,60007
53018,WI-FE16,WI,Milwaukee ,ORD,60007
53022,WI-FG03,WI,Milwaukee ,ORD,60007
53024,WI-FG04,WI,Milwaukee ,ORD,60007
53029,WI-FE15,WI,Milwaukee ,ORD,60007
53045,WI-FE11,WI,Milwaukee ,ORD,60007
53046,WI-FF09,WI,Milwaukee ,ORD,60007
53051,WI-FF08,WI,Milwaukee ,ORD,60007
53058,WI-FE17,WI,Milwaukee ,ORD,60007
53066,WI-FE19,WI,Milwaukee ,ORD,60007
53069,WI-FE18,WI,Milwaukee ,ORD,60007
53072,WI-FE09,WI,Milwaukee ,ORD,60007
53074,WI-FG06,WI,Milwaukee ,ORD,60007
53080,WI-FG07,WI,Milwaukee ,ORD,60007
53089,WI-FE14,WI,Milwaukee ,ORD,60007
53092,WI-FG01,WI,Milwaukee ,ORD,60007
53097,WI-FG02,WI,Milwaukee ,ORD,60007
53103,WI-FE02,WI,Milwaukee ,ORD,60007
53108,WI-FB08,WI,Milwaukee ,ORD,60007
53110,WI-FC04,WI,Milwaukee ,ORD,60007
53122,WI-FE13,WI,Milwaukee ,ORD,60007
53126,WI-FB07,WI,Milwaukee ,ORD,60007
53129,WI-FC14,WI,Milwaukee ,ORD,60007
53130,WI-FC15,WI,Milwaukee ,ORD,60007
53132,WI-FC02,WI,Milwaukee ,ORD,60007
53140,WI-FA04,WI,Milwaukee ,ORD,60007
53142,WI-FA02,WI,Milwaukee ,ORD,60007
53143,WI-FA03,WI,Milwaukee ,ORD,60007
53144,WI-FA05,WI,Milwaukee ,ORD,60007
53146,WI-FE04,WI,Milwaukee ,ORD,60007
53150,WI-FE01,WI,Milwaukee ,ORD,60007
53151,WI-FE03,WI,Milwaukee ,ORD,60007
53154,WI-FC01,WI,Milwaukee ,ORD,60007
53158,WI-FA01,WI,Milwaukee ,ORD,60007
53172,WI-FC03,WI,Milwaukee ,ORD,60007
53177,WI-FB04,WI,Milwaukee ,ORD,60007
53183,WI-FE08,WI,Milwaukee ,ORD,60007
53186,WI-FE07,WI,Milwaukee ,ORD,60007
53188,WI-FE06,WI,Milwaukee ,ORD,60007
53189,WI-FE05,WI,Milwaukee ,ORD,60007
53202,WI-FD01,WI,Milwaukee ,ORD,60007
53203,WI-FD02,WI,Milwaukee ,ORD,60007
53204,WI-FC08,WI,Milwaukee ,ORD,60007
53205,WI-FD06,WI,Milwaukee ,ORD,60007
53206,WI-FD07,WI,Milwaukee ,ORD,60007
53207,WI-FC06,WI,Milwaukee ,ORD,60007
53208,WI-FD04,WI,Milwaukee ,ORD,60007
53209,WI-FF02,WI,Milwaukee ,ORD,60007
53210,WI-FD05,WI,Milwaukee ,ORD,60007
53211,WI-FD10,WI,Milwaukee ,ORD,60007
53212,WI-FD09,WI,Milwaukee ,ORD,60007
53213,WI-FD13,WI,Milwaukee ,ORD,60007
53214,WI-FD11,WI,Milwaukee ,ORD,60007
53215,WI-FC07,WI,Milwaukee ,ORD,60007
53216,WI-FD08,WI,Milwaukee ,ORD,60007
53217,WI-FF01,WI,Milwaukee ,ORD,60007
53218,WI-FF03,WI,Milwaukee ,ORD,60007
53219,WI-FC09,WI,Milwaukee ,ORD,60007
53220,WI-FC12,WI,Milwaukee ,ORD,60007
53221,WI-FC13,WI,Milwaukee ,ORD,60007
53222,WI-FD15,WI,Milwaukee ,ORD,60007
53223,WI-FF06,WI,Milwaukee ,ORD,60007
53224,WI-FF07,WI,Milwaukee ,ORD,60007
53225,WI-FF04,WI,Milwaukee ,ORD,60007
53226,WI-FD14,WI,Milwaukee ,ORD,60007
53227,WI-FC10,WI,Milwaukee ,ORD,60007
53228,WI-FC11,WI,Milwaukee ,ORD,60007
53233,WI-FD03,WI,Milwaukee ,ORD,60007
53235,WI-FC05,WI,Milwaukee ,ORD,60007
53295,WI-FD12,WI,Milwaukee ,ORD,60007
53402,WI-FB06,WI,Milwaukee ,ORD,60007
53403,WI-FB01,WI,Milwaukee ,ORD,60007
53404,WI-FB05,WI,Milwaukee ,ORD,60007
53405,WI-FB02,WI,Milwaukee ,ORD,60007
53406,WI-FB03,WI,Milwaukee ,ORD,60007
53702,WI-FE10,WI,Milwaukee ,ORD,60007
60002,IL-AH07,IL,Chicago,ORD,60007
60004,IL-AA09,IL,Chicago,ORD,60007
60005,IL-AA05,IL,Chicago,ORD,60007
60007,IL-AA02,IL,Chicago,ORD,60007
60008,IL-AA06,IL,Chicago,ORD,60007
60010,IL-AG01,IL,Chicago,ORD,60007
60012,IL-AG05,IL,Chicago,ORD,60007
60013,IL-AG03,IL,Chicago,ORD,60007
60014,IL-AG04,IL,Chicago,ORD,60007
60015,IL-AD01,IL,Chicago,ORD,60007
60016,IL-AA03,IL,Chicago,ORD,60007
60018,IL-AA01,IL,Chicago,ORD,60007
60020,IL-AH11,IL,Chicago,ORD,60007
60021,IL-AG02,IL,Chicago,ORD,60007
60022,IL-AC07,IL,Chicago,ORD,60007
60025,IL-AB08,IL,Chicago,ORD,60007
60026,IL-AB09,IL,Chicago,ORD,60007
60029,IL-AB07,IL,Chicago,ORD,60007
60030,IL-AE06,IL,Chicago,ORD,60007
60031,IL-AF01,IL,Chicago,ORD,60007
60035,IL-AD02,IL,Chicago,ORD,60007
60040,IL-AD03,IL,Chicago,ORD,60007
60041,IL-AH10,IL,Chicago,ORD,60007
60042,IL-AG06,IL,Chicago,ORD,60007
60043,IL-AC05,IL,Chicago,ORD,60007
60044,IL-AD06,IL,Chicago,ORD,60007
60045,IL-AD05,IL,Chicago,ORD,60007
60046,IL-AH08,IL,Chicago,ORD,60007
60047,IL-AE02,IL,Chicago,ORD,60007
60048,IL-AE04,IL,Chicago,ORD,60007
60050,IL-AH01,IL,Chicago,ORD,60007
60051,IL-AH02,IL,Chicago,ORD,60007
60053,IL-AB03,IL,Chicago,ORD,60007
60056,IL-AA04,IL,Chicago,ORD,60007
60060,IL-AE05,IL,Chicago,ORD,60007
60061,IL-AE03,IL,Chicago,ORD,60007
60062,IL-AB10,IL,Chicago,ORD,60007
60064,IL-AD08,IL,Chicago,ORD,60007
60067,IL-AA11,IL,Chicago,ORD,60007
60068,IL-AB01,IL,Chicago,ORD,60007
60069,IL-AD04,IL,Chicago,ORD,60007
60070,IL-AA07,IL,Chicago,ORD,60007
60071,IL-AH05,IL,Chicago,ORD,60007
60072,IL-AH04,IL,Chicago,ORD,60007
60073,IL-AH09,IL,Chicago,ORD,60007
60074,IL-AA10,IL,Chicago,ORD,60007
60076,IL-AB05,IL,Chicago,ORD,60007
60077,IL-AB06,IL,Chicago,ORD,60007
60081,IL-AH06,IL,Chicago,ORD,60007
60083,IL-AF06,IL,Chicago,ORD,60007
60084,IL-AG07,IL,Chicago,ORD,60007
60085,IL-AF02,IL,Chicago,ORD,60007
60087,IL-AF03,IL,Chicago,ORD,60007
60088,IL-AD07,IL,Chicago,ORD,60007
60089,IL-AE01,IL,Chicago,ORD,60007
60090,IL-AA08,IL,Chicago,ORD,60007
60091,IL-AC04,IL,Chicago,ORD,60007
60093,IL-AC06,IL,Chicago,ORD,60007
60096,IL-AF05,IL,Chicago,ORD,60007
60097,IL-AH03,IL,Chicago,ORD,60007
60099,IL-AF04,IL,Chicago,ORD,60007
60101,IL-CA04,IL,Chicago,ORD,60007
60102,IL-CI04,IL,Chicago,ORD,60007
60103,IL-CG02,IL,Chicago,ORD,60007
60104,IL-CC02,IL,Chicago,ORD,60007
60106,IL-CA01,IL,Chicago,ORD,60007
60107,IL-CG01,IL,Chicago,ORD,60007
60108,IL-CF03,IL,Chicago,ORD,60007
60110,IL-CI03,IL,Chicago,ORD,60007
60118,IL-CI01,IL,Chicago,ORD,60007
60120,IL-CG03,IL,Chicago,ORD,60007
60123,IL-CG05,IL,Chicago,ORD,60007
60124,IL-CG06,IL,Chicago,ORD,60007
60126,IL-CA05,IL,Chicago,ORD,60007
60130,IL-BB05,IL,Chicago,ORD,60007
60131,IL-CB02,IL,Chicago,ORD,60007
60133,IL-CF04,IL,Chicago,ORD,60007
60134,IL-CE02,IL,Chicago,ORD,60007
60136,IL-CI02,IL,Chicago,ORD,60007
60137,IL-CD02,IL,Chicago,ORD,60007
60139,IL-CD01,IL,Chicago,ORD,60007
60141,IL-CC07,IL,Chicago,ORD,60007
60142,IL-CI06,IL,Chicago,ORD,60007
60143,IL-CA03,IL,Chicago,ORD,60007
60148,IL-CA07,IL,Chicago,ORD,60007
60153,IL-CC01,IL,Chicago,ORD,60007
60154,IL-CC05,IL,Chicago,ORD,60007
60155,IL-CC06,IL,Chicago,ORD,60007
60156,IL-CI05,IL,Chicago,ORD,60007
60157,IL-CF01,IL,Chicago,ORD,60007
60160,IL-CB04,IL,Chicago,ORD,60007
60162,IL-CC04,IL,Chicago,ORD,60007
60163,IL-CC03,IL,Chicago,ORD,60007
60164,IL-CB05,IL,Chicago,ORD,60007
60165,IL-CB06,IL,Chicago,ORD,60007
60169,IL-CH03,IL,Chicago,ORD,60007
60171,IL-CB03,IL,Chicago,ORD,60007
60172,IL-CF02,IL,Chicago,ORD,60007
60173,IL-CH01,IL,Chicago,ORD,60007
60174,IL-CE04,IL,Chicago,ORD,60007
60175,IL-CE03,IL,Chicago,ORD,60007
60176,IL-CB01,IL,Chicago,ORD,60007
60177,IL-CG04,IL,Chicago,ORD,60007
60181,IL-CA06,IL,Chicago,ORD,60007
60184,IL-CE05,IL,Chicago,ORD,60007
60185,IL-CE01,IL,Chicago,ORD,60007
60187,IL-CD05,IL,Chicago,ORD,60007
60188,IL-CD06,IL,Chicago,ORD,60007
60189,IL-CD03,IL,Chicago,ORD,60007
60190,IL-CD04,IL,Chicago,ORD,60007
60191,IL-CA02,IL,Chicago,ORD,60007
60192,IL-CH05,IL,Chicago,ORD,60007
60193,IL-CF05,IL,Chicago,ORD,60007
60194,IL-CH02,IL,Chicago,ORD,60007
60195,IL-CH04,IL,Chicago,ORD,60007
60201,IL-AC03,IL,Chicago,ORD,60007
60202,IL-AC01,IL,Chicago,ORD,60007
60203,IL-AC02,IL,Chicago,ORD,60007
60301,IL-BB03,IL,Chicago,ORD,60007
60302,IL-BB02,IL,Chicago,ORD,60007
60304,IL-BB04,IL,Chicago,ORD,60007
60305,IL-BB01,IL,Chicago,ORD,60007
60402,IL-BB09,IL,Chicago,ORD,60007
60403,IL-EF05,IL,Chicago,ORD,60007
60404,IL-EG08,IL,Chicago,ORD,60007
60406,IL-EB01,IL,Chicago,ORD,60007
60409,IL-EB07,IL,Chicago,ORD,60007
60411,IL-EE06,IL,Chicago,ORD,60007
60415,IL-EA09,IL,Chicago,ORD,60007
60419,IL-EB05,IL,Chicago,ORD,60007
60422,IL-ED05,IL,Chicago,ORD,60007
60423,IL-EG01,IL,Chicago,ORD,60007
60425,IL-ED07,IL,Chicago,ORD,60007
60426,IL-EB03,IL,Chicago,ORD,60007
60428,IL-ED01,IL,Chicago,ORD,60007
60429,IL-ED03,IL,Chicago,ORD,60007
60430,IL-ED04,IL,Chicago,ORD,60007
60431,IL-EG07,IL,Chicago,ORD,60007
60432,IL-EG04,IL,Chicago,ORD,60007
60433,IL-EG03,IL,Chicago,ORD,60007
60435,IL-EG05,IL,Chicago,ORD,60007
60436,IL-EG06,IL,Chicago,ORD,60007
60438,IL-ED08,IL,Chicago,ORD,60007
60439,IL-EF03,IL,Chicago,ORD,60007
60440,IL-EF01,IL,Chicago,ORD,60007
60441,IL-EF06,IL,Chicago,ORD,60007
60443,IL-EE01,IL,Chicago,ORD,60007
60445,IL-EC02,IL,Chicago,ORD,60007
60446,IL-EF04,IL,Chicago,ORD,60007
60448,IL-EC06,IL,Chicago,ORD,60007
60451,IL-EG02,IL,Chicago,ORD,60007
60452,IL-EC10,IL,Chicago,ORD,60007
60453,IL-EA08,IL,Chicago,ORD,60007
60455,IL-EA05,IL,Chicago,ORD,60007
60456,IL-EA07,IL,Chicago,ORD,60007
60457,IL-EA04,IL,Chicago,ORD,60007
60458,IL-EA03,IL,Chicago,ORD,60007
60459,IL-EA06,IL,Chicago,ORD,60007
60461,IL-EE03,IL,Chicago,ORD,60007
60462,IL-EC08,IL,Chicago,ORD,60007
60463,IL-EC03,IL,Chicago,ORD,60007
60464,IL-EC04,IL,Chicago,ORD,60007
60465,IL-EA11,IL,Chicago,ORD,60007
60466,IL-EE04,IL,Chicago,ORD,60007
60467,IL-EC05,IL,Chicago,ORD,60007
60469,IL-EB02,IL,Chicago,ORD,60007
60471,IL-EE02,IL,Chicago,ORD,60007
60472,IL-EC01,IL,Chicago,ORD,60007
60473,IL-EB06,IL,Chicago,ORD,60007
60475,IL-EE05,IL,Chicago,ORD,60007
60476,IL-ED06,IL,Chicago,ORD,60007
60477,IL-EC09,IL,Chicago,ORD,60007
60478,IL-ED02,IL,Chicago,ORD,60007
60480,IL-EA02,IL,Chicago,ORD,60007
60482,IL-EA10,IL,Chicago,ORD,60007
60487,IL-EC07,IL,Chicago,ORD,60007
60490,IL-EF02,IL,Chicago,ORD,60007
60491,IL-EF07,IL,Chicago,ORD,60007
60501,IL-EA01,IL,Chicago,ORD,60007
60502,IL-DE03,IL,Chicago,ORD,60007
60503,IL-DD05,IL,Chicago,ORD,60007
60504,IL-DE01,IL,Chicago,ORD,60007
60505,IL-DE02,IL,Chicago,ORD,60007
60506,IL-DE08,IL,Chicago,ORD,60007
60510,IL-DE05,IL,Chicago,ORD,60007
60513,IL-DA03,IL,Chicago,ORD,60007
60514,IL-DB03,IL,Chicago,ORD,60007
60515,IL-DB08,IL,Chicago,ORD,60007
60516,IL-DB07,IL,Chicago,ORD,60007
60517,IL-DC02,IL,Chicago,ORD,60007
60519,IL-DE04,IL,Chicago,ORD,60007
60521,IL-DB02,IL,Chicago,ORD,60007
60523,IL-DB01,IL,Chicago,ORD,60007
60525,IL-DA05,IL,Chicago,ORD,60007
60526,IL-DA04,IL,Chicago,ORD,60007
60527,IL-DB05,IL,Chicago,ORD,60007
60532,IL-DC01,IL,Chicago,ORD,60007
60534,IL-DA02,IL,Chicago,ORD,60007
60538,IL-DD06,IL,Chicago,ORD,60007
60539,IL-DE06,IL,Chicago,ORD,60007
60540,IL-DC05,IL,Chicago,ORD,60007
60542,IL-DE07,IL,Chicago,ORD,60007
60543,IL-DD04,IL,Chicago,ORD,60007
60544,IL-DD02,IL,Chicago,ORD,60007
60546,IL-DA01,IL,Chicago,ORD,60007
60555,IL-DC04,IL,Chicago,ORD,60007
60558,IL-DA06,IL,Chicago,ORD,60007
60559,IL-DB04,IL,Chicago,ORD,60007
60561,IL-DB06,IL,Chicago,ORD,60007
60563,IL-DC03,IL,Chicago,ORD,60007
60564,IL-DC07,IL,Chicago,ORD,60007
60565,IL-DC06,IL,Chicago,ORD,60007
60585,IL-DD01,IL,Chicago,ORD,60007
60586,IL-DD03,IL,Chicago,ORD,60007
60601,IL-BE05,IL,Chicago,ORD,60007
60602,IL-BE06,IL,Chicago,ORD,60007
60603,IL-BE07,IL,Chicago,ORD,60007
60604,IL-BE08,IL,Chicago,ORD,60007
60605,IL-BE09,IL,Chicago,ORD,60007
60606,IL-BE04,IL,Chicago,ORD,60007
60607,IL-BE02,IL,Chicago,ORD,60007
60608,IL-BE12,IL,Chicago,ORD,60007
60609,IL-BF04,IL,Chicago,ORD,60007
60610,IL-BD05,IL,Chicago,ORD,60007
60611,IL-BD07,IL,Chicago,ORD,60007
60612,IL-BE01,IL,Chicago,ORD,60007
60613,IL-BC07,IL,Chicago,ORD,60007
60614,IL-BD04,IL,Chicago,ORD,60007
60615,IL-BF08,IL,Chicago,ORD,60007
60616,IL-BE11,IL,Chicago,ORD,60007
60617,IL-BG09,IL,Chicago,ORD,60007
60618,IL-BC09,IL,Chicago,ORD,60007
60619,IL-BG07,IL,Chicago,ORD,60007
60620,IL-BG05,IL,Chicago,ORD,60007
60621,IL-BF06,IL,Chicago,ORD,60007
60622,IL-BD02,IL,Chicago,ORD,60007
60623,IL-BB11,IL,Chicago,ORD,60007
60624,IL-BB07,IL,Chicago,ORD,60007
60625,IL-BC04,IL,Chicago,ORD,60007
60626,IL-BC02,IL,Chicago,ORD,60007
60628,IL-BG06,IL,Chicago,ORD,60007
60629,IL-BF03,IL,Chicago,ORD,60007
60630,IL-BA04,IL,Chicago,ORD,60007
60631,IL-BA01,IL,Chicago,ORD,60007
60632,IL-BF02,IL,Chicago,ORD,60007
60633,IL-BG10,IL,Chicago,ORD,60007
60634,IL-BA06,IL,Chicago,ORD,60007
60636,IL-BF05,IL,Chicago,ORD,60007
60637,IL-BF09,IL,Chicago,ORD,60007
60638,IL-BF01,IL,Chicago,ORD,60007
60639,IL-BA09,IL,Chicago,ORD,60007
60640,IL-BC06,IL,Chicago,ORD,60007
60641,IL-BA07,IL,Chicago,ORD,60007
60642,IL-BD03,IL,Chicago,ORD,60007
60643,IL-BG04,IL,Chicago,ORD,60007
60644,IL-BB06,IL,Chicago,ORD,60007
60645,IL-BC01,IL,Chicago,ORD,60007
60646,IL-BA02,IL,Chicago,ORD,60007
60647,IL-BD01,IL,Chicago,ORD,60007
60649,IL-BG08,IL,Chicago,ORD,60007
60651,IL-BB08,IL,Chicago,ORD,60007
60652,IL-BG01,IL,Chicago,ORD,60007
60653,IL-BF07,IL,Chicago,ORD,60007
60654,IL-BD06,IL,Chicago,ORD,60007
60655,IL-BG03,IL,Chicago,ORD,60007
60656,IL-BA03,IL,Chicago,ORD,60007
60657,IL-BC08,IL,Chicago,ORD,60007
60659,IL-BC03,IL,Chicago,ORD,60007
60660,IL-BC05,IL,Chicago,ORD,60007
60661,IL-BE03,IL,Chicago,ORD,60007
60706,IL-BA05,IL,Chicago,ORD,60007
60707,IL-BA08,IL,Chicago,ORD,60007
60712,IL-AB04,IL,Chicago,ORD,60007
60714,IL-AB02,IL,Chicago,ORD,60007
60803,IL-EA12,IL,Chicago,ORD,60007
60804,IL-BB10,IL,Chicago,ORD,60007
60805,IL-BG02,IL,Chicago,ORD,60007
60827,IL-EB04,IL,Chicago,ORD,60007
73003,OK-,OK,Oklahoma City ,DFW,76051
73008,OK-,OK,Oklahoma City ,DFW,76051
73012,OK-,OK,Oklahoma City ,DFW,76051
73013,OK-,OK,Oklahoma City ,DFW,76051
73019,OK-,OK,Oklahoma City ,DFW,76051
73020,OK-,OK,Oklahoma City ,DFW,76051
73034,OK-,OK,Oklahoma City ,DFW,76051
73049,OK-,OK,Oklahoma City ,DFW,76051
73064,OK-,OK,Oklahoma City ,DFW,76051
73066,OK-,OK,Oklahoma City ,DFW,76051
73069,OK-,OK,Oklahoma City ,DFW,76051
73071,OK-,OK,Oklahoma City ,DFW,76051
73072,OK-,OK,Oklahoma City ,DFW,76051
73084,OK-,OK,Oklahoma City ,DFW,76051
73097,OK-,OK,Oklahoma City ,DFW,76051
73099,OK-,OK,Oklahoma City ,DFW,76051
73102,OK-,OK,Oklahoma City ,DFW,76051
73103,OK-,OK,Oklahoma City ,DFW,76051
73104,OK-,OK,Oklahoma City ,DFW,76051
73105,OK-,OK,Oklahoma City ,DFW,76051
73106,OK-,OK,Oklahoma City ,DFW,76051
73107,OK-,OK,Oklahoma City ,DFW,76051
73108,OK-,OK,Oklahoma City ,DFW,76051
73109,OK-,OK,Oklahoma City ,DFW,76051
73110,OK-,OK,Oklahoma City ,DFW,76051
73111,OK-,OK,Oklahoma City ,DFW,76051
73112,OK-,OK,Oklahoma City ,DFW,76051
73114,OK-,OK,Oklahoma City ,DFW,76051
73115,OK-,OK,Oklahoma City ,DFW,76051
73116,OK-,OK,Oklahoma City ,DFW,76051
73117,OK-,OK,Oklahoma City ,DFW,76051
73118,OK-,OK,Oklahoma City ,DFW,76051
73119,OK-,OK,Oklahoma City ,DFW,76051
73120,OK-,OK,Oklahoma City ,DFW,76051
73121,OK-,OK,Oklahoma City ,DFW,76051
73122,OK-,OK,Oklahoma City ,DFW,76051
73127,OK-,OK,Oklahoma City ,DFW,76051
73128,OK-,OK,Oklahoma City ,DFW,76051
73129,OK-,OK,Oklahoma City ,DFW,76051
73130,OK-,OK,Oklahoma City ,DFW,76051
73131,OK-,OK,Oklahoma City ,DFW,76051
73132,OK-,OK,Oklahoma City ,DFW,76051
73134,OK-,OK,Oklahoma City ,DFW,76051
73135,OK-,OK,Oklahoma City ,DFW,76051
73139,OK-,OK,Oklahoma City ,DFW,76051
73141,OK-,OK,Oklahoma City ,DFW,76051
73142,OK-,OK,Oklahoma City ,DFW,76051
73145,OK-,OK,Oklahoma City ,DFW,76051
73149,OK-,OK,Oklahoma City ,DFW,76051
73150,OK-,OK,Oklahoma City ,DFW,76051
73151,OK-,OK,Oklahoma City ,DFW,76051
73159,OK-,OK,Oklahoma City ,DFW,76051
73160,OK-,OK,Oklahoma City ,DFW,76051
73162,OK-,OK,Oklahoma City ,DFW,76051
73165,OK-,OK,Oklahoma City ,DFW,76051
73169,OK-,OK,Oklahoma City ,DFW,76051
73170,OK-,OK,Oklahoma City ,DFW,76051
73173,OK-,OK,Oklahoma City ,DFW,76051
73179,OK-,OK,Oklahoma City ,DFW,76051
75001,TX-BA09,TX,Dallas,DFW,76051
75002,TX-BE01,TX,Dallas,DFW,76051
75006,TX-BA08,TX,Dallas,DFW,76051
75007,TX-BF07,TX,Dallas,DFW,76051
75010,TX-BF05,TX,Dallas,DFW,76051
75013,TX-BE03,TX,Dallas,DFW,76051
75019,TX-BA07,TX,Dallas,DFW,76051
75022,TX-BG04,TX,Dallas,DFW,76051
75023,TX-BD06,TX,Dallas,DFW,76051
75024,TX-BF03,TX,Dallas,DFW,76051
75025,TX-BE02,TX,Dallas,DFW,76051
75028,TX-BG03,TX,Dallas,DFW,76051
75034,TX-BE10,TX,Dallas,DFW,76051
75035,TX-BE09,TX,Dallas,DFW,76051
75038,TX-BA04,TX,Dallas,DFW,76051
75039,TX-BA05,TX,Dallas,DFW,76051
75040,TX-BC03,TX,Dallas,DFW,76051
75041,TX-AD05,TX,Dallas,DFW,76051
75042,TX-BC02,TX,Dallas,DFW,76051
75043,TX-AD04,TX,Dallas,DFW,76051
75044,TX-BD01,TX,Dallas,DFW,76051
75048,TX-BC07,TX,Dallas,DFW,76051
75050,TX-AG04,TX,Dallas,DFW,76051
75051,TX-AG03,TX,Dallas,DFW,76051
75052,TX-AG02,TX,Dallas,DFW,76051
75054,TX-AG01,TX,Dallas,DFW,76051
75056,TX-BF04,TX,Dallas,DFW,76051
75057,TX-BG02,TX,Dallas,DFW,76051
75060,TX-BA01,TX,Dallas,DFW,76051
75061,TX-BA02,TX,Dallas,DFW,76051
75062,TX-BA03,TX,Dallas,DFW,76051
75063,TX-BA06,TX,Dallas,DFW,76051
75065,TX-BG06,TX,Dallas,DFW,76051
75067,TX-BG01,TX,Dallas,DFW,76051
75068,TX-BE12,TX,Dallas,DFW,76051
75069,TX-BE04,TX,Dallas,DFW,76051
75070,TX-BE08,TX,Dallas,DFW,76051
75071,TX-BE06,TX,Dallas,DFW,76051
75074,TX-BD07,TX,Dallas,DFW,76051
75075,TX-BD05,TX,Dallas,DFW,76051
75077,TX-BG05,TX,Dallas,DFW,76051
75078,TX-BE11,TX,Dallas,DFW,76051
75080,TX-BD04,TX,Dallas,DFW,76051
75081,TX-BD02,TX,Dallas,DFW,76051
75082,TX-BD03,TX,Dallas,DFW,76051
75088,TX-BC04,TX,Dallas,DFW,76051
75089,TX-BC05,TX,Dallas,DFW,76051
75093,TX-BF02,TX,Dallas,DFW,76051
75094,TX-BD08,TX,Dallas,DFW,76051
75098,TX-BC06,TX,Dallas,DFW,76051
75104,TX-AF10,TX,Dallas,DFW,76051
75115,TX-AF09,TX,Dallas,DFW,76051
75116,TX-AE10,TX,Dallas,DFW,76051
75134,TX-AF07,TX,Dallas,DFW,76051
75137,TX-AF01,TX,Dallas,DFW,76051
75141,TX-AF05,TX,Dallas,DFW,76051
75146,TX-AF08,TX,Dallas,DFW,76051
75149,TX-AC06,TX,Dallas,DFW,76051
75150,TX-AD01,TX,Dallas,DFW,76051
75172,TX-AF06,TX,Dallas,DFW,76051
75180,TX-AC03,TX,Dallas,DFW,76051
75181,TX-AC04,TX,Dallas,DFW,76051
75182,TX-AC07,TX,Dallas,DFW,76051
75201,TX-AA03,TX,Dallas,DFW,76051
75202,TX-AA01,TX,Dallas,DFW,76051
75203,TX-AE04,TX,Dallas,DFW,76051
75204,TX-AA07,TX,Dallas,DFW,76051
75205,TX-AB08,TX,Dallas,DFW,76051
75206,TX-AB07,TX,Dallas,DFW,76051
75207,TX-AA04,TX,Dallas,DFW,76051
75208,TX-AE03,TX,Dallas,DFW,76051
75209,TX-AB09,TX,Dallas,DFW,76051
75210,TX-AB04,TX,Dallas,DFW,76051
75211,TX-AE02,TX,Dallas,DFW,76051
75212,TX-AE01,TX,Dallas,DFW,76051
75214,TX-AB06,TX,Dallas,DFW,76051
75215,TX-AB03,TX,Dallas,DFW,76051
75216,TX-AE05,TX,Dallas,DFW,76051
75217,TX-AC01,TX,Dallas,DFW,76051
75218,TX-AD03,TX,Dallas,DFW,76051
75219,TX-AB01,TX,Dallas,DFW,76051
75220,TX-AA08,TX,Dallas,DFW,76051
75223,TX-AB05,TX,Dallas,DFW,76051
75224,TX-AE06,TX,Dallas,DFW,76051
75225,TX-AB10,TX,Dallas,DFW,76051
75226,TX-AA05,TX,Dallas,DFW,76051
75227,TX-AC05,TX,Dallas,DFW,76051
75228,TX-AD02,TX,Dallas,DFW,76051
75229,TX-BB03,TX,Dallas,DFW,76051
75230,TX-BB04,TX,Dallas,DFW,76051
75231,TX-AD07,TX,Dallas,DFW,76051
75232,TX-AF03,TX,Dallas,DFW,76051
75233,TX-AE07,TX,Dallas,DFW,76051
75234,TX-BB02,TX,Dallas,DFW,76051
75235,TX-AA09,TX,Dallas,DFW,76051
75236,TX-AE08,TX,Dallas,DFW,76051
75237,TX-AF02,TX,Dallas,DFW,76051
75238,TX-AD06,TX,Dallas,DFW,76051
75240,TX-BB06,TX,Dallas,DFW,76051
75241,TX-AF04,TX,Dallas,DFW,76051
75243,TX-BC01,TX,Dallas,DFW,76051
75244,TX-BB01,TX,Dallas,DFW,76051
75246,TX-AA06,TX,Dallas,DFW,76051
75247,TX-AB02,TX,Dallas,DFW,76051
75248,TX-BB08,TX,Dallas,DFW,76051
75249,TX-AE09,TX,Dallas,DFW,76051
75251,TX-BB05,TX,Dallas,DFW,76051
75252,TX-BF01,TX,Dallas,DFW,76051
75253,TX-AC02,TX,Dallas,DFW,76051
75254,TX-BB07,TX,Dallas,DFW,76051
75270,TX-AA02,TX,Dallas,DFW,76051
75287,TX-BF06,TX,Dallas,DFW,76051
75390,TX-AA10,TX,Dallas,DFW,76051
75407,TX-BE05,TX,Dallas,DFW,76051
75454,TX-BE07,TX,Dallas,DFW,76051
76001,TX-AH07,TX,Dallas,DFW,76051
76002,TX-AH08,TX,Dallas,DFW,76051
76006,TX-AG05,TX,Dallas,DFW,76051
76010,TX-AG08,TX,Dallas,DFW,76051
76011,TX-AG07,TX,Dallas,DFW,76051
76012,TX-AG06,TX,Dallas,DFW,76051
76013,TX-AG09,TX,Dallas,DFW,76051
76014,TX-AH02,TX,Dallas,DFW,76051
76015,TX-AH01,TX,Dallas,DFW,76051
76016,TX-AH03,TX,Dallas,DFW,76051
76017,TX-AH05,TX,Dallas,DFW,76051
76018,TX-AH04,TX,Dallas,DFW,76051
76021,TX-BI05,TX,Dallas,DFW,76051
76022,TX-BI06,TX,Dallas,DFW,76051
76028,TX-BN07,TX,Dallas,DFW,76051
76034,TX-BI08,TX,Dallas,DFW,76051
76036,TX-BN04,TX,Dallas,DFW,76051
76039,TX-BI04,TX,Dallas,DFW,76051
76040,TX-BI03,TX,Dallas,DFW,76051
76051,TX-BI01,TX,Dallas,DFW,76051
76052,TX-BJ07,TX,Dallas,DFW,76051
76053,TX-BK01,TX,Dallas,DFW,76051
76054,TX-BI07,TX,Dallas,DFW,76051
76060,TX-AH06,TX,Dallas,DFW,76051
76063,TX-AH09,TX,Dallas,DFW,76051
76092,TX-BI09,TX,Dallas,DFW,76051
76102,TX-BK08,TX,Dallas,DFW,76051
76103,TX-BK06,TX,Dallas,DFW,76051
76104,TX-BM02,TX,Dallas,DFW,76051
76105,TX-BM01,TX,Dallas,DFW,76051
76106,TX-BL03,TX,Dallas,DFW,76051
76107,TX-BL01,TX,Dallas,DFW,76051
76108,TX-BL07,TX,Dallas,DFW,76051
76109,TX-BM06,TX,Dallas,DFW,76051
76110,TX-BM05,TX,Dallas,DFW,76051
76111,TX-BK07,TX,Dallas,DFW,76051
76112,TX-BK05,TX,Dallas,DFW,76051
76114,TX-BL05,TX,Dallas,DFW,76051
76115,TX-BM04,TX,Dallas,DFW,76051
76116,TX-BL08,TX,Dallas,DFW,76051
76117,TX-BK03,TX,Dallas,DFW,76051
76118,TX-BK02,TX,Dallas,DFW,76051
76119,TX-BM03,TX,Dallas,DFW,76051
76120,TX-BK04,TX,Dallas,DFW,76051
76123,TX-BN03,TX,Dallas,DFW,76051
76126,TX-BM08,TX,Dallas,DFW,76051
76127,TX-BL06,TX,Dallas,DFW,76051
76129,TX-BM07,TX,Dallas,DFW,76051
76131,TX-BJ05,TX,Dallas,DFW,76051
76132,TX-BN01,TX,Dallas,DFW,76051
76133,TX-BN02,TX,Dallas,DFW,76051
76134,TX-BN05,TX,Dallas,DFW,76051
76135,TX-BL04,TX,Dallas,DFW,76051
76137,TX-BJ04,TX,Dallas,DFW,76051
76140,TX-BN06,TX,Dallas,DFW,76051
76148,TX-BJ03,TX,Dallas,DFW,76051
76155,TX-BI02,TX,Dallas,DFW,76051
76164,TX-BL02,TX,Dallas,DFW,76051
76177,TX-BJ08,TX,Dallas,DFW,76051
76179,TX-BJ06,TX,Dallas,DFW,76051
76180,TX-BJ02,TX,Dallas,DFW,76051
76182,TX-BJ01,TX,Dallas,DFW,76051
76201,TX-BH06,TX,Dallas,DFW,76051
76205,TX-BH04,TX,Dallas,DFW,76051
76207,TX-BH07,TX,Dallas,DFW,76051
76208,TX-BH03,TX,Dallas,DFW,76051
76209,TX-BH05,TX,Dallas,DFW,76051
76210,TX-BH02,TX,Dallas,DFW,76051
76226,TX-BH01,TX,Dallas,DFW,76051
76244,TX-BJ10,TX,Dallas,DFW,76051
76248,TX-BJ11,TX,Dallas,DFW,76051
76262,TX-BJ09,TX,Dallas,DFW,76051
77002,TX-EA02,TX,Huston,DFW,76051
77003,TX-EB03,TX,Huston,DFW,76051
77004,TX-EB06,TX,Huston,DFW,76051
77005,TX-EA05,TX,Huston,DFW,76051
77006,TX-EA04,TX,Huston,DFW,76051
77007,TX-EA11,TX,Huston,DFW,76051
77008,TX-EA12,TX,Huston,DFW,76051
77009,TX-EA13,TX,Huston,DFW,76051
77010,TX-EA03,TX,Huston,DFW,76051
77011,TX-EB04,TX,Huston,DFW,76051
77012,TX-FA01,TX,Huston,DFW,76051
77013,TX-IA02,TX,Huston,DFW,76051
77014,TX-HE09,TX,Huston,DFW,76051
77015,TX-IA04,TX,Huston,DFW,76051
77016,TX-IB02,TX,Huston,DFW,76051
77017,TX-FA02,TX,Huston,DFW,76051
77018,TX-HC02,TX,Huston,DFW,76051
77019,TX-EA10,TX,Huston,DFW,76051
77020,TX-EB02,TX,Huston,DFW,76051
77021,TX-EB07,TX,Huston,DFW,76051
77022,TX-HC01,TX,Huston,DFW,76051
77023,TX-EB05,TX,Huston,DFW,76051
77024,TX-HA04,TX,Huston,DFW,76051
77025,TX-EA06,TX,Huston,DFW,76051
77026,TX-EB01,TX,Huston,DFW,76051
77027,TX-EA09,TX,Huston,DFW,76051
77028,TX-IA07,TX,Huston,DFW,76051
77029,TX-IA01,TX,Huston,DFW,76051
77030,TX-EB08,TX,Huston,DFW,76051
77031,TX-GB09,TX,Huston,DFW,76051
77032,TX-IB08,TX,Huston,DFW,76051
77033,TX-GA01,TX,Huston,DFW,76051
77034,TX-FA08,TX,Huston,DFW,76051
77035,TX-GB01,TX,Huston,DFW,76051
77036,TX-GB06,TX,Huston,DFW,76051
77037,TX-HC06,TX,Huston,DFW,76051
77038,TX-HE01,TX,Huston,DFW,76051
77039,TX-IB04,TX,Huston,DFW,76051
77040,TX-HC08,TX,Huston,DFW,76051
77041,TX-HB04,TX,Huston,DFW,76051
77042,TX-HA05,TX,Huston,DFW,76051
77043,TX-HB03,TX,Huston,DFW,76051
77044,TX-IA09,TX,Huston,DFW,76051
77045,TX-GA08,TX,Huston,DFW,76051
77046,TX-EA08,TX,Huston,DFW,76051
77047,TX-GA06,TX,Huston,DFW,76051
77048,TX-GA02,TX,Huston,DFW,76051
77049,TX-IA06,TX,Huston,DFW,76051
77050,TX-IB03,TX,Huston,DFW,76051
77051,TX-GA07,TX,Huston,DFW,76051
77053,TX-GA09,TX,Huston,DFW,76051
77054,TX-EB09,TX,Huston,DFW,76051
77055,TX-HB01,TX,Huston,DFW,76051
77056,TX-HA01,TX,Huston,DFW,76051
77057,TX-HA02,TX,Huston,DFW,76051
77058,TX-FC03,TX,Huston,DFW,76051
77059,TX-FC01,TX,Huston,DFW,76051
77060,TX-IB05,TX,Huston,DFW,76051
77061,TX-FA05,TX,Huston,DFW,76051
77062,TX-FC02,TX,Huston,DFW,76051
77063,TX-HA03,TX,Huston,DFW,76051
77064,TX-HE03,TX,Huston,DFW,76051
77065,TX-HE04,TX,Huston,DFW,76051
77066,TX-HE07,TX,Huston,DFW,76051
77067,TX-HE08,TX,Huston,DFW,76051
77068,TX-HE10,TX,Huston,DFW,76051
77069,TX-HE06,TX,Huston,DFW,76051
77070,TX-HE05,TX,Huston,DFW,76051
77071,TX-GB10,TX,Huston,DFW,76051
77072,TX-GB07,TX,Huston,DFW,76051
77073,TX-IB06,TX,Huston,DFW,76051
77074,TX-GB05,TX,Huston,DFW,76051
77075,TX-FA06,TX,Huston,DFW,76051
77076,TX-HC05,TX,Huston,DFW,76051
77077,TX-HA07,TX,Huston,DFW,76051
77078,TX-IA08,TX,Huston,DFW,76051
77079,TX-HA06,TX,Huston,DFW,76051
77080,TX-HB02,TX,Huston,DFW,76051
77081,TX-GB04,TX,Huston,DFW,76051
77082,TX-HA08,TX,Huston,DFW,76051
77083,TX-GC07,TX,Huston,DFW,76051
77084,TX-HB06,TX,Huston,DFW,76051
77085,TX-GB11,TX,Huston,DFW,76051
77086,TX-HE02,TX,Huston,DFW,76051
77087,TX-FA04,TX,Huston,DFW,76051
77088,TX-HC07,TX,Huston,DFW,76051
77089,TX-FA07,TX,Huston,DFW,76051
77090,TX-HE11,TX,Huston,DFW,76051
77091,TX-HC04,TX,Huston,DFW,76051
77092,TX-HC03,TX,Huston,DFW,76051
77093,TX-IB01,TX,Huston,DFW,76051
77094,TX-HA09,TX,Huston,DFW,76051
77095,TX-HB05,TX,Huston,DFW,76051
77096,TX-GB02,TX,Huston,DFW,76051
77098,TX-EA07,TX,Huston,DFW,76051
77099,TX-GB08,TX,Huston,DFW,76051
77201,TX-EA01,TX,Huston,DFW,76051
77302,TX-IC03,TX,Huston,DFW,76051
77338,TX-IB09,TX,Huston,DFW,76051
77339,TX-IC05,TX,Huston,DFW,76051
77345,TX-IC06,TX,Huston,DFW,76051
77346,TX-IB11,TX,Huston,DFW,76051
77354,TX-H,TX,Huston,DFW,76051
77355,TX-H,TX,Huston,DFW,76051
77357,TX-IC07,TX,Huston,DFW,76051
77362,TX-H,TX,Huston,DFW,76051
77365,TX-IC04,TX,Huston,DFW,76051
77373,TX-IB07,TX,Huston,DFW,76051
77375,TX-HF03,TX,Huston,DFW,76051
77377,TX-HF02,TX,Huston,DFW,76051
77379,TX-HF04,TX,Huston,DFW,76051
77380,TX-HF07,TX,Huston,DFW,76051
77381,TX-HF08,TX,Huston,DFW,76051
77382,TX-HF09,TX,Huston,DFW,76051
77384,TX-HF10,TX,Huston,DFW,76051
77385,TX-IC02,TX,Huston,DFW,76051
77386,TX-IC01,TX,Huston,DFW,76051
77388,TX-HF05,TX,Huston,DFW,76051
77389,TX-HF06,TX,Huston,DFW,76051
77396,TX-IB10,TX,Huston,DFW,76051
77401,TX-GB03,TX,Huston,DFW,76051
77406,TX-GC10,TX,Huston,DFW,76051
77407,TX-GC08,TX,Huston,DFW,76051
77429,TX-HF01,TX,Huston,DFW,76051
77433,TX-HB07,TX,Huston,DFW,76051
77449,TX-HB08,TX,Huston,DFW,76051
77450,TX-HA10,TX,Huston,DFW,76051
77459,TX-GC02,TX,Huston,DFW,76051
77469,TX-GC12,TX,Huston,DFW,76051
77471,TX-GC11,TX,Huston,DFW,76051
77477,TX-GC04,TX,Huston,DFW,76051
77478,TX-GC05,TX,Huston,DFW,76051
77479,TX-GC09,TX,Huston,DFW,76051
77481,TX-GC03,TX,Huston,DFW,76051
77489,TX-GC01,TX,Huston,DFW,76051
77493,TX-HB09,TX,Huston,DFW,76051
77494,TX-HA11,TX,Huston,DFW,76051
77498,TX-GC06,TX,Huston,DFW,76051
77502,TX-FB02,TX,Huston,DFW,76051
77503,TX-FB05,TX,Huston,DFW,76051
77504,TX-FB03,TX,Huston,DFW,76051
77505,TX-FB04,TX,Huston,DFW,76051
77506,TX-FB01,TX,Huston,DFW,76051
77507,TX-FB08,TX,Huston,DFW,76051
77510,TX-FE08,TX,Huston,DFW,76051
77511,TX-FE10,TX,Huston,DFW,76051
77517,TX-FE09,TX,Huston,DFW,76051
77518,TX-FC08,TX,Huston,DFW,76051
77520,TX-ID01,TX,Huston,DFW,76051
77521,TX-ID02,TX,Huston,DFW,76051
77523,TX-ID04,TX,Huston,DFW,76051
77530,TX-IA05,TX,Huston,DFW,76051
77532,TX-ID05,TX,Huston,DFW,76051
77536,TX-FB06,TX,Huston,DFW,76051
77539,TX-FC09,TX,Huston,DFW,76051
77545,TX-GA10,TX,Huston,DFW,76051
77546,TX-FC05,TX,Huston,DFW,76051
77547,TX-IA03,TX,Huston,DFW,76051
77550,TX-FE05,TX,Huston,DFW,76051
77551,TX-FE04,TX,Huston,DFW,76051
77554,TX-FE06,TX,Huston,DFW,76051
77562,TX-ID03,TX,Huston,DFW,76051
77563,TX-FE07,TX,Huston,DFW,76051
77565,TX-FC07,TX,Huston,DFW,76051
77568,TX-FE03,TX,Huston,DFW,76051
77571,TX-FB07,TX,Huston,DFW,76051
77573,TX-FC06,TX,Huston,DFW,76051
77578,TX-GA05,TX,Huston,DFW,76051
77581,TX-GA03,TX,Huston,DFW,76051
77584,TX-GA04,TX,Huston,DFW,76051
77586,TX-FB09,TX,Huston,DFW,76051
77587,TX-FA03,TX,Huston,DFW,76051
77590,TX-FE02,TX,Huston,DFW,76051
77591,TX-FE01,TX,Huston,DFW,76051
77598,TX-FC04,TX,Huston,DFW,76051
78002,,TX,San Antonio,DFW,76051
78009,,TX,San Antonio,DFW,76051
78015,,TX,San Antonio,DFW,76051
78023,,TX,San Antonio,DFW,76051
78039,,TX,San Antonio,DFW,76051
78052,,TX,San Antonio,DFW,76051
78066,,TX,San Antonio,DFW,76051
78069,,TX,San Antonio,DFW,76051
78073,,TX,San Antonio,DFW,76051
78101,,TX,San Antonio,DFW,76051
78108,TX-LA03,TX,San Antonio,DFW,76051
78109,TX-LC04,TX,San Antonio,DFW,76051
78112,,TX,San Antonio,DFW,76051
78121,,TX,San Antonio,DFW,76051
78123,TX-LA01,TX,San Antonio,DFW,76051
78124,TX-LA02,TX,San Antonio,DFW,76051
78130,TX-LA05,TX,San Antonio,DFW,76051
78132,TX-LA04,TX,San Antonio,DFW,76051
78148,TX-LC02,TX,San Antonio,DFW,76051
78150,TX-LC03,TX,San Antonio,DFW,76051
78152,,TX,San Antonio,DFW,76051
78154,TX-LC01,TX,San Antonio,DFW,76051
78163,TX-LB07,TX,San Antonio,DFW,76051
78201,TX-ND01,TX,San Antonio,DFW,76051
78202,TX-NA04,TX,San Antonio,DFW,76051
78203,TX-NA03,TX,San Antonio,DFW,76051
78204,TX-NE01,TX,San Antonio,DFW,76051
78205,TX-NA01,TX,San Antonio,DFW,76051
78207,TX-NE02,TX,San Antonio,DFW,76051
78208,TX-NA05,TX,San Antonio,DFW,76051
78209,TX-LD02,TX,San Antonio,DFW,76051
78210,TX-NB01,TX,San Antonio,DFW,76051
78211,TX-NE10,TX,San Antonio,DFW,76051
78212,TX-LD03,TX,San Antonio,DFW,76051
78213,TX-NC01,TX,San Antonio,DFW,76051
78214,TX-NB05,TX,San Antonio,DFW,76051
78215,TX-NA02,TX,San Antonio,DFW,76051
78216,TX-LD04,TX,San Antonio,DFW,76051
78217,TX-LD05,TX,San Antonio,DFW,76051
78218,TX-LD01,TX,San Antonio,DFW,76051
78219,TX-NA06,TX,San Antonio,DFW,76051
78220,TX-NA07,TX,San Antonio,DFW,76051
78221,TX-NB06,TX,San Antonio,DFW,76051
78222,TX-NB02,TX,San Antonio,DFW,76051
78223,TX-NB03,TX,San Antonio,DFW,76051
78224,TX-NB07,TX,San Antonio,DFW,76051
78225,TX-NE03,TX,San Antonio,DFW,76051
78226,TX-NE04,TX,San Antonio,DFW,76051
78227,TX-NE06,TX,San Antonio,DFW,76051
78228,TX-ND02,TX,San Antonio,DFW,76051
78229,TX-NC02,TX,San Antonio,DFW,76051
78230,TX-NC03,TX,San Antonio,DFW,76051
78231,TX-NC06,TX,San Antonio,DFW,76051
78232,TX-LD07,TX,San Antonio,DFW,76051
78233,TX-LC07,TX,San Antonio,DFW,76051
78234,,TX,San Antonio,DFW,76051
78235,TX-NB04,TX,San Antonio,DFW,76051
78236,TX-NE07,TX,San Antonio,DFW,76051
78237,TX-NE05,TX,San Antonio,DFW,76051
78238,TX-ND03,TX,San Antonio,DFW,76051
78239,TX-LC06,TX,San Antonio,DFW,76051
78240,TX-NC04,TX,San Antonio,DFW,76051
78242,TX-NE08,TX,San Antonio,DFW,76051
78243,TX-NE09,TX,San Antonio,DFW,76051
78244,TX-LC05,TX,San Antonio,DFW,76051
78245,TX-NE12,TX,San Antonio,DFW,76051
78247,TX-LD06,TX,San Antonio,DFW,76051
78248,TX-LD08,TX,San Antonio,DFW,76051
78249,TX-NC05,TX,San Antonio,DFW,76051
78250,TX-ND04,TX,San Antonio,DFW,76051
78251,TX-ND05,TX,San Antonio,DFW,76051
78252,TX-NE11,TX,San Antonio,DFW,76051
78253,TX-ND06,TX,San Antonio,DFW,76051
78254,TX-ND07,TX,San Antonio,DFW,76051
78255,TX-NC07,TX,San Antonio,DFW,76051
78256,TX-NC08,TX,San Antonio,DFW,76051
78257,TX-LB04,TX,San Antonio,DFW,76051
78258,TX-LB03,TX,San Antonio,DFW,76051
78259,TX-LB02,TX,San Antonio,DFW,76051
78260,TX-LB05,TX,San Antonio,DFW,76051
78261,TX-LB06,TX,San Antonio,DFW,76051
78263,,TX,San Antonio,DFW,76051
78266,TX-LB01,TX,San Antonio,DFW,76051
78610,TX-KC08,TX,Austin,DFW,76051
78613,TX-JA05,TX,Austin,DFW,76051
78617,TX-KD04,TX,Austin,DFW,76051
78626,TX-JB01,TX,Austin,DFW,76051
78628,TX-JA03,TX,Austin,DFW,76051
78633,TX-JA02,TX,Austin,DFW,76051
78634,TX-JB03,TX,Austin,DFW,76051
78641,TX-JA01,TX,Austin,DFW,76051
78652,TX-KC07,TX,Austin,DFW,76051
78653,TX-JB09,TX,Austin,DFW,76051
78660,TX-JB05,TX,Austin,DFW,76051
78664,TX-JB04,TX,Austin,DFW,76051
78665,TX-JB02,TX,Austin,DFW,76051
78681,TX-JA04,TX,Austin,DFW,76051
78701,TX-KA10,TX,Austin,DFW,76051
78702,TX-KA11,TX,Austin,DFW,76051
78703,TX-KA09,TX,Austin,DFW,76051
78704,TX-KC01,TX,Austin,DFW,76051
78705,TX-KA07,TX,Austin,DFW,76051
78712,TX-KA08,TX,Austin,DFW,76051
78717,TX-JA06,TX,Austin,DFW,76051
78719,TX-KD07,TX,Austin,DFW,76051
78721,TX-KA12,TX,Austin,DFW,76051
78722,TX-KA06,TX,Austin,DFW,76051
78723,TX-KA05,TX,Austin,DFW,76051
78724,TX-JB08,TX,Austin,DFW,76051
78725,TX-KD03,TX,Austin,DFW,76051
78726,TX-JC07,TX,Austin,DFW,76051
78727,TX-JC03,TX,Austin,DFW,76051
78728,TX-JC01,TX,Austin,DFW,76051
78729,TX-JC02,TX,Austin,DFW,76051
78730,TX-JC09,TX,Austin,DFW,76051
78731,TX-JC08,TX,Austin,DFW,76051
78732,TX-JC10,TX,Austin,DFW,76051
78733,TX-KB02,TX,Austin,DFW,76051
78734,TX-KB04,TX,Austin,DFW,76051
78735,TX-KB05,TX,Austin,DFW,76051
78736,TX-KB06,TX,Austin,DFW,76051
78737,TX-KC05,TX,Austin,DFW,76051
78738,TX-KB03,TX,Austin,DFW,76051
78739,TX-KC04,TX,Austin,DFW,76051
78741,TX-KD01,TX,Austin,DFW,76051
78742,TX-KD02,TX,Austin,DFW,76051
78744,TX-KD05,TX,Austin,DFW,76051
78745,TX-KC02,TX,Austin,DFW,76051
78746,TX-KB01,TX,Austin,DFW,76051
78747,TX-KD06,TX,Austin,DFW,76051
78748,TX-KC06,TX,Austin,DFW,76051
78749,TX-KC03,TX,Austin,DFW,76051
78750,TX-JC06,TX,Austin,DFW,76051
78751,TX-KA04,TX,Austin,DFW,76051
78752,TX-KA02,TX,Austin,DFW,76051
78753,TX-JB06,TX,Austin,DFW,76051
78754,TX-JB07,TX,Austin,DFW,76051
78756,TX-KA03,TX,Austin,DFW,76051
78757,TX-KA01,TX,Austin,DFW,76051
78758,TX-JC04,TX,Austin,DFW,76051
78759,TX-JC05,TX,Austin,DFW,76051
79821,TX-PA01,TX,EL PASO,DFW,76051
79835,TX-PA02,TX,EL PASO,DFW,76051
79836,TX-PD03,TX,EL PASO,DFW,76051
79838,TX-PD04,TX,EL PASO,DFW,76051
79849,TX-PD02,TX,EL PASO,DFW,76051
79901,TX-PB01,TX,EL PASO,DFW,76051
79902,TX-PB02,TX,EL PASO,DFW,76051
79903,TX-PB04,TX,EL PASO,DFW,76051
79904,TX-PB06,TX,EL PASO,DFW,76051
79905,TX-PB03,TX,EL PASO,DFW,76051
79907,TX-PC03,TX,EL PASO,DFW,76051
79911,TX-PA04,TX,EL PASO,DFW,76051
79912,TX-PA05,TX,EL PASO,DFW,76051
79915,TX-PC02,TX,EL PASO,DFW,76051
79922,TX-PA06,TX,EL PASO,DFW,76051
79924,TX-PB07,TX,EL PASO,DFW,76051
79925,TX-PC01,TX,EL PASO,DFW,76051
79927,TX-PD01,TX,EL PASO,DFW,76051
79928,TX-PD05,TX,EL PASO,DFW,76051
79930,TX-PB05,TX,EL PASO,DFW,76051
79932,TX-PA03,TX,EL PASO,DFW,76051
79934,TX-PB08,TX,EL PASO,DFW,76051
79935,TX-PC04,TX,EL PASO,DFW,76051
79936,TX-PC05,TX,EL PASO,DFW,76051
80002,CO -,CO,Denver,LAX,90040
80003,CO -,CO,Denver,LAX,90040
80004,CO -,CO,Denver,LAX,90040
80005,CO -,CO,Denver,LAX,90040
80007,CO -,CO,Denver,LAX,90040
80010,CO -,CO,Denver,LAX,90040
80011,CO -,CO,Denver,LAX,90040
80012,CO -,CO,Denver,LAX,90040
80013,CO -,CO,Denver,LAX,90040
80014,CO -,CO,Denver,LAX,90040
80015,CO -,CO,Denver,LAX,90040
80016,CO -,CO,Denver,LAX,90040
80017,CO -,CO,Denver,LAX,90040
80018,CO -,CO,Denver,LAX,90040
80019,CO -,CO,Denver,LAX,90040
80020,CO -,CO,Denver,LAX,90040
80021,CO -,CO,Denver,LAX,90040
80022,CO -,CO,Denver,LAX,90040
80023,CO -,CO,Denver,LAX,90040
80024,CO -,CO,Denver,LAX,90040
80025,CO -,CO,Denver,LAX,90040
80026,CO -,CO,Denver,LAX,90040
80027,CO -,CO,Denver,LAX,90040
80030,CO -,CO,Denver,LAX,90040
80031,CO -,CO,Denver,LAX,90040
80033,CO -,CO,Denver,LAX,90040
80045,CO -,CO,Denver,LAX,90040
80104,CO -,CO,Denver,LAX,90040
80108,CO -,CO,Denver,LAX,90040
80109,CO -,CO,Denver,LAX,90040
80110,CO -,CO,Denver,LAX,90040
80111,CO -,CO,Denver,LAX,90040
80112,CO -,CO,Denver,LAX,90040
80113,CO -,CO,Denver,LAX,90040
80120,CO -,CO,Denver,LAX,90040
80121,CO -,CO,Denver,LAX,90040
80122,CO -,CO,Denver,LAX,90040
80123,CO -,CO,Denver,LAX,90040
80124,CO -,CO,Denver,LAX,90040
80125,CO -,CO,Denver,LAX,90040
80126,CO -,CO,Denver,LAX,90040
80127,CO -,CO,Denver,LAX,90040
80128,CO -,CO,Denver,LAX,90040
80129,CO -,CO,Denver,LAX,90040
80130,CO -,CO,Denver,LAX,90040
80131,CO -,CO,Denver,LAX,90040
80134,CO -,CO,Denver,LAX,90040
80135,CO -,CO,Denver,LAX,90040
80138,CO -,CO,Denver,LAX,90040
80202,CO -,CO,Denver,LAX,90040
80203,CO -,CO,Denver,LAX,90040
80204,CO -,CO,Denver,LAX,90040
80205,CO -,CO,Denver,LAX,90040
80206,CO -,CO,Denver,LAX,90040
80207,CO -,CO,Denver,LAX,90040
80209,CO -,CO,Denver,LAX,90040
80210,CO -,CO,Denver,LAX,90040
80211,CO -,CO,Denver,LAX,90040
80212,CO -,CO,Denver,LAX,90040
80214,CO -,CO,Denver,LAX,90040
80215,CO -,CO,Denver,LAX,90040
80216,CO -,CO,Denver,LAX,90040
80218,CO -,CO,Denver,LAX,90040
80219,CO -,CO,Denver,LAX,90040
80220,CO -,CO,Denver,LAX,90040
80221,CO -,CO,Denver,LAX,90040
80222,CO -,CO,Denver,LAX,90040
80223,CO -,CO,Denver,LAX,90040
80224,CO -,CO,Denver,LAX,90040
80226,CO -,CO,Denver,LAX,90040
80227,CO -,CO,Denver,LAX,90040
80228,CO -,CO,Denver,LAX,90040
80229,CO -,CO,Denver,LAX,90040
80230,CO -,CO,Denver,LAX,90040
80231,CO -,CO,Denver,LAX,90040
80232,CO -,CO,Denver,LAX,90040
80233,CO -,CO,Denver,LAX,90040
80234,CO -,CO,Denver,LAX,90040
80235,CO -,CO,Denver,LAX,90040
80236,CO -,CO,Denver,LAX,90040
80237,CO -,CO,Denver,LAX,90040
80238,CO -,CO,Denver,LAX,90040
80239,CO -,CO,Denver,LAX,90040
80241,CO -,CO,Denver,LAX,90040
80246,CO -,CO,Denver,LAX,90040
80247,CO -,CO,Denver,LAX,90040
80249,CO -,CO,Denver,LAX,90040
80260,CO -,CO,Denver,LAX,90040
80301,CO -,CO,Denver,LAX,90040
80303,CO -,CO,Denver,LAX,90040
80305,CO -,CO,Denver,LAX,90040
80310,CO -,CO,Denver,LAX,90040
80419,CO -,CO,Denver,LAX,90040
80465,CO -,CO,Denver,LAX,90040
80501,CO -,CO,Denver,LAX,90040
80503,CO -,CO,Denver,LAX,90040
80504,CO -,CO,Denver,LAX,90040
80513,CO -,CO,Denver,LAX,90040
80514,CO -,CO,Denver,LAX,90040
80516,CO -,CO,Denver,LAX,90040
80521,CO -,CO,Denver,LAX,90040
80524,CO -,CO,Denver,LAX,90040
80525,CO -,CO,Denver,LAX,90040
80526,CO -,CO,Denver,LAX,90040
80528,CO -,CO,Denver,LAX,90040
80530,CO -,CO,Denver,LAX,90040
80534,CO -,CO,Denver,LAX,90040
80535,CO -,CO,Denver,LAX,90040
80537,CO -,CO,Denver,LAX,90040
80538,CO -,CO,Denver,LAX,90040
80542,CO -,CO,Denver,LAX,90040
80543,CO -,CO,Denver,LAX,90040
80547,CO -,CO,Denver,LAX,90040
80550,CO -,CO,Denver,LAX,90040
80601,CO -,CO,Denver,LAX,90040
80602,CO -,CO,Denver,LAX,90040
80603,CO -,CO,Denver,LAX,90040
80620,CO -,CO,Denver,LAX,90040
80631,CO -,CO,Denver,LAX,90040
80634,CO -,CO,Denver,LAX,90040
80640,CO -,CO,Denver,LAX,90040
80817,CO -,CO,Denver,LAX,90040
80840,CO -,CO,Denver,LAX,90040
80902,CO -,CO,Denver,LAX,90040
80903,CO -,CO,Denver,LAX,90040
80904,CO -,CO,Denver,LAX,90040
80905,CO -,CO,Denver,LAX,90040
80906,CO -,CO,Denver,LAX,90040
80907,CO -,CO,Denver,LAX,90040
80908,CO -,CO,Denver,LAX,90040
80909,CO -,CO,Denver,LAX,90040
80910,CO -,CO,Denver,LAX,90040
80911,CO -,CO,Denver,LAX,90040
80913,CO -,CO,Denver,LAX,90040
80914,CO -,CO,Denver,LAX,90040
80915,CO -,CO,Denver,LAX,90040
80916,CO -,CO,Denver,LAX,90040
80917,CO -,CO,Denver,LAX,90040
80918,CO -,CO,Denver,LAX,90040
80919,CO -,CO,Denver,LAX,90040
80920,CO -,CO,Denver,LAX,90040
80921,CO -,CO,Denver,LAX,90040
80922,CO -,CO,Denver,LAX,90040
80923,CO -,CO,Denver,LAX,90040
80924,CO -,CO,Denver,LAX,90040
80925,CO -,CO,Denver,LAX,90040
80927,CO -,CO,Denver,LAX,90040
80938,CO -,CO,Denver,LAX,90040
80939,CO -,CO,Denver,LAX,90040
80951,CO -,CO,Denver,LAX,90040
84003,UT -,UT,Salt Lake City,LAX,90040
84004,UT -,UT,Salt Lake City,LAX,90040
84005,UT -,UT,Salt Lake City,LAX,90040
84006,UT -,UT,Salt Lake City,LAX,90040
84010,UT -,UT,Salt Lake City,LAX,90040
84013,UT -,UT,Salt Lake City,LAX,90040
84014,UT -,UT,Salt Lake City,LAX,90040
84015,UT -,UT,Salt Lake City,LAX,90040
84020,UT -,UT,Salt Lake City,LAX,90040
84025,UT -,UT,Salt Lake City,LAX,90040
84037,UT -,UT,Salt Lake City,LAX,90040
84040,UT -,UT,Salt Lake City,LAX,90040
84041,UT -,UT,Salt Lake City,LAX,90040
84042,UT -,UT,Salt Lake City,LAX,90040
84043,UT -,UT,Salt Lake City,LAX,90040
84044,UT -,UT,Salt Lake City,LAX,90040
84045,UT -,UT,Salt Lake City,LAX,90040
84047,UT -,UT,Salt Lake City,LAX,90040
84054,UT -,UT,Salt Lake City,LAX,90040
84056,UT -,UT,Salt Lake City,LAX,90040
84057,UT -,UT,Salt Lake City,LAX,90040
84058,UT -,UT,Salt Lake City,LAX,90040
84062,UT -,UT,Salt Lake City,LAX,90040
84065,UT -,UT,Salt Lake City,LAX,90040
84067,UT -,UT,Salt Lake City,LAX,90040
84070,UT -,UT,Salt Lake City,LAX,90040
84075,UT -,UT,Salt Lake City,LAX,90040
84081,UT -,UT,Salt Lake City,LAX,90040
84084,UT -,UT,Salt Lake City,LAX,90040
84087,UT -,UT,Salt Lake City,LAX,90040
84088,UT -,UT,Salt Lake City,LAX,90040
84092,UT -,UT,Salt Lake City,LAX,90040
84093,UT -,UT,Salt Lake City,LAX,90040
84094,UT -,UT,Salt Lake City,LAX,90040
84095,UT -,UT,Salt Lake City,LAX,90040
84096,UT -,UT,Salt Lake City,LAX,90040
84097,UT -,UT,Salt Lake City,LAX,90040
84101,UT -,UT,Salt Lake City,LAX,90040
84102,UT -,UT,Salt Lake City,LAX,90040
84103,UT -,UT,Salt Lake City,LAX,90040
84104,UT -,UT,Salt Lake City,LAX,90040
84105,UT -,UT,Salt Lake City,LAX,90040
84106,UT -,UT,Salt Lake City,LAX,90040
84107,UT -,UT,Salt Lake City,LAX,90040
84108,UT -,UT,Salt Lake City,LAX,90040
84109,UT -,UT,Salt Lake City,LAX,90040
84111,UT -,UT,Salt Lake City,LAX,90040
84112,UT -,UT,Salt Lake City,LAX,90040
84113,UT -,UT,Salt Lake City,LAX,90040
84115,UT -,UT,Salt Lake City,LAX,90040
84116,UT -,UT,Salt Lake City,LAX,90040
84117,UT -,UT,Salt Lake City,LAX,90040
84118,UT -,UT,Salt Lake City,LAX,90040
84119,UT -,UT,Salt Lake City,LAX,90040
84120,UT -,UT,Salt Lake City,LAX,90040
84121,UT -,UT,Salt Lake City,LAX,90040
84123,UT -,UT,Salt Lake City,LAX,90040
84124,UT -,UT,Salt Lake City,LAX,90040
84128,UT -,UT,Salt Lake City,LAX,90040
84302,UT -,UT,Salt Lake City,LAX,90040
84315,UT -,UT,Salt Lake City,LAX,90040
84318,UT -,UT,Salt Lake City,LAX,90040
84319,UT -,UT,Salt Lake City,LAX,90040
84321,UT -,UT,Salt Lake City,LAX,90040
84326,UT -,UT,Salt Lake City,LAX,90040
84332,UT -,UT,Salt Lake City,LAX,90040
84335,UT -,UT,Salt Lake City,LAX,90040
84339,UT -,UT,Salt Lake City,LAX,90040
84340,UT -,UT,Salt Lake City,LAX,90040
84341,UT -,UT,Salt Lake City,LAX,90040
84401,UT -,UT,Salt Lake City,LAX,90040
84403,UT -,UT,Salt Lake City,LAX,90040
84404,UT -,UT,Salt Lake City,LAX,90040
84405,UT -,UT,Salt Lake City,LAX,90040
84414,UT -,UT,Salt Lake City,LAX,90040
84601,UT -,UT,Salt Lake City,LAX,90040
84604,UT -,UT,Salt Lake City,LAX,90040
84606,UT -,UT,Salt Lake City,LAX,90040
84651,UT -,UT,Salt Lake City,LAX,90040
84653,UT -,UT,Salt Lake City,LAX,90040
84655,UT -,UT,Salt Lake City,LAX,90040
84660,UT -,UT,Salt Lake City,LAX,90040
84663,UT -,UT,Salt Lake City,LAX,90040
84664,UT -,UT,Salt Lake City,LAX,90040
85003,AZ-CD03,AZ,Phoenix,LAX,90040
85004,AZ-CD04,AZ,Phoenix,LAX,90040
85006,AZ-CD05,AZ,Phoenix,LAX,90040
85007,AZ-CD02,AZ,Phoenix,LAX,90040
85008,AZ-CE02,AZ,Phoenix,LAX,90040
85009,AZ-CD01,AZ,Phoenix,LAX,90040
85012,AZ-CC05,AZ,Phoenix,LAX,90040
85013,AZ-CC04,AZ,Phoenix,LAX,90040
85014,AZ-CC06,AZ,Phoenix,LAX,90040
85015,AZ-CC03,AZ,Phoenix,LAX,90040
85016,AZ-CE01,AZ,Phoenix,LAX,90040
85017,AZ-CC02,AZ,Phoenix,LAX,90040
85018,AZ-CE03,AZ,Phoenix,LAX,90040
85019,AZ-CC01,AZ,Phoenix,LAX,90040
85020,AZ-CB04,AZ,Phoenix,LAX,90040
85021,AZ-CB03,AZ,Phoenix,LAX,90040
85022,AZ-BA04,AZ,Phoenix,LAX,90040
85023,AZ-BA03,AZ,Phoenix,LAX,90040
85024,AZ-BB02,AZ,Phoenix,LAX,90040
85027,AZ-BB01,AZ,Phoenix,LAX,90040
85028,AZ-BC01,AZ,Phoenix,LAX,90040
85029,AZ-CB01,AZ,Phoenix,LAX,90040
85031,AZ-CA05,AZ,Phoenix,LAX,90040
85032,AZ-BD01,AZ,Phoenix,LAX,90040
85033,AZ-CA06,AZ,Phoenix,LAX,90040
85034,AZ-CD06,AZ,Phoenix,LAX,90040
85035,AZ-CA07,AZ,Phoenix,LAX,90040
85037,AZ-AA07,AZ,Phoenix,LAX,90040
85040,AZ-DA01,AZ,Phoenix,LAX,90040
85041,AZ-DA03,AZ,Phoenix,LAX,90040
85042,AZ-DA02,AZ,Phoenix,LAX,90040
85043,AZ-CA08,AZ,Phoenix,LAX,90040
85044,AZ-DB01,AZ,Phoenix,LAX,90040
85045,AZ-DA05,AZ,Phoenix,LAX,90040
85048,AZ-DA06,AZ,Phoenix,LAX,90040
85050,AZ-BD02,AZ,Phoenix,LAX,90040
85051,AZ-CB02,AZ,Phoenix,LAX,90040
85053,AZ-BA02,AZ,Phoenix,LAX,90040
85054,AZ-BD03,AZ,Phoenix,LAX,90040
85083,AZ-BB04,AZ,Phoenix,LAX,90040
85085,AZ-BB03,AZ,Phoenix,LAX,90040
85086,AZ-BB05,AZ,Phoenix,LAX,90040
85087,AZ-BB06,AZ,Phoenix,LAX,90040
85119,AZ-DD01,AZ,Phoenix,LAX,90040
85120,AZ-DD02,AZ,Phoenix,LAX,90040
85140,AZ-EB01,AZ,Phoenix,LAX,90040
85142,AZ-EB02,AZ,Phoenix,LAX,90040
85201,AZ-DC01,AZ,Phoenix,LAX,90040
85202,AZ-DD08,AZ,Phoenix,LAX,90040
85203,AZ-DC03,AZ,Phoenix,LAX,90040
85204,AZ-DD06,AZ,Phoenix,LAX,90040
85205,AZ-DC05,AZ,Phoenix,LAX,90040
85206,AZ-DD05,AZ,Phoenix,LAX,90040
85207,AZ-DC06,AZ,Phoenix,LAX,90040
85208,AZ-DD03,AZ,Phoenix,LAX,90040
85209,AZ-DD04,AZ,Phoenix,LAX,90040
85210,AZ-DD07,AZ,Phoenix,LAX,90040
85212,AZ-EA07,AZ,Phoenix,LAX,90040
85213,AZ-DC04,AZ,Phoenix,LAX,90040
85215,AZ-DC07,AZ,Phoenix,LAX,90040
85224,AZ-EA01,AZ,Phoenix,LAX,90040
85225,AZ-EA02,AZ,Phoenix,LAX,90040
85226,AZ-DB02,AZ,Phoenix,LAX,90040
85233,AZ-EA03,AZ,Phoenix,LAX,90040
85234,AZ-EA04,AZ,Phoenix,LAX,90040
85248,AZ-EB07,AZ,Phoenix,LAX,90040
85249,AZ-EB06,AZ,Phoenix,LAX,90040
85250,AZ-BC03,AZ,Phoenix,LAX,90040
85251,AZ-CE04,AZ,Phoenix,LAX,90040
85253,AZ-BC02,AZ,Phoenix,LAX,90040
85254,AZ-BC08,AZ,Phoenix,LAX,90040
85255,AZ-BD04,AZ,Phoenix,LAX,90040
85256,AZ-DC02,AZ,Phoenix,LAX,90040
85257,AZ-CE05,AZ,Phoenix,LAX,90040
85258,AZ-BC04,AZ,Phoenix,LAX,90040
85259,AZ-BC06,AZ,Phoenix,LAX,90040
85260,AZ-BC07,AZ,Phoenix,LAX,90040
85262,AZ-BD05,AZ,Phoenix,LAX,90040
85266,AZ-BD06,AZ,Phoenix,LAX,90040
85268,AZ-BC05,AZ,Phoenix,LAX,90040
85281,AZ-CE06,AZ,Phoenix,LAX,90040
85282,AZ-DB05,AZ,Phoenix,LAX,90040
85283,AZ-DB04,AZ,Phoenix,LAX,90040
85284,AZ-DB03,AZ,Phoenix,LAX,90040
85286,AZ-EB05,AZ,Phoenix,LAX,90040
85295,AZ-EA06,AZ,Phoenix,LAX,90040
85296,AZ-EA05,AZ,Phoenix,LAX,90040
85297,AZ-EB04,AZ,Phoenix,LAX,90040
85298,AZ-EB03,AZ,Phoenix,LAX,90040
85301,AZ-CA03,AZ,Phoenix,LAX,90040
85302,AZ-CA02,AZ,Phoenix,LAX,90040
85303,AZ-CA04,AZ,Phoenix,LAX,90040
85304,AZ-CA01,AZ,Phoenix,LAX,90040
85305,AZ-AB01,AZ,Phoenix,LAX,90040
85306,AZ-BA01,AZ,Phoenix,LAX,90040
85307,AZ-AB02,AZ,Phoenix,LAX,90040
85308,AZ-BA05,AZ,Phoenix,LAX,90040
85309,AZ-AB06,AZ,Phoenix,LAX,90040
85310,AZ-BA06,AZ,Phoenix,LAX,90040
85323,AZ-AA05,AZ,Phoenix,LAX,90040
85326,AZ-AA02,AZ,Phoenix,LAX,90040
85331,AZ-BD08,AZ,Phoenix,LAX,90040
85335,AZ-AD05,AZ,Phoenix,LAX,90040
85338,AZ-AA04,AZ,Phoenix,LAX,90040
85339,AZ-DA04,AZ,Phoenix,LAX,90040
85340,AZ-AB05,AZ,Phoenix,LAX,90040
85343,AZ-AA03,AZ,Phoenix,LAX,90040
85345,AZ-AC01,AZ,Phoenix,LAX,90040
85351,AZ-AD07,AZ,Phoenix,LAX,90040
85353,AZ-AA06,AZ,Phoenix,LAX,90040
85355,AZ-AB07,AZ,Phoenix,LAX,90040
85363,AZ-AD06,AZ,Phoenix,LAX,90040
85373,AZ-AC05,AZ,Phoenix,LAX,90040
85374,AZ-AD02,AZ,Phoenix,LAX,90040
85375,AZ-AC06,AZ,Phoenix,LAX,90040
85377,AZ-BD07,AZ,Phoenix,LAX,90040
85379,AZ-AD04,AZ,Phoenix,LAX,90040
85381,AZ-AC02,AZ,Phoenix,LAX,90040
85382,AZ-AC03,AZ,Phoenix,LAX,90040
85383,AZ-AC04,AZ,Phoenix,LAX,90040
85387,AZ-AD01,AZ,Phoenix,LAX,90040
85388,AZ-AD03,AZ,Phoenix,LAX,90040
85392,AZ-AB03,AZ,Phoenix,LAX,90040
85395,AZ-AB04,AZ,Phoenix,LAX,90040
85396,AZ-AA01,AZ,Phoenix,LAX,90040
88008,TX-PA08,TX,EL PASO,DFW,76051
88063,TX-PA07,TX,EL PASO,DFW,76051
89002,NV-AC11,NV,Las Vegas,LAX,90040
89011,NV-AC09,NV,Las Vegas,LAX,90040
89012,NV-AC12,NV,Las Vegas,LAX,90040
89014,NV-AC08,NV,Las Vegas,LAX,90040
89015,NV-AC10,NV,Las Vegas,LAX,90040
89030,NV-AD07,NV,Las Vegas,LAX,90040
89031,NV-AD12,NV,Las Vegas,LAX,90040
89032,NV-AD13,NV,Las Vegas,LAX,90040
89044,NV-AC17,NV,Las Vegas,LAX,90040
89052,NV-AC14,NV,Las Vegas,LAX,90040
89074,NV-AC13,NV,Las Vegas,LAX,90040
89081,NV-AD08,NV,Las Vegas,LAX,90040
89084,NV-AD10,NV,Las Vegas,LAX,90040
89085,NV-AD11,NV,Las Vegas,LAX,90040
89086,NV-AD09,NV,Las Vegas,LAX,90040
89101,NV-AD02,NV,Las Vegas,LAX,90040
89102,NV-AB01,NV,Las Vegas,LAX,90040
89103,NV-AB02,NV,Las Vegas,LAX,90040
89104,NV-AC01,NV,Las Vegas,LAX,90040
89106,NV-AD01,NV,Las Vegas,LAX,90040
89107,NV-AA01,NV,Las Vegas,LAX,90040
89108,NV-AA08,NV,Las Vegas,LAX,90040
89109,NV-AC02,NV,Las Vegas,LAX,90040
89110,NV-AD03,NV,Las Vegas,LAX,90040
89113,NV-AB10,NV,Las Vegas,LAX,90040
89115,NV-AD06,NV,Las Vegas,LAX,90040
89117,NV-AB04,NV,Las Vegas,LAX,90040
89118,NV-AB11,NV,Las Vegas,LAX,90040
89119,NV-AC04,NV,Las Vegas,LAX,90040
89120,NV-AC05,NV,Las Vegas,LAX,90040
89121,NV-AC06,NV,Las Vegas,LAX,90040
89122,NV-AC07,NV,Las Vegas,LAX,90040
89123,NV-AC15,NV,Las Vegas,LAX,90040
89124,NV-AA05,NV,Las Vegas,LAX,90040
89128,NV-AA07,NV,Las Vegas,LAX,90040
89129,NV-AA09,NV,Las Vegas,LAX,90040
89130,NV-AA13,NV,Las Vegas,LAX,90040
89131,NV-AA14,NV,Las Vegas,LAX,90040
89134,NV-AA06,NV,Las Vegas,LAX,90040
89135,NV-AB06,NV,Las Vegas,LAX,90040
89138,NV-AA04,NV,Las Vegas,LAX,90040
89139,NV-AB12,NV,Las Vegas,LAX,90040
89141,NV-AB13,NV,Las Vegas,LAX,90040
89142,NV-AC07,NV,Las Vegas,LAX,90040
89143,NV-AA12,NV,Las Vegas,LAX,90040
89144,NV-AA03,NV,Las Vegas,LAX,90040
89145,NV-AA02,NV,Las Vegas,LAX,90040
89146,NV-AB03,NV,Las Vegas,LAX,90040
89147,NV-AB05,NV,Las Vegas,LAX,90040
89148,NV-AB07,NV,Las Vegas,LAX,90040
89149,NV-AA10,NV,Las Vegas,LAX,90040
89156,NV-AD04,NV,Las Vegas,LAX,90040
89161,NV-AB08,NV,Las Vegas,LAX,90040
89166,NV-AA11,NV,Las Vegas,LAX,90040
89169,NV-AC03,NV,Las Vegas,LAX,90040
89178,NV-AB09,NV,Las Vegas,LAX,90040
89179,NV-AB14,NV,Las Vegas,LAX,90040
89183,NV-AC16,NV,Las Vegas,LAX,90040
89191,NV-AD05,NV,Las Vegas,LAX,90040
90001,CA-CA03,CA,Los Angeles,LAX,90040
90002,CA-CA04,CA,Los Angeles,LAX,90040
90003,CA-CA02,CA,Los Angeles,LAX,90040
90004,CA-EG02,CA,Los Angeles,LAX,90040
90005,CA-EG05,CA,Los Angeles,LAX,90040
90006,CA-EG08,CA,Los Angeles,LAX,90040
90007,CA-EA01,CA,Los Angeles,LAX,90040
90008,CA-EA07,CA,Los Angeles,LAX,90040
90009,CA-DD08,CA,Los Angeles,LAX,90040
90010,CA-EG04,CA,Los Angeles,LAX,90040
90011,CA-CA01,CA,Los Angeles,LAX,90040
90012,CA-DTLA,CA,Los Angeles,LAX,90040
90013,CA-DTLA,CA,Los Angeles,LAX,90040
90014,CA-DTLA,CA,Los Angeles,LAX,90040
90015,CA-DTLA,CA,Los Angeles,LAX,90040
90016,CA-EA06,CA,Los Angeles,LAX,90040
90017,CA-DTLA,CA,Los Angeles,LAX,90040
90018,CA-EA04,CA,Los Angeles,LAX,90040
90019,CA-EG07,CA,Los Angeles,LAX,90040
90020,CA-EG03,CA,Los Angeles,LAX,90040
90021,CA-DTLA,CA,Los Angeles,LAX,90040
90022,CA-CC06,CA,Los Angeles,LAX,90040
90023,CA-CC05,CA,Los Angeles,LAX,90040
90024,CA-ED03,CA,Los Angeles,LAX,90040
90025,CA-ED07,CA,Los Angeles,LAX,90040
90026,CA-EG09,CA,Los Angeles,LAX,90040
90027,CA-EF06,CA,Los Angeles,LAX,90040
90028,CA-EF04,CA,Los Angeles,LAX,90040
90029,CA-EF07,CA,Los Angeles,LAX,90040
90030,CA-DTLA,CA,Los Angeles,LAX,90040
90031,CA-CC01,CA,Los Angeles,LAX,90040
90032,CA-CC02,CA,Los Angeles,LAX,90040
90033,CA-CC03,CA,Los Angeles,LAX,90040
90034,CA-EB01,CA,Los Angeles,LAX,90040
90035,CA-EE05,CA,Los Angeles,LAX,90040
90036,CA-EG01,CA,Los Angeles,LAX,90040
90037,CA-EA03,CA,Los Angeles,LAX,90040
90038,CA-EF05,CA,Los Angeles,LAX,90040
90039,CA-BA04,CA,Los Angeles,LAX,90040
90040,CA-CC07,CA,Los Angeles,LAX,90040
90041,CA-BA01,CA,Los Angeles,LAX,90040
90042,CA-BA02,CA,Los Angeles,LAX,90040
90043,CA-EA08,CA,Los Angeles,LAX,90040
90044,CA-DD01,CA,Los Angeles,LAX,90040
90045,CA-DD08,CA,Los Angeles,LAX,90040
90046,CA-EF02,CA,Los Angeles,LAX,90040
90047,CA-DD02,CA,Los Angeles,LAX,90040
90048,CA-EE04,CA,Los Angeles,LAX,90040
90049,CA-ED05,CA,Los Angeles,LAX,90040
90050,CA-DTLA,CA,Los Angeles,LAX,90040
90051,CA-CA04,CA,Los Angeles,LAX,90040
90052,CA-CA03,CA,Los Angeles,LAX,90040
90053,CA-DTLA,CA,Los Angeles,LAX,90040
90054,CA-DTLA,CA,Los Angeles,LAX,90040
90055,CA-DTLA,CA,Los Angeles,LAX,90040
90056,CA-EA09,CA,Los Angeles,LAX,90040
90057,CA-EG06,CA,Los Angeles,LAX,90040
90058,CA-CB01,CA,Los Angeles,LAX,90040
90059,CA-DB01,CA,Los Angeles,LAX,90040
90060,CA-DTLA,CA,Los Angeles,LAX,90040
90061,CA-DB02,CA,Los Angeles,LAX,90040
90062,CA-EA05,CA,Los Angeles,LAX,90040
90063,CA-CC04,CA,Los Angeles,LAX,90040
90064,CA-EB02,CA,Los Angeles,LAX,90040
90065,CA-BA03,CA,Los Angeles,LAX,90040
90066,CA-EB05,CA,Los Angeles,LAX,90040
90067,CA-ED04,CA,Los Angeles,LAX,90040
90068,CA-EF03,CA,Los Angeles,LAX,90040
90069,CA-EF01,CA,Los Angeles,LAX,90040
90070,CA-EG05,CA,Los Angeles,LAX,90040
90071,CA-DTLA,CA,Los Angeles,LAX,90040
90072,CA-EF04,CA,Los Angeles,LAX,90040
90073,CA-ED06,CA,Los Angeles,LAX,90040
90074,CA-DTLA,CA,Los Angeles,LAX,90040
90075,CA-EG05,CA,Los Angeles,LAX,90040
90076,CA-EG05,CA,Los Angeles,LAX,90040
90077,CA-ED01,CA,Los Angeles,LAX,90040
90078,CA-EF04,CA,Los Angeles,LAX,90040
90079,CA-DTLA,CA,Los Angeles,LAX,90040
90080,CA-DD08,CA,Los Angeles,LAX,90040
90081,CA-DTLA,CA,Los Angeles,LAX,90040
90082,CA-EA03,CA,Los Angeles,LAX,90040
90083,CA-DD08,CA,Los Angeles,LAX,90040
90084,CA-DTLA,CA,Los Angeles,LAX,90040
90086,CA-DTLA,CA,Los Angeles,LAX,90040
90087,CA-DTLA,CA,Los Angeles,LAX,90040
90088,CA-DTLA,CA,Los Angeles,LAX,90040
90089,CA-EA02,CA,Los Angeles,LAX,90040
90090,CA-DTLA,CA,Los Angeles,LAX,90040
90091,CA-CC07,CA,Los Angeles,LAX,90040
90093,CA-EF04,CA,Los Angeles,LAX,90040
90094,CA-EB06,CA,Los Angeles,LAX,90040
90095,CA-ED02,CA,Los Angeles,LAX,90040
90096,CA-CB04,CA,Los Angeles,LAX,90040
90099,CA-DTLA,CA,Los Angeles,LAX,90040
90189,CA-DTLA,CA,Los Angeles,LAX,90040
90201,CA-CB04,CA,Los Angeles,LAX,90040
90202,CA-CB04,CA,Los Angeles,LAX,90040
90209,CA-EE01,CA,Los Angeles,LAX,90040
90210,CA-EE01,CA,Los Angeles,LAX,90040
90211,CA-EE03,CA,Los Angeles,LAX,90040
90212,CA-EE02,CA,Los Angeles,LAX,90040
90213,CA-EE01,CA,Los Angeles,LAX,90040
90220,CA-DB04,CA,Los Angeles,LAX,90040
90221,CA-DB05,CA,Los Angeles,LAX,90040
90222,CA-DB03,CA,Los Angeles,LAX,90040
90223,CA-DB03,CA,Los Angeles,LAX,90040
90224,CA-DB03,CA,Los Angeles,LAX,90040
90230,CA-EB04,CA,Los Angeles,LAX,90040
90231,CA-EB03,CA,Los Angeles,LAX,90040
90232,CA-EB03,CA,Los Angeles,LAX,90040
90233,CA-EB03,CA,Los Angeles,LAX,90040
90239,CA-CD01,CA,Los Angeles,LAX,90040
90240,CA-CD01,CA,Los Angeles,LAX,90040
90241,CA-CD02,CA,Los Angeles,LAX,90040
90242,CA-CD03,CA,Los Angeles,LAX,90040
90245,CA-DC11,CA,Los Angeles,LAX,90040
90247,CA-DB07,CA,Los Angeles,LAX,90040
90248,CA-DB06,CA,Los Angeles,LAX,90040
90249,CA-DB08,CA,Los Angeles,LAX,90040
90250,CA-DC12,CA,Los Angeles,LAX,90040
90251,CA-DC12,CA,Los Angeles,LAX,90040
90254,CA-DC09,CA,Los Angeles,LAX,90040
90255,CA-CB02,CA,Los Angeles,LAX,90040
90260,CA-DC13,CA,Los Angeles,LAX,90040
90261,CA-DC12,CA,Los Angeles,LAX,90040
90262,CA-CB05,CA,Los Angeles,LAX,90040
90266,CA-DC10,CA,Los Angeles,LAX,90040
90267,CA-DC10,CA,Los Angeles,LAX,90040
90270,CA-CB03,CA,Los Angeles,LAX,90040
90272,CA-EC01,CA,Los Angeles,LAX,90040
90274,CA-DA10,CA,Los Angeles,LAX,90040
90275,CA-DA09,CA,Los Angeles,LAX,90040
90277,CA-DC07,CA,Los Angeles,LAX,90040
90278,CA-DC08,CA,Los Angeles,LAX,90040
90280,CA-CB06,CA,Los Angeles,LAX,90040
90290,CA-BH10,CA,Los Angeles,LAX,90040
90291,CA-EC07,CA,Los Angeles,LAX,90040
90292,CA-EC08,CA,Los Angeles,LAX,90040
90293,CA-DD09,CA,Los Angeles,LAX,90040
90294,CA-EC07,CA,Los Angeles,LAX,90040
90295,CA-EC07,CA,Los Angeles,LAX,90040
90296,CA-DD09,CA,Los Angeles,LAX,90040
90301,CA-DD06,CA,Los Angeles,LAX,90040
90302,CA-DD05,CA,Los Angeles,LAX,90040
90303,CA-DD04,CA,Los Angeles,LAX,90040
90304,CA-DD07,CA,Los Angeles,LAX,90040
90305,CA-DD03,CA,Los Angeles,LAX,90040
90306,CA-DD03,CA,Los Angeles,LAX,90040
90307,CA-DD03,CA,Los Angeles,LAX,90040
90308,CA-DD03,CA,Los Angeles,LAX,90040
90309,CA-DD03,CA,Los Angeles,LAX,90040
90310,CA-DD03,CA,Los Angeles,LAX,90040
90311,CA-DD03,CA,Los Angeles,LAX,90040
90312,CA-DD03,CA,Los Angeles,LAX,90040
90401,CA-EC05,CA,Los Angeles,LAX,90040
90402,CA-EC02,CA,Los Angeles,LAX,90040
90403,CA-EC03,CA,Los Angeles,LAX,90040
90404,CA-EC04,CA,Los Angeles,LAX,90040
90405,CA-EC06,CA,Los Angeles,LAX,90040
90406,CA-EC02,CA,Los Angeles,LAX,90040
90407,CA-EC02,CA,Los Angeles,LAX,90040
90408,CA-EC02,CA,Los Angeles,LAX,90040
90409,CA-EC02,CA,Los Angeles,LAX,90040
90410,CA-EC02,CA,Los Angeles,LAX,90040
90411,CA-EC02,CA,Los Angeles,LAX,90040
90501,CA-DC02,CA,Los Angeles,LAX,90040
90502,CA-DC01,CA,Los Angeles,LAX,90040
90503,CA-DC05,CA,Los Angeles,LAX,90040
90504,CA-DC03,CA,Los Angeles,LAX,90040
90505,CA-DC06,CA,Los Angeles,LAX,90040
90506,CA-DC04,CA,Los Angeles,LAX,90040
90507,CA-DC04,CA,Los Angeles,LAX,90040
90508,CA-DC04,CA,Los Angeles,LAX,90040
90509,CA-DC04,CA,Los Angeles,LAX,90040
90510,CA-DC04,CA,Los Angeles,LAX,90040
90601,CA-CE01,CA,Los Angeles,LAX,90040
90602,CA-CE03,CA,Los Angeles,LAX,90040
90603,CA-CE04,CA,Los Angeles,LAX,90040
90604,CA-CE05,CA,Los Angeles,LAX,90040
90605,CA-CE06,CA,Los Angeles,LAX,90040
90606,CA-CE02,CA,Los Angeles,LAX,90040
90607,CA-CE02,CA,Los Angeles,LAX,90040
90608,CA-CE02,CA,Los Angeles,LAX,90040
90609,CA-CE02,CA,Los Angeles,LAX,90040
90610,CA-CE02,CA,Los Angeles,LAX,90040
90620,CA-FA01,CA,Los Angeles,LAX,90040
90621,CA-FA02,CA,Los Angeles,LAX,90040
90622,CA-FA02,CA,Los Angeles,LAX,90040
90623,CA-FA05,CA,Los Angeles,LAX,90040
90624,CA-FA02,CA,Los Angeles,LAX,90040
90630,CA-FA06,CA,Los Angeles,LAX,90040
90631,CA-FB01,CA,Los Angeles,LAX,90040
90632,CA-FB01,CA,Los Angeles,LAX,90040
90633,CA-FB01,CA,Los Angeles,LAX,90040
90637,CA-CE09,CA,Los Angeles,LAX,90040
90638,CA-CE09,CA,Los Angeles,LAX,90040
90639,CA-CE09,CA,Los Angeles,LAX,90040
90640,CA-AD06,CA,Los Angeles,LAX,90040
90650,CA-CE07,CA,Los Angeles,LAX,90040
90651,CA-CE07,CA,Los Angeles,LAX,90040
90652,CA-CE07,CA,Los Angeles,LAX,90040
90660,CA-AD07,CA,Los Angeles,LAX,90040
90661,CA-AD07,CA,Los Angeles,LAX,90040
90662,CA-AD07,CA,Los Angeles,LAX,90040
90670,CA-CE08,CA,Los Angeles,LAX,90040
90671,CA-CE08,CA,Los Angeles,LAX,90040
90680,CA-FE01,CA,Los Angeles,LAX,90040
90701,CA-FA03,CA,Los Angeles,LAX,90040
90702,CA-FA03,CA,Los Angeles,LAX,90040
90703,CA-FA04,CA,Los Angeles,LAX,90040
90706,CA-CD05,CA,Los Angeles,LAX,90040
90707,CA-CD05,CA,Los Angeles,LAX,90040
90710,CA-DA05,CA,Los Angeles,LAX,90040
90711,CA-CD06,CA,Los Angeles,LAX,90040
90712,CA-CD06,CA,Los Angeles,LAX,90040
90713,CA-CD07,CA,Los Angeles,LAX,90040
90714,CA-CD07,CA,Los Angeles,LAX,90040
90715,CA-CD08,CA,Los Angeles,LAX,90040
90716,CA-CD09,CA,Los Angeles,LAX,90040
90717,CA-DA06,CA,Los Angeles,LAX,90040
90720,CA-FA07,CA,Los Angeles,LAX,90040
90721,CA-FA07,CA,Los Angeles,LAX,90040
90723,CA-CD04,CA,Los Angeles,LAX,90040
90731,CA-DA07,CA,Los Angeles,LAX,90040
90732,CA-DA08,CA,Los Angeles,LAX,90040
90733,CA-DA08,CA,Los Angeles,LAX,90040
90734,CA-DA08,CA,Los Angeles,LAX,90040
90740,CA-FF01,CA,Los Angeles,LAX,90040
90742,CA-FF02,CA,Los Angeles,LAX,90040
90743,CA-FF03,CA,Los Angeles,LAX,90040
90744,CA-DA04,CA,Los Angeles,LAX,90040
90745,CA-DA03,CA,Los Angeles,LAX,90040
90746,CA-DA02,CA,Los Angeles,LAX,90040
90747,CA-DA01,CA,Los Angeles,LAX,90040
90748,CA-DA04,CA,Los Angeles,LAX,90040
90749,CA-DA01,CA,Los Angeles,LAX,90040
90755,CA-CF10,CA,Los Angeles,LAX,90040
90801,CA-CF01,CA,Los Angeles,LAX,90040
90802,CA-CF13,CA,Los Angeles,LAX,90040
90803,CA-CF03,CA,Los Angeles,LAX,90040
90804,CA-CF04,CA,Los Angeles,LAX,90040
90805,CA-CF06,CA,Los Angeles,LAX,90040
90806,CA-CF09,CA,Los Angeles,LAX,90040
90807,CA-CF07,CA,Los Angeles,LAX,90040
90808,CA-CF01,CA,Los Angeles,LAX,90040
90809,CA-CF01,CA,Los Angeles,LAX,90040
90810,CA-CF08,CA,Los Angeles,LAX,90040
90813,CA-CF11,CA,Los Angeles,LAX,90040
90814,CA-CF05,CA,Los Angeles,LAX,90040
90815,CA-CF02,CA,Los Angeles,LAX,90040
90822,CA-CF03,CA,Los Angeles,LAX,90040
90831,CA-CF12,CA,Los Angeles,LAX,90040
90832,CA-CF12,CA,Los Angeles,LAX,90040
90833,CA-CF12,CA,Los Angeles,LAX,90040
90834,CA-CF12,CA,Los Angeles,LAX,90040
90835,CA-CF12,CA,Los Angeles,LAX,90040
90840,CA-CF12,CA,Los Angeles,LAX,90040
90842,CA-CF12,CA,Los Angeles,LAX,90040
90844,CA-CF12,CA,Los Angeles,LAX,90040
90846,CA-CF12,CA,Los Angeles,LAX,90040
90847,CA-CF12,CA,Los Angeles,LAX,90040
90848,CA-CF12,CA,Los Angeles,LAX,90040
90853,CA-CF12,CA,Los Angeles,LAX,90040
90895,CA-CF12,CA,Los Angeles,LAX,90040
90899,CA-CF12,CA,Los Angeles,LAX,90040
91001,CA-AA01,CA,Los Angeles,LAX,90040
91003,CA-AA01,CA,Los Angeles,LAX,90040
91006,CA-AC02,CA,Los Angeles,LAX,90040
91007,CA-AC03,CA,Los Angeles,LAX,90040
91008,CA-AC05,CA,Los Angeles,LAX,90040
91009,CA-AC05,CA,Los Angeles,LAX,90040
91010,CA-AC06,CA,Los Angeles,LAX,90040
91011,CA-BC01,CA,Los Angeles,LAX,90040
91012,CA-BC01,CA,Los Angeles,LAX,90040
91016,CA-AC04,CA,Los Angeles,LAX,90040
91017,CA-AC04,CA,Los Angeles,LAX,90040
91020,CA-BC02,CA,Los Angeles,LAX,90040
91021,CA-BC02,CA,Los Angeles,LAX,90040
91024,CA-AC01,CA,Los Angeles,LAX,90040
91025,CA-AC01,CA,Los Angeles,LAX,90040
91030,CA-AA08,CA,Los Angeles,LAX,90040
91031,CA-AA08,CA,Los Angeles,LAX,90040
91040,CA-BC06,CA,Los Angeles,LAX,90040
91041,CA-BC06,CA,Los Angeles,LAX,90040
91042,CA-BC05,CA,Los Angeles,LAX,90040
91043,CA-BC05,CA,Los Angeles,LAX,90040
91046,CA-BC03,CA,Los Angeles,LAX,90040
91066,CA-AC02,CA,Los Angeles,LAX,90040
91077,CA-AC03,CA,Los Angeles,LAX,90040
91101,CA-AA05,CA,Los Angeles,LAX,90040
91102,CA-AA02,CA,Los Angeles,LAX,90040
91103,CA-AA02,CA,Los Angeles,LAX,90040
91104,CA-AA04,CA,Los Angeles,LAX,90040
91105,CA-AA03,CA,Los Angeles,LAX,90040
91106,CA-AA06,CA,Los Angeles,LAX,90040
91107,CA-AA07,CA,Los Angeles,LAX,90040
91108,CA-AA09,CA,Los Angeles,LAX,90040
91109,CA-AA02,CA,Los Angeles,LAX,90040
91110,CA-AA02,CA,Los Angeles,LAX,90040
91114,CA-AA02,CA,Los Angeles,LAX,90040
91115,CA-AA02,CA,Los Angeles,LAX,90040
91116,CA-AA02,CA,Los Angeles,LAX,90040
91117,CA-AA02,CA,Los Angeles,LAX,90040
91118,CA-AA02,CA,Los Angeles,LAX,90040
91121,CA-AA02,CA,Los Angeles,LAX,90040
91123,CA-AA02,CA,Los Angeles,LAX,90040
91124,CA-AA02,CA,Los Angeles,LAX,90040
91125,CA-AA02,CA,Los Angeles,LAX,90040
91126,CA-AA02,CA,Los Angeles,LAX,90040
91129,CA-AA02,CA,Los Angeles,LAX,90040
91182,CA-AA02,CA,Los Angeles,LAX,90040
91184,CA-AA02,CA,Los Angeles,LAX,90040
91185,CA-AA02,CA,Los Angeles,LAX,90040
91188,CA-AA02,CA,Los Angeles,LAX,90040
91189,CA-AA02,CA,Los Angeles,LAX,90040
91199,CA-AA02,CA,Los Angeles,LAX,90040
91201,CA-BB01,CA,Los Angeles,LAX,90040
91202,CA-BB02,CA,Los Angeles,LAX,90040
91203,CA-BB03,CA,Los Angeles,LAX,90040
91204,CA-BB04,CA,Los Angeles,LAX,90040
91205,CA-BB05,CA,Los Angeles,LAX,90040
91206,CA-BB06,CA,Los Angeles,LAX,90040
91207,CA-BB07,CA,Los Angeles,LAX,90040
91208,CA-BB09,CA,Los Angeles,LAX,90040
91209,CA-BB09,CA,Los Angeles,LAX,90040
91210,CA-BB08,CA,Los Angeles,LAX,90040
91214,CA-BC04,CA,Los Angeles,LAX,90040
91221,CA-BB01,CA,Los Angeles,LAX,90040
91222,CA-BB01,CA,Los Angeles,LAX,90040
91224,CA-BB01,CA,Los Angeles,LAX,90040
91225,CA-BB01,CA,Los Angeles,LAX,90040
91226,CA-BB01,CA,Los Angeles,LAX,90040
91301,CA-BL02,CA,Los Angeles,LAX,90040
91302,CA-BL01,CA,Los Angeles,LAX,90040
91303,CA-BH05,CA,Los Angeles,LAX,90040
91304,CA-BH04,CA,Los Angeles,LAX,90040
91305,CA-BH04,CA,Los Angeles,LAX,90040
91306,CA-BH03,CA,Los Angeles,LAX,90040
91307,CA-BH06,CA,Los Angeles,LAX,90040
91308,CA-BH06,CA,Los Angeles,LAX,90040
91309,CA-BH04,CA,Los Angeles,LAX,90040
91310,CA-BJ01,CA,Los Angeles,LAX,90040
91311,CA-BI08,CA,Los Angeles,LAX,90040
91313,CA-BI08,CA,Los Angeles,LAX,90040
91316,CA-BG09,CA,Los Angeles,LAX,90040
91319,CA-BL07,CA,Los Angeles,LAX,90040
91320,CA-BL07,CA,Los Angeles,LAX,90040
91321,CA-BJ01,CA,Los Angeles,LAX,90040
91322,CA-BJ01,CA,Los Angeles,LAX,90040
91324,CA-BI07,CA,Los Angeles,LAX,90040
91325,CA-BI05,CA,Los Angeles,LAX,90040
91326,CA-BI04,CA,Los Angeles,LAX,90040
91327,CA-BI06,CA,Los Angeles,LAX,90040
91328,CA-BI06,CA,Los Angeles,LAX,90040
91329,CA-BI06,CA,Los Angeles,LAX,90040
91330,CA-BI06,CA,Los Angeles,LAX,90040
91331,CA-BE03,CA,Los Angeles,LAX,90040
91333,CA-BE03,CA,Los Angeles,LAX,90040
91334,CA-BE03,CA,Los Angeles,LAX,90040
91335,CA-BH01,CA,Los Angeles,LAX,90040
91337,CA-BH01,CA,Los Angeles,LAX,90040
91340,CA-BE02,CA,Los Angeles,LAX,90040
91341,CA-BE02,CA,Los Angeles,LAX,90040
91342,CA-BE01,CA,Los Angeles,LAX,90040
91343,CA-BI03,CA,Los Angeles,LAX,90040
91344,CA-BI02,CA,Los Angeles,LAX,90040
91345,CA-BI01,CA,Los Angeles,LAX,90040
91346,CA-BI01,CA,Los Angeles,LAX,90040
91350,CA-BJ06,CA,Los Angeles,LAX,90040
91351,CA-BJ07,CA,Los Angeles,LAX,90040
91352,CA-BE04,CA,Los Angeles,LAX,90040
91353,CA-BE04,CA,Los Angeles,LAX,90040
91354,CA-BJ03,CA,Los Angeles,LAX,90040
91355,CA-BJ04,CA,Los Angeles,LAX,90040
91356,CA-BH02,CA,Los Angeles,LAX,90040
91357,CA-BH02,CA,Los Angeles,LAX,90040
91358,CA-BL05,CA,Los Angeles,LAX,90040
91359,CA-BL06,CA,Los Angeles,LAX,90040
91360,CA-BL05,CA,Los Angeles,LAX,90040
91361,CA-BL06,CA,Los Angeles,LAX,90040
91362,CA-BL04,CA,Los Angeles,LAX,90040
91364,CA-BH09,CA,Los Angeles,LAX,90040
91365,CA-BH09,CA,Los Angeles,LAX,90040
91367,CA-BH07,CA,Los Angeles,LAX,90040
91371,CA-BH08,CA,Los Angeles,LAX,90040
91372,CA-BL01,CA,Los Angeles,LAX,90040
91376,CA-BL02,CA,Los Angeles,LAX,90040
91377,CA-BL03,CA,Los Angeles,LAX,90040
91380,CA-BJ05,CA,Los Angeles,LAX,90040
91381,CA-BJ02,CA,Los Angeles,LAX,90040
91382,CA-BJ01,CA,Los Angeles,LAX,90040
91384,CA-BJ01,CA,Los Angeles,LAX,90040
91385,CA-BJ04,CA,Los Angeles,LAX,90040
91386,CA-BJ07,CA,Los Angeles,LAX,90040
91387,CA-BJ08,CA,Los Angeles,LAX,90040
91390,CA-BJ05,CA,Los Angeles,LAX,90040
91392,CA-BE01,CA,Los Angeles,LAX,90040
91393,CA-BI03,CA,Los Angeles,LAX,90040
91394,CA-BI02,CA,Los Angeles,LAX,90040
91395,CA-BI01,CA,Los Angeles,LAX,90040
91396,CA-BH03,CA,Los Angeles,LAX,90040
91401,CA-BG04,CA,Los Angeles,LAX,90040
91402,CA-BG01,CA,Los Angeles,LAX,90040
91403,CA-BG07,CA,Los Angeles,LAX,90040
91404,CA-BG04,CA,Los Angeles,LAX,90040
91405,CA-BG02,CA,Los Angeles,LAX,90040
91406,CA-BG03,CA,Los Angeles,LAX,90040
91407,CA-BG04,CA,Los Angeles,LAX,90040
91408,CA-BG04,CA,Los Angeles,LAX,90040
91409,CA-BG04,CA,Los Angeles,LAX,90040
91410,CA-BG04,CA,Los Angeles,LAX,90040
91411,CA-BG05,CA,Los Angeles,LAX,90040
91412,CA-BG01,CA,Los Angeles,LAX,90040
91413,CA-BG05,CA,Los Angeles,LAX,90040
91416,CA-BG09,CA,Los Angeles,LAX,90040
91423,CA-BG06,CA,Los Angeles,LAX,90040
91426,CA-BG09,CA,Los Angeles,LAX,90040
91436,CA-BG08,CA,Los Angeles,LAX,90040
91470,CA-BG04,CA,Los Angeles,LAX,90040
91482,CA-BG04,CA,Los Angeles,LAX,90040
91495,CA-BG05,CA,Los Angeles,LAX,90040
91496,CA-BG04,CA,Los Angeles,LAX,90040
91499,CA-BG04,CA,Los Angeles,LAX,90040
91501,CA-BD01,CA,Los Angeles,LAX,90040
91502,CA-BD02,CA,Los Angeles,LAX,90040
91503,CA-BD02,CA,Los Angeles,LAX,90040
91504,CA-BD03,CA,Los Angeles,LAX,90040
91505,CA-BD05,CA,Los Angeles,LAX,90040
91506,CA-BD04,CA,Los Angeles,LAX,90040
91507,CA-BD02,CA,Los Angeles,LAX,90040
91508,CA-BD02,CA,Los Angeles,LAX,90040
91510,CA-BD02,CA,Los Angeles,LAX,90040
91521,CA-BD04,CA,Los Angeles,LAX,90040
91522,CA-BD04,CA,Los Angeles,LAX,90040
91523,CA-BD04,CA,Los Angeles,LAX,90040
91526,CA-BD02,CA,Los Angeles,LAX,90040
91601,CA-BF05,CA,Los Angeles,LAX,90040
91602,CA-BF06,CA,Los Angeles,LAX,90040
91603,CA-BF05,CA,Los Angeles,LAX,90040
91604,CA-BF02,CA,Los Angeles,LAX,90040
91605,CA-BF03,CA,Los Angeles,LAX,90040
91606,CA-BF04,CA,Los Angeles,LAX,90040
91607,CA-BF01,CA,Los Angeles,LAX,90040
91608,CA-BF07,CA,Los Angeles,LAX,90040
91609,CA-BF05,CA,Los Angeles,LAX,90040
91610,CA-BF05,CA,Los Angeles,LAX,90040
91611,CA-BF05,CA,Los Angeles,LAX,90040
91612,CA-BF05,CA,Los Angeles,LAX,90040
91614,CA-BF02,CA,Los Angeles,LAX,90040
91615,CA-BF05,CA,Los Angeles,LAX,90040
91616,CA-BF05,CA,Los Angeles,LAX,90040
91617,CA-BF01,CA,Los Angeles,LAX,90040
91618,CA-BF06,CA,Los Angeles,LAX,90040
91701,CA-HB03,CA,Los Angeles,LAX,90040
91702,CA-AF01,CA,Los Angeles,LAX,90040
91706,CA-AE01,CA,Los Angeles,LAX,90040
91708,CA-HA03,CA,Los Angeles,LAX,90040
91709,CA-HA01,CA,Los Angeles,LAX,90040
91710,CA-HA02,CA,Los Angeles,LAX,90040
91711,CA-AH06,CA,Los Angeles,LAX,90040
91714,CA-AG01,CA,Los Angeles,LAX,90040
91715,CA-AG01,CA,Los Angeles,LAX,90040
91716,CA-AG01,CA,Los Angeles,LAX,90040
91722,CA-AF04,CA,Los Angeles,LAX,90040
91723,CA-AF05,CA,Los Angeles,LAX,90040
91724,CA-AF06,CA,Los Angeles,LAX,90040
91729,CA-HB06,CA,Los Angeles,LAX,90040
91730,CA-HB06,CA,Los Angeles,LAX,90040
91731,CA-AD04,CA,Los Angeles,LAX,90040
91732,CA-AD03,CA,Los Angeles,LAX,90040
91733,CA-AD04,CA,Los Angeles,LAX,90040
91734,CA-AD04,CA,Los Angeles,LAX,90040
91735,CA-AD04,CA,Los Angeles,LAX,90040
91737,CA-HB04,CA,Los Angeles,LAX,90040
91739,CA-HB05,CA,Los Angeles,LAX,90040
91740,CA-AF03,CA,Los Angeles,LAX,90040
91741,CA-AF02,CA,Los Angeles,LAX,90040
91743,CA-HA06,CA,Los Angeles,LAX,90040
91744,CA-AE03,CA,Los Angeles,LAX,90040
91745,CA-AG01,CA,Los Angeles,LAX,90040
91746,CA-AE02,CA,Los Angeles,LAX,90040
91747,CA-AE02,CA,Los Angeles,LAX,90040
91748,CA-AG02,CA,Los Angeles,LAX,90040
91749,CA-AE02,CA,Los Angeles,LAX,90040
91750,CA-AH05,CA,Los Angeles,LAX,90040
91752,CA-IB01,CA,Los Angeles,LAX,90040
91754,CA-AB06,CA,Los Angeles,LAX,90040
91755,CA-AB05,CA,Los Angeles,LAX,90040
91756,CA-AB05,CA,Los Angeles,LAX,90040
91758,CA-HA04,CA,Los Angeles,LAX,90040
91761,CA-HA06,CA,Los Angeles,LAX,90040
91762,CA-HA04,CA,Los Angeles,LAX,90040
91763,CA-HA07,CA,Los Angeles,LAX,90040
91764,CA-HA05,CA,Los Angeles,LAX,90040
91765,CA-AG04,CA,Los Angeles,LAX,90040
91766,CA-AH04,CA,Los Angeles,LAX,90040
91767,CA-AH03,CA,Los Angeles,LAX,90040
91768,CA-AH02,CA,Los Angeles,LAX,90040
91769,CA-HA06,CA,Los Angeles,LAX,90040
91770,CA-AD05,CA,Los Angeles,LAX,90040
91771,CA-AD05,CA,Los Angeles,LAX,90040
91772,CA-AD05,CA,Los Angeles,LAX,90040
91773,CA-AH01,CA,Los Angeles,LAX,90040
91775,CA-AB01,CA,Los Angeles,LAX,90040
91776,CA-AB02,CA,Los Angeles,LAX,90040
91778,CA-AB02,CA,Los Angeles,LAX,90040
91780,CA-AD01,CA,Los Angeles,LAX,90040
91784,CA-HB01,CA,Los Angeles,LAX,90040
91785,CA-HB01,CA,Los Angeles,LAX,90040
91786,CA-HB02,CA,Los Angeles,LAX,90040
91788,CA-AG03,CA,Los Angeles,LAX,90040
91789,CA-AG03,CA,Los Angeles,LAX,90040
91790,CA-AE04,CA,Los Angeles,LAX,90040
91791,CA-AE05,CA,Los Angeles,LAX,90040
91792,CA-AE06,CA,Los Angeles,LAX,90040
91793,CA-AE04,CA,Los Angeles,LAX,90040
91801,CA-AB03,CA,Los Angeles,LAX,90040
91802,CA-AB03,CA,Los Angeles,LAX,90040
91803,CA-AB04,CA,Los Angeles,LAX,90040
91804,CA-AB04,CA,Los Angeles,LAX,90040
91896,CA-AB04,CA,Los Angeles,LAX,90040
91899,CA-AB04,CA,Los Angeles,LAX,90040
91901,CA-SD01,CA,San Diego,LAX,90040
91902,CA-SB06,CA,San Diego,LAX,90040
91905,CA-SD07,CA,San Diego,LAX,90040
91906,CA-SD08,CA,San Diego,LAX,90040
91909,CA-SB01,CA,San Diego,LAX,90040
91910,CA-SB01,CA,San Diego,LAX,90040
91911,CA-SB02,CA,San Diego,LAX,90040
91912,CA-SB01,CA,San Diego,LAX,90040
91913,CA-SB03,CA,San Diego,LAX,90040
91914,CA-SB04,CA,San Diego,LAX,90040
91915,CA-SB05,CA,San Diego,LAX,90040
91917,CA-SD04,CA,San Diego,LAX,90040
91921,CA-SB01,CA,San Diego,LAX,90040
91931,CA-SD05,CA,San Diego,LAX,90040
91932,CA-SC01,CA,San Diego,LAX,90040
91934,CA-SD06,CA,San Diego,LAX,90040
91935,CA-SD02,CA,San Diego,LAX,90040
91941,CA-RD02,CA,San Diego,LAX,90040
91942,CA-RD01,CA,San Diego,LAX,90040
91945,CA-RD03,CA,San Diego,LAX,90040
91950,CA-SA03,CA,San Diego,LAX,90040
91951,CA-SA03,CA,San Diego,LAX,90040
91962,CA-SD03,CA,San Diego,LAX,90040
91963,CA-SD09,CA,San Diego,LAX,90040
91976,CA-RD04,CA,San Diego,LAX,90040
91977,CA-RD04,CA,San Diego,LAX,90040
91978,CA-RD05,CA,San Diego,LAX,90040
91979,CA-RD04,CA,San Diego,LAX,90040
91987,CA-SD10,CA,San Diego,LAX,90040
92003,CA-QA09,CA,San Diego,LAX,90040
92007,CA-QC04,CA,San Diego,LAX,90040
92008,CA-QA04,CA,San Diego,LAX,90040
92009,CA-QA10,CA,San Diego,LAX,90040
92010,CA-QA05,CA,San Diego,LAX,90040
92011,CA-QA04,CA,San Diego,LAX,90040
92014,CA-QC08,CA,San Diego,LAX,90040
92019,CA-RE03,CA,San Diego,LAX,90040
92020,CA-RE01,CA,San Diego,LAX,90040
92021,CA-RE04,CA,San Diego,LAX,90040
92022,CA-RE01,CA,San Diego,LAX,90040
92024,CA-QC03,CA,San Diego,LAX,90040
92025,CA-QB05,CA,San Diego,LAX,90040
92026,CA-QB03,CA,San Diego,LAX,90040
92027,CA-QB06,CA,San Diego,LAX,90040
92028,CA-QA11,CA,San Diego,LAX,90040
92029,CA-QB04,CA,San Diego,LAX,90040
92033,CA-QB06,CA,San Diego,LAX,90040
92037,CA-RA02,CA,San Diego,LAX,90040
92040,CA-RE05,CA,San Diego,LAX,90040
92046,CA-QB06,CA,San Diego,LAX,90040
92052,CA-QA01,CA,San Diego,LAX,90040
92054,CA-QA01,CA,San Diego,LAX,90040
92056,CA-QA02,CA,San Diego,LAX,90040
92057,CA-QA03,CA,San Diego,LAX,90040
92058,CA-QA03,CA,San Diego,LAX,90040
92059,CA-QA10,CA,San Diego,LAX,90040
92064,CA-QD07,CA,San Diego,LAX,90040
92065,CA-QD08,CA,San Diego,LAX,90040
92067,CA-QC06,CA,San Diego,LAX,90040
92069,CA-QB02,CA,San Diego,LAX,90040
92071,CA-RE02,CA,San Diego,LAX,90040
92075,CA-QC05,CA,San Diego,LAX,90040
92078,CA-QB01,CA,San Diego,LAX,90040
92079,CA-QB02,CA,San Diego,LAX,90040
92081,CA-QA07,CA,San Diego,LAX,90040
92082,CA-QA12,CA,San Diego,LAX,90040
92083,CA-QA06,CA,San Diego,LAX,90040
92084,CA-QA08,CA,San Diego,LAX,90040
92091,CA-QC07,CA,San Diego,LAX,90040
92092,CA-RA02,CA,San Diego,LAX,90040
92093,CA-RA02,CA,San Diego,LAX,90040
92096,CA-QB01,CA,San Diego,LAX,90040
92101,CA-RC02,CA,San Diego,LAX,90040
92102,CA-RC07,CA,San Diego,LAX,90040
92103,CA-RC01,CA,San Diego,LAX,90040
92104,CA-RC06,CA,San Diego,LAX,90040
92105,CA-RC09,CA,San Diego,LAX,90040
92106,CA-RA08,CA,San Diego,LAX,90040
92107,CA-RA07,CA,San Diego,LAX,90040
92108,CA-RB02,CA,San Diego,LAX,90040
92109,CA-RA03,CA,San Diego,LAX,90040
92110,CA-RA06,CA,San Diego,LAX,90040
92111,CA-RA05,CA,San Diego,LAX,90040
92112,CA-RC02,CA,San Diego,LAX,90040
92113,CA-SA01,CA,San Diego,LAX,90040
92114,CA-SA02,CA,San Diego,LAX,90040
92115,CA-RC08,CA,San Diego,LAX,90040
92116,CA-RC05,CA,San Diego,LAX,90040
92117,CA-RA04,CA,San Diego,LAX,90040
92118,CA-SA05,CA,San Diego,LAX,90040
92119,CA-RB05,CA,San Diego,LAX,90040
92120,CA-RB04,CA,San Diego,LAX,90040
92121,CA-QD05,CA,San Diego,LAX,90040
92122,CA-RA01,CA,San Diego,LAX,90040
92123,CA-RB01,CA,San Diego,LAX,90040
92124,CA-RB03,CA,San Diego,LAX,90040
92126,CA-QD04,CA,San Diego,LAX,90040
92127,CA-QD01,CA,San Diego,LAX,90040
92128,CA-QD02,CA,San Diego,LAX,90040
92129,CA-QD03,CA,San Diego,LAX,90040
92130,CA-QC09,CA,San Diego,LAX,90040
92131,CA-QD06,CA,San Diego,LAX,90040
92132,CA-RC09,CA,San Diego,LAX,90040
92134,CA-RC04,CA,San Diego,LAX,90040
92135,CA-SA06,CA,San Diego,LAX,90040
92136,CA-SA01,CA,San Diego,LAX,90040
92139,CA-SA04,CA,San Diego,LAX,90040
92140,CA-RA10,CA,San Diego,LAX,90040
92143,CA-SC02,CA,San Diego,LAX,90040
92147,CA-RA09,CA,San Diego,LAX,90040
92154,CA-SC03,CA,San Diego,LAX,90040
92155,CA-SA07,CA,San Diego,LAX,90040
92163,CA-RC01,CA,San Diego,LAX,90040
92165,CA-RC09,CA,San Diego,LAX,90040
92171,CA-RA05,CA,San Diego,LAX,90040
92172,CA-QD03,CA,San Diego,LAX,90040
92173,CA-SC02,CA,San Diego,LAX,90040
92175,CA-RC08,CA,San Diego,LAX,90040
92176,CA-RB02,CA,San Diego,LAX,90040
92193,CA-RB01,CA,San Diego,LAX,90040
92196,CA-QD04,CA,San Diego,LAX,90040
92201,CA-HF01,CA,Palm Springs,LAX,90040
92203,CA-HF02,CA,Palm Springs,LAX,90040
92210,CA-HF03,CA,Palm Springs,LAX,90040
92211,CA-HF04,CA,Palm Springs,LAX,90040
92220,CA-HE03,CA,Los Angeles,LAX,90040
92223,CA-HE04,CA,Los Angeles,LAX,90040
92225,CA-HH01,CA,Victorville,LAX,90040
92227,CA-HI01,CA,Imperial,LAX,90040
92230,CA-HE05,CA,Los Angeles,LAX,90040
92231,CA-HI02,CA,Imperial,LAX,90040
92233,CA-HI05,CA,Imperial,LAX,90040
92234,CA-HF05,CA,Palm Springs,LAX,90040
92236,CA-HF06,CA,Palm Springs,LAX,90040
92240,CA-HF07,CA,Palm Springs,LAX,90040
92241,CA-HF08,CA,Palm Springs,LAX,90040
92243,CA-HI03,CA,Imperial,LAX,90040
92249,CA-HI06,CA,Imperial,LAX,90040
92250,CA-HI07,CA,Imperial,LAX,90040
92251,CA-HI04,CA,Imperial,LAX,90040
92252,CA-HF20,CA,Palm Springs,LAX,90040
92253,CA-HF09,CA,Palm Springs,LAX,90040
92254,CA-HF18,CA,Palm Springs,LAX,90040
92258,CA-HF10,CA,Palm Springs,LAX,90040
92260,CA-HF11,CA,Palm Springs,LAX,90040
92262,CA-HF12,CA,Palm Springs,LAX,90040
92264,CA-HF13,CA,Palm Springs,LAX,90040
92270,CA-HF14,CA,Palm Springs,LAX,90040
92273,CA-HI08,CA,Imperial,LAX,90040
92274,CA-HF17,CA,Palm Springs,LAX,90040
92276,CA-HF15,CA,Palm Springs,LAX,90040
92277,CA-HF19,CA,Palm Springs,LAX,90040
92281,CA-HI09,CA,Imperial,LAX,90040
92282,CA-HF16,CA,Palm Springs,LAX,90040
92284,CA-HF21,CA,Palm Springs,LAX,90040
92301,CA-HG08,CA,Victorville,LAX,90040
92307,CA-HG01,CA,Victorville,LAX,90040
92308,CA-HG02,CA,Victorville,LAX,90040
92311,CA-HG11,CA,Victorville,LAX,90040
92313,CA-HC08,CA,Los Angeles,LAX,90040
92316,CA-HC06,CA,Los Angeles,LAX,90040
92318,CA-HD11,CA,Los Angeles,LAX,90040
92320,CA-HE02,CA,Los Angeles,LAX,90040
92324,CA-HC07,CA,Los Angeles,LAX,90040
92331,CA-HC01,CA,Los Angeles,LAX,90040
92334,CA-HC01,CA,Los Angeles,LAX,90040
92335,CA-HC02,CA,Los Angeles,LAX,90040
92336,CA-HC01,CA,Los Angeles,LAX,90040
92337,CA-HC03,CA,Los Angeles,LAX,90040
92344,CA-HG03,CA,Victorville,LAX,90040
92345,CA-HG04,CA,Victorville,LAX,90040
92346,CA-HD08,CA,Los Angeles,LAX,90040
92350,CA-HD11,CA,Los Angeles,LAX,90040
92354,CA-HD11,CA,Los Angeles,LAX,90040
92357,CA-HD11,CA,Los Angeles,LAX,90040
92359,CA-HD12,CA,Los Angeles,LAX,90040
92369,CA-HD08,CA,Los Angeles,LAX,90040
92371,CA-HG09,CA,Victorville,LAX,90040
92372,CA-HG10,CA,Victorville,LAX,90040
92373,CA-HD10,CA,Los Angeles,LAX,90040
92374,CA-HD09,CA,Los Angeles,LAX,90040
92375,CA-HD10,CA,Los Angeles,LAX,90040
92376,CA-HC05,CA,Los Angeles,LAX,90040
92377,CA-HC04,CA,Los Angeles,LAX,90040
92392,CA-HG05,CA,Victorville,LAX,90040
92394,CA-HG06,CA,Victorville,LAX,90040
92395,CA-HG07,CA,Victorville,LAX,90040
92399,CA-HE01,CA,Los Angeles,LAX,90040
92401,CA-HD01,CA,Los Angeles,LAX,90040
92402,CA-HD01,CA,Los Angeles,LAX,90040
92403,CA-HD01,CA,Los Angeles,LAX,90040
92404,CA-HD02,CA,Los Angeles,LAX,90040
92405,CA-HD03,CA,Los Angeles,LAX,90040
92406,CA-HD01,CA,Los Angeles,LAX,90040
92407,CA-HD04,CA,Los Angeles,LAX,90040
92408,CA-HD05,CA,Los Angeles,LAX,90040
92410,CA-HD06,CA,Los Angeles,LAX,90040
92411,CA-HD07,CA,Los Angeles,LAX,90040
92413,CA-HD01,CA,Los Angeles,LAX,90040
92415,CA-HD01,CA,Los Angeles,LAX,90040
92418,CA-HD01,CA,Los Angeles,LAX,90040
92423,CA-HD01,CA,Los Angeles,LAX,90040
92427,CA-HD01,CA,Los Angeles,LAX,90040
92501,CA-IB03,CA,Los Angeles,LAX,90040
92502,CA-IB03,CA,Los Angeles,LAX,90040
92503,CA-IB08,CA,Los Angeles,LAX,90040
92504,CA-IB06,CA,Los Angeles,LAX,90040
92505,CA-IB05,CA,Los Angeles,LAX,90040
92506,CA-IB07,CA,Los Angeles,LAX,90040
92507,CA-IB04,CA,Los Angeles,LAX,90040
92508,CA-IB09,CA,Los Angeles,LAX,90040
92509,CA-IB02,CA,Los Angeles,LAX,90040
92513,CA-IB03,CA,Los Angeles,LAX,90040
92514,CA-IB03,CA,Los Angeles,LAX,90040
92516,CA-IB03,CA,Los Angeles,LAX,90040
92517,CA-IB03,CA,Los Angeles,LAX,90040
92518,CA-IC01,CA,Los Angeles,LAX,90040
92519,CA-IB03,CA,Los Angeles,LAX,90040
92521,CA-IB04,CA,Los Angeles,LAX,90040
92522,CA-IB03,CA,Los Angeles,LAX,90040
92530,CA-IF02,CA,Los Angeles,LAX,90040
92531,CA-IF02,CA,Los Angeles,LAX,90040
92532,CA-IF03,CA,Los Angeles,LAX,90040
92543,CA-IE03,CA,Los Angeles,LAX,90040
92544,CA-IE04,CA,Los Angeles,LAX,90040
92545,CA-IE02,CA,Los Angeles,LAX,90040
92548,CA-IE01,CA,Los Angeles,LAX,90040
92551,CA-IC02,CA,Los Angeles,LAX,90040
92552,CA-IC03,CA,Los Angeles,LAX,90040
92553,CA-IC03,CA,Los Angeles,LAX,90040
92554,CA-IC03,CA,Los Angeles,LAX,90040
92555,CA-IC04,CA,Los Angeles,LAX,90040
92556,CA-IC03,CA,Los Angeles,LAX,90040
92557,CA-IC05,CA,Los Angeles,LAX,90040
92562,CA-IF05,CA,Los Angeles,LAX,90040
92563,CA-IF06,CA,Los Angeles,LAX,90040
92564,CA-IF05,CA,Los Angeles,LAX,90040
92567,CA-ID03,CA,Los Angeles,LAX,90040
92570,CA-ID01,CA,Los Angeles,LAX,90040
92571,CA-ID02,CA,Los Angeles,LAX,90040
92572,CA-ID01,CA,Los Angeles,LAX,90040
92582,CA-IE05,CA,Los Angeles,LAX,90040
92583,CA-IE06,CA,Los Angeles,LAX,90040
92584,CA-ID04,CA,Los Angeles,LAX,90040
92585,CA-ID05,CA,Los Angeles,LAX,90040
92586,CA-ID06,CA,Los Angeles,LAX,90040
92587,CA-ID07,CA,Los Angeles,LAX,90040
92589,CA-IF07,CA,Los Angeles,LAX,90040
92590,CA-IF07,CA,Los Angeles,LAX,90040
92591,CA-IF08,CA,Los Angeles,LAX,90040
92592,CA-IF09,CA,Los Angeles,LAX,90040
92593,CA-IF07,CA,Los Angeles,LAX,90040
92595,CA-IF01,CA,Los Angeles,LAX,90040
92596,CA-IF04,CA,Los Angeles,LAX,90040
92599,CA-ID01,CA,Los Angeles,LAX,90040
92602,CA-GC04,CA,Los Angeles,LAX,90040
92603,CA-GC10,CA,Los Angeles,LAX,90040
92604,CA-GC05,CA,Los Angeles,LAX,90040
92605,CA-FF04,CA,Los Angeles,LAX,90040
92606,CA-GC06,CA,Los Angeles,LAX,90040
92607,CA-GD04,CA,Los Angeles,LAX,90040
92609,CA-GE02,CA,Los Angeles,LAX,90040
92610,CA-GE01,CA,Los Angeles,LAX,90040
92612,CA-GC08,CA,Los Angeles,LAX,90040
92614,CA-GC07,CA,Los Angeles,LAX,90040
92615,CA-FF06,CA,Los Angeles,LAX,90040
92616,CA-GC09,CA,Los Angeles,LAX,90040
92617,CA-GC09,CA,Los Angeles,LAX,90040
92618,CA-GC02,CA,Los Angeles,LAX,90040
92619,CA-GC02,CA,Los Angeles,LAX,90040
92620,CA-GC03,CA,Los Angeles,LAX,90040
92623,CA-GC02,CA,Los Angeles,LAX,90040
92624,CA-GG01,CA,Los Angeles,LAX,90040
92625,CA-GB07,CA,Los Angeles,LAX,90040
92626,CA-GB01,CA,Los Angeles,LAX,90040
92627,CA-GB02,CA,Los Angeles,LAX,90040
92628,CA-GB02,CA,Los Angeles,LAX,90040
92629,CA-GG02,CA,Los Angeles,LAX,90040
92630,CA-GE02,CA,Los Angeles,LAX,90040
92637,CA-GD01,CA,Los Angeles,LAX,90040
92646,CA-FF07,CA,Los Angeles,LAX,90040
92647,CA-FF05,CA,Los Angeles,LAX,90040
92648,CA-FF06,CA,Los Angeles,LAX,90040
92649,CA-FF04,CA,Los Angeles,LAX,90040
92650,CA-GC02,CA,Los Angeles,LAX,90040
92651,CA-GD05,CA,Los Angeles,LAX,90040
92652,CA-GD05,CA,Los Angeles,LAX,90040
92653,CA-GD02,CA,Los Angeles,LAX,90040
92654,CA-GD02,CA,Los Angeles,LAX,90040
92655,CA-FE08,CA,Los Angeles,LAX,90040
92656,CA-GD03,CA,Los Angeles,LAX,90040
92657,CA-GB08,CA,Los Angeles,LAX,90040
92658,CA-GB03,CA,Los Angeles,LAX,90040
92659,CA-GB03,CA,Los Angeles,LAX,90040
92660,CA-GB05,CA,Los Angeles,LAX,90040
92661,CA-GB04,CA,Los Angeles,LAX,90040
92662,CA-GB06,CA,Los Angeles,LAX,90040
92663,CA-GB03,CA,Los Angeles,LAX,90040
92672,CA-GG05,CA,Los Angeles,LAX,90040
92673,CA-GG04,CA,Los Angeles,LAX,90040
92674,CA-GG05,CA,Los Angeles,LAX,90040
92675,CA-GG03,CA,Los Angeles,LAX,90040
92676,CA-GC01,CA,Los Angeles,LAX,90040
92677,CA-GD04,CA,Los Angeles,LAX,90040
92678,CA-GF04,CA,Los Angeles,LAX,90040
92679,CA-GF03,CA,Los Angeles,LAX,90040
92683,CA-FE07,CA,Los Angeles,LAX,90040
92684,CA-FE07,CA,Los Angeles,LAX,90040
92685,CA-FE07,CA,Los Angeles,LAX,90040
92688,CA-GF02,CA,Los Angeles,LAX,90040
92690,CA-GE03,CA,Los Angeles,LAX,90040
92691,CA-GE03,CA,Los Angeles,LAX,90040
92692,CA-GE04,CA,Los Angeles,LAX,90040
92693,CA-GG03,CA,Los Angeles,LAX,90040
92694,CA-GF01,CA,Los Angeles,LAX,90040
92697,CA-GC09,CA,Los Angeles,LAX,90040
92698,CA-GD01,CA,Los Angeles,LAX,90040
92701,CA-GA05,CA,Los Angeles,LAX,90040
92702,CA-GA05,CA,Los Angeles,LAX,90040
92703,CA-GA03,CA,Los Angeles,LAX,90040
92704,CA-GA02,CA,Los Angeles,LAX,90040
92705,CA-GA07,CA,Los Angeles,LAX,90040
92706,CA-GA04,CA,Los Angeles,LAX,90040
92707,CA-GA06,CA,Los Angeles,LAX,90040
92708,CA-GA01,CA,Los Angeles,LAX,90040
92711,CA-GA05,CA,Los Angeles,LAX,90040
92712,CA-GA05,CA,Los Angeles,LAX,90040
92728,CA-GA05,CA,Los Angeles,LAX,90040
92735,CA-GA05,CA,Los Angeles,LAX,90040
92780,CA-GA08,CA,Los Angeles,LAX,90040
92781,CA-GA08,CA,Los Angeles,LAX,90040
92782,CA-GA09,CA,Los Angeles,LAX,90040
92799,CA-GA05,CA,Los Angeles,LAX,90040
92801,CA-FC01,CA,Los Angeles,LAX,90040
92802,CA-FC04,CA,Los Angeles,LAX,90040
92803,CA-FC04,CA,Los Angeles,LAX,90040
92804,CA-FC02,CA,Los Angeles,LAX,90040
92805,CA-FC03,CA,Los Angeles,LAX,90040
92806,CA-FC05,CA,Los Angeles,LAX,90040
92807,CA-FD01,CA,Los Angeles,LAX,90040
92808,CA-FD02,CA,Los Angeles,LAX,90040
92809,CA-FD02,CA,Los Angeles,LAX,90040
92811,CA-FB08,CA,Los Angeles,LAX,90040
92812,CA-FC01,CA,Los Angeles,LAX,90040
92814,CA-FC01,CA,Los Angeles,LAX,90040
92815,CA-FC01,CA,Los Angeles,LAX,90040
92816,CA-FC01,CA,Los Angeles,LAX,90040
92817,CA-FC01,CA,Los Angeles,LAX,90040
92821,CA-FB02,CA,Los Angeles,LAX,90040
92822,CA-FB02,CA,Los Angeles,LAX,90040
92823,CA-FB03,CA,Los Angeles,LAX,90040
92825,CA-FC01,CA,Los Angeles,LAX,90040
92831,CA-FB07,CA,Los Angeles,LAX,90040
92832,CA-FB06,CA,Los Angeles,LAX,90040
92833,CA-FB05,CA,Los Angeles,LAX,90040
92834,CA-FB05,CA,Los Angeles,LAX,90040
92835,CA-FB04,CA,Los Angeles,LAX,90040
92836,CA-FB04,CA,Los Angeles,LAX,90040
92837,CA-FB04,CA,Los Angeles,LAX,90040
92838,CA-FB04,CA,Los Angeles,LAX,90040
92840,CA-FE05,CA,Los Angeles,LAX,90040
92841,CA-FE03,CA,Los Angeles,LAX,90040
92842,CA-FE03,CA,Los Angeles,LAX,90040
92843,CA-FE06,CA,Los Angeles,LAX,90040
92844,CA-FE04,CA,Los Angeles,LAX,90040
92845,CA-FE02,CA,Los Angeles,LAX,90040
92846,CA-FE02,CA,Los Angeles,LAX,90040
92850,CA-FC01,CA,Los Angeles,LAX,90040
92856,CA-FD03,CA,Los Angeles,LAX,90040
92857,CA-FD03,CA,Los Angeles,LAX,90040
92859,CA-FD03,CA,Los Angeles,LAX,90040
92860,CA-IA06,CA,Los Angeles,LAX,90040
92861,CA-FD08,CA,Los Angeles,LAX,90040
92862,CA-FD07,CA,Los Angeles,LAX,90040
92863,CA-FD03,CA,Los Angeles,LAX,90040
92864,CA-FD03,CA,Los Angeles,LAX,90040
92865,CA-FD03,CA,Los Angeles,LAX,90040
92866,CA-FD06,CA,Los Angeles,LAX,90040
92867,CA-FD04,CA,Los Angeles,LAX,90040
92868,CA-FD05,CA,Los Angeles,LAX,90040
92869,CA-FD07,CA,Los Angeles,LAX,90040
92870,CA-FB08,CA,Los Angeles,LAX,90040
92871,CA-FB08,CA,Los Angeles,LAX,90040
92877,CA-IA04,CA,Los Angeles,LAX,90040
92878,CA-IA04,CA,Los Angeles,LAX,90040
92879,CA-IA02,CA,Los Angeles,LAX,90040
92880,CA-IA01,CA,Los Angeles,LAX,90040
92881,CA-IA03,CA,Los Angeles,LAX,90040
92882,CA-IA04,CA,Los Angeles,LAX,90040
92883,CA-IA05,CA,Los Angeles,LAX,90040
92885,CA-FB09,CA,Los Angeles,LAX,90040
92886,CA-FB09,CA,Los Angeles,LAX,90040
92887,CA-FB10,CA,Los Angeles,LAX,90040
92899,CA-FC01,CA,Los Angeles,LAX,90040
93001,CA-BO04,CA,Ventura,LAX,90040
93003,CA-BO03,CA,Ventura,LAX,90040
93004,CA-BO02,CA,Ventura,LAX,90040
93010,CA-BM02,CA,Ventura,LAX,90040
93012,CA-BM01,CA,Ventura,LAX,90040
93013,CA-BP01,CA,Ventura,LAX,90040
93015,CA-BO07,CA,Ventura,LAX,90040
93021,CA-BK04,CA,Los Angeles,LAX,90040
93022,CA-BO06,CA,Ventura,LAX,90040
93023,CA-BO05,CA,Ventura,LAX,90040
93030,CA-BN02,CA,Ventura,LAX,90040
93033,CA-BN06,CA,Ventura,LAX,90040
93035,CA-BN03,CA,Ventura,LAX,90040
93036,CA-BN01,CA,Ventura,LAX,90040
93040,CA-BO08,CA,Ventura,LAX,90040
93041,CA-BN04,CA,Ventura,LAX,90040
93043,CA-BN05,CA,Ventura,LAX,90040
93060,CA-BO01,CA,Ventura,LAX,90040
93062,CA-BK02,CA,Los Angeles,LAX,90040
93063,CA-BK02,CA,Los Angeles,LAX,90040
93064,CA-BK01,CA,Los Angeles,LAX,90040
93065,CA-BK03,CA,Los Angeles,LAX,90040
93066,CA-BM03,CA,Ventura,LAX,90040
93067,CA-BP02,CA,Ventura,LAX,90040
93094,CA-BK02,CA,Los Angeles,LAX,90040
93099,CA-BK02,CA,Los Angeles,LAX,90040
93101,CA-BP05,CA,Ventura,LAX,90040
93103,CA-BP04,CA,Ventura,LAX,90040
93105,CA-BP07,CA,Ventura,LAX,90040
93108,CA-BP03,CA,Ventura,LAX,90040
93109,CA-BP06,CA,Ventura,LAX,90040
93110,CA-BP08,CA,Ventura,LAX,90040
93111,CA-BP09,CA,Ventura,LAX,90040
93117,CA-BP10,CA,Ventura,LAX,90040
93202,CA-UD07,CA,Fresno,LAX,90040
93203,CA-MA07,CA,Bakersfield,LAX,90040
93210,CA-UE02,CA,Fresno,LAX,90040
93212,CA-UD09,CA,Fresno,LAX,90040
93215,CA-MC01,CA,Kern,LAX,90040
93220,CA-MA06,CA,Bakersfield,LAX,90040
93221,CA-MF03,CA,Tulare,LAX,90040
93223,CA-MF04,CA,Tulare,LAX,90040
93230,CA-UD06,CA,Fresno,LAX,90040
93235,CA-MF02,CA,Tulare,LAX,90040
93241,CA-MA05,CA,Bakersfield,LAX,90040
93245,CA-UD08,CA,Fresno,LAX,90040
93247,CA-ME03,CA,Tulare,LAX,90040
93250,CA-MC03,CA,Kern,LAX,90040
93257,CA-ME04,CA,Tulare,LAX,90040
93258,CA-ME06,CA,Tulare,LAX,90040
93261,CA-MC02,CA,Kern,LAX,90040
93263,CA-MC04,CA,Kern,LAX,90040
93267,CA-ME05,CA,Tulare,LAX,90040
93268,CA-MA08,CA,Bakersfield,LAX,90040
93274,CA-ME01,CA,Tulare,LAX,90040
93277,CA-ME02,CA,Tulare,LAX,90040
93280,CA-MC05,CA,Kern,LAX,90040
93291,CA-ME07,CA,Tulare,LAX,90040
93292,CA-MF01,CA,Tulare,LAX,90040
93301,CA-MA01,CA,Bakersfield,LAX,90040
93304,CA-MB01,CA,Bakersfield,LAX,90040
93305,CA-MA02,CA,Bakersfield,LAX,90040
93306,CA-MA03,CA,Bakersfield,LAX,90040
93307,CA-MA04,CA,Bakersfield,LAX,90040
93308,CA-MB07,CA,Bakersfield,LAX,90040
93309,CA-MB02,CA,Bakersfield,LAX,90040
93311,CA-MB04,CA,Bakersfield,LAX,90040
93312,CA-MB06,CA,Bakersfield,LAX,90040
93313,CA-MB03,CA,Bakersfield,LAX,90040
93314,CA-MB05,CA,Bakersfield,LAX,90040
93401,CA-BS01,CA,San Luis Obispo,LAX,90040
93402,CA-BS02,CA,San Luis Obispo,LAX,90040
93405,CA-BS03,CA,San Luis Obispo,LAX,90040
93410,CA-BS04,CA,San Luis Obispo,LAX,90040
93420,CA-BS05,CA,San Luis Obispo,LAX,90040
93422,CA-BS06,CA,San Luis Obispo,LAX,90040
93427,CA-BS07,CA,San Luis Obispo,LAX,90040
93433,CA-BT01,CA,San Luis Obispo,LAX,90040
93434,CA-BU07,CA,San Luis Obispo,LAX,90040
93436,CA-BT02,CA,San Luis Obispo,LAX,90040
93437,CA-BU08,CA,San Luis Obispo,LAX,90040
93441,CA-BT03,CA,San Luis Obispo,LAX,90040
93442,CA-BT04,CA,San Luis Obispo,LAX,90040
93444,CA-BT05,CA,San Luis Obispo,LAX,90040
93445,CA-BU06,CA,San Luis Obispo,LAX,90040
93446,CA-BU09,CA,San Luis Obispo,LAX,90040
93449,CA-BT06,CA,San Luis Obispo,LAX,90040
93454,CA-BT07,CA,San Luis Obispo,LAX,90040
93455,CA-BU01,CA,San Luis Obispo,LAX,90040
93458,CA-BU02,CA,San Luis Obispo,LAX,90040
93460,CA-BU03,CA,San Luis Obispo,LAX,90040
93463,CA-BU04,CA,San Luis Obispo,LAX,90040
93465,CA-BU05,CA,San Luis Obispo,LAX,90040
93505,CA-MD01,CA,Kern,LAX,90040
93510,CA-BQ01,CA,Lancaster,LAX,90040
93534,CA-BR02,CA,Lancaster,LAX,90040
93535,CA-BR03,CA,Lancaster,LAX,90040
93536,CA-BR01,CA,Lancaster,LAX,90040
93539,CA-BR04,CA,Lancaster,LAX,90040
93543,CA-BQ05,CA,Lancaster,LAX,90040
93550,CA-BQ03,CA,Lancaster,LAX,90040
93551,CA-BQ02,CA,Lancaster,LAX,90040
93552,CA-BQ04,CA,Lancaster,LAX,90040
93555,CA-MD02,CA,Kern,LAX,90040
93560,CA-MD03,CA,Kern,LAX,90040
93561,CA-MD04,CA,Kern,LAX,90040
93584,CA-BR05,CA,Lancaster,LAX,90040
93610,CA-UF01,CA,Merced,LAX,90040
93611,CA-UC01,CA,Fresno,LAX,90040
93612,CA-UC02,CA,Fresno,LAX,90040
93614,CA-UF01,CA,San Luis Obispo,LAX,90040
93615,CA-MF07,CA,Tulare,LAX,90040
93616,CA-UD04,CA,Fresno,LAX,90040
93618,CA-MF05,CA,Tulare,LAX,90040
93619,CA-UC03,CA,Fresno,LAX,90040
93625,CA-UC08,CA,Fresno,LAX,90040
93630,CA-UE01,CA,Fresno,LAX,90040
93631,CA-UD01,CA,Fresno,LAX,90040
93635,CA-UF05,CA,Merced,LAX,90040
93636,CA-UF04,CA,Merced,LAX,90040
93637,CA-UF02,CA,Merced,LAX,90040
93638,CA-UF03,CA,Merced,LAX,90040
93640,CA-UE03,CA,Fresno,LAX,90040
93647,CA-MF08,CA,Tulare,LAX,90040
93648,CA-UD05,CA,Fresno,LAX,90040
93650,CA-UA01,CA,Fresno,LAX,90040
93652,CA-UA07,CA,Fresno,LAX,90040
93654,CA-UD03,CA,Fresno,LAX,90040
93657,CA-UC04,CA,Fresno,LAX,90040
93662,CA-UC09,CA,Fresno,LAX,90040
93666,CA-MF06,CA,Tulare,LAX,90040
93673,CA-UD02,CA,Fresno,LAX,90040
93701,CA-UB01,CA,Fresno,LAX,90040
93702,CA-UB02,CA,Fresno,LAX,90040
93703,CA-UB03,CA,Fresno,LAX,90040
93704,CA-UB04,CA,Fresno,LAX,90040
93705,CA-UB05,CA,Fresno,LAX,90040
93706,CA-UC05,CA,Fresno,LAX,90040
93710,CA-UB06,CA,Fresno,LAX,90040
93711,CA-UA02,CA,Fresno,LAX,90040
93720,CA-UA03,CA,Fresno,LAX,90040
93721,CA-UB07,CA,Fresno,LAX,90040
93722,CA-UA04,CA,Fresno,LAX,90040
93723,CA-UA05,CA,Fresno,LAX,90040
93725,CA-UC06,CA,Fresno,LAX,90040
93726,CA-UB08,CA,Fresno,LAX,90040
93727,CA-UC07,CA,Fresno,LAX,90040
93728,CA-UB09,CA,Fresno,LAX,90040
93730,CA-UA06,CA,Fresno,LAX,90040
93901,CA-UG01,CA,Salinas,SFO,94545
93905,CA-UG02,CA,Salinas,SFO,94545
93906,CA-UG03,CA,Salinas,SFO,94545
93907,CA-UG04,CA,Salinas,SFO,94545
93921,CA-UG05,CA,Salinas,SFO,94545
93923,CA-UG06,CA,Salinas,SFO,94545
93927,CA-UJ02,CA,Salinas,SFO,94545
93930,CA-UJ03,CA,Salinas,SFO,94545
93933,CA-UG07,CA,Salinas,SFO,94545
93940,CA-UG08,CA,Salinas,SFO,94545
93943,CA-UG09,CA,Salinas,SFO,94545
93950,CA-UH01,CA,Salinas,SFO,94545
93953,CA-UH02,CA,Salinas,SFO,94545
93955,CA-UH03,CA,Salinas,SFO,94545
93960,CA-UJ04,CA,Salinas,SFO,94545
94002,CA-KB01,CA,San Francisco,SFO,94545
94005,CA-KD04,CA,San Francisco,SFO,94545
94010,CA-KC05,CA,San Francisco,SFO,94545
94014,CA-KD05,CA,San Francisco,SFO,94545
94015,CA-KD06,CA,San Francisco,SFO,94545
94016,CA-KD06,CA,San Francisco,SFO,94545
94017,CA-KD06,CA,San Francisco,SFO,94545
94022,CA-JH05,CA,San Jose,SFO,94545
94024,CA-JH04,CA,San Jose,SFO,94545
94025,CA-KA01,CA,San Francisco,SFO,94545
94027,CA-KA02,CA,San Francisco,SFO,94545
94028,CA-KA03,CA,San Francisco,SFO,94545
94030,CA-KC06,CA,San Francisco,SFO,94545
94040,CA-JH03,CA,San Jose,SFO,94545
94041,CA-JH02,CA,San Jose,SFO,94545
94043,CA-JH01,CA,San Jose,SFO,94545
94044,CA-KD07,CA,San Francisco,SFO,94545
94061,CA-KB05,CA,San Francisco,SFO,94545
94062,CA-KB06,CA,San Francisco,SFO,94545
94063,CA-KB04,CA,San Francisco,SFO,94545
94065,CA-KB02,CA,San Francisco,SFO,94545
94066,CA-KD02,CA,San Francisco,SFO,94545
94070,CA-KB03,CA,San Francisco,SFO,94545
94080,CA-KD03,CA,San Francisco,SFO,94545
94083,CA-KD03,CA,San Francisco,SFO,94545
94085,CA-JG07,CA,San Jose,SFO,94545
94086,CA-JG08,CA,San Jose,SFO,94545
94087,CA-JG09,CA,San Jose,SFO,94545
94088,CA-JG08,CA,San Jose,SFO,94545
94089,CA-JG06,CA,San Jose,SFO,94545
94102,CA-KG07,CA,San Francisco,SFO,94545
94103,CA-KF05,CA,San Francisco,SFO,94545
94104,CA-KG03,CA,San Francisco,SFO,94545
94105,CA-KF06,CA,San Francisco,SFO,94545
94107,CA-KF03,CA,San Francisco,SFO,94545
94108,CA-KG04,CA,San Francisco,SFO,94545
94109,CA-KG06,CA,San Francisco,SFO,94545
94110,CA-KF02,CA,San Francisco,SFO,94545
94111,CA-KG02,CA,San Francisco,SFO,94545
94112,CA-KE02,CA,San Francisco,SFO,94545
94114,CA-KE08,CA,San Francisco,SFO,94545
94115,CA-KH02,CA,San Francisco,SFO,94545
94116,CA-KE04,CA,San Francisco,SFO,94545
94117,CA-KH01,CA,San Francisco,SFO,94545
94118,CA-KH05,CA,San Francisco,SFO,94545
94121,CA-KH06,CA,San Francisco,SFO,94545
94122,CA-KE05,CA,San Francisco,SFO,94545
94123,CA-KH03,CA,San Francisco,SFO,94545
94124,CA-KF01,CA,San Francisco,SFO,94545
94127,CA-KE06,CA,San Francisco,SFO,94545
94128,CA-KD01,CA,San Francisco,SFO,94545
94129,CA-KH04,CA,San Francisco,SFO,94545
94130,CA-KG01,CA,San Francisco,SFO,94545
94131,CA-KE07,CA,San Francisco,SFO,94545
94132,CA-KE03,CA,San Francisco,SFO,94545
94133,CA-KG05,CA,San Francisco,SFO,94545
94134,CA-KE01,CA,San Francisco,SFO,94545
94158,CA-KF04,CA,San Francisco,SFO,94545
94301,CA-KA05,CA,San Francisco,SFO,94545
94302,CA-KA05,CA,San Francisco,SFO,94545
94303,CA-KA04,CA,San Francisco,SFO,94545
94304,CA-KA08,CA,San Francisco,SFO,94545
94305,CA-KA06,CA,San Francisco,SFO,94545
94306,CA-KA07,CA,San Francisco,SFO,94545
94401,CA-KC04,CA,San Francisco,SFO,94545
94402,CA-KC03,CA,San Francisco,SFO,94545
94403,CA-KC02,CA,San Francisco,SFO,94545
94404,CA-KC01,CA,San Francisco,SFO,94545
94501,CA-LD01,CA,San Francisco,SFO,94545
94502,CA-LD05,CA,San Francisco,SFO,94545
94503,CA-PE06,CA,Santa Rosa,SFO,94545
94505,CA-OE09,CA,San Francisco,SFO,94545
94506,CA-OA07,CA,San Francisco,SFO,94545
94507,CA-OA08,CA,San Francisco,SFO,94545
94509,CA-OE01,CA,San Francisco,SFO,94545
94510,CA-PE01,CA,Santa Rosa,SFO,94545
94511,CA-OE02,CA,San Francisco,SFO,94545
94512,CA-PG09,CA,Santa Rosa,SFO,94545
94513,CA-OE03,CA,San Francisco,SFO,94545
94514,CA-OE04,CA,San Francisco,SFO,94545
94516,CA-LE07,CA,San Francisco,SFO,94545
94517,CA-OD06,CA,San Francisco,SFO,94545
94518,CA-OD03,CA,San Francisco,SFO,94545
94519,CA-OD02,CA,San Francisco,SFO,94545
94520,CA-OD01,CA,San Francisco,SFO,94545
94521,CA-OD04,CA,San Francisco,SFO,94545
94523,CA-OC03,CA,San Francisco,SFO,94545
94525,CA-LI03,CA,San Francisco,SFO,94545
94526,CA-OA06,CA,San Francisco,SFO,94545
94528,CA-OA09,CA,San Francisco,SFO,94545
94530,CA-LH01,CA,San Francisco,SFO,94545
94531,CA-OE05,CA,San Francisco,SFO,94545
94533,CA-PG01,CA,Santa Rosa,SFO,94545
94534,CA-PG02,CA,Santa Rosa,SFO,94545
94535,CA-PG05,CA,Santa Rosa,SFO,94545
94536,CA-LA04,CA,San Francisco,SFO,94545
94537,CA-LA05,CA,San Francisco,SFO,94545
94538,CA-LA05,CA,San Francisco,SFO,94545
94539,CA-LA06,CA,San Francisco,SFO,94545
94540,CA-LB04,CA,San Francisco,SFO,94545
94541,CA-LB04,CA,San Francisco,SFO,94545
94542,CA-LB03,CA,San Francisco,SFO,94545
94544,CA-LB02,CA,San Francisco,SFO,94545
94545,CA-LB01,CA,San Francisco,SFO,94545
94546,CA-LB05,CA,San Francisco,SFO,94545
94547,CA-LI01,CA,San Francisco,SFO,94545
94548,CA-OE06,CA,San Francisco,SFO,94545
94549,CA-OB04,CA,San Francisco,SFO,94545
94550,CA-OE11,CA,San Francisco,SFO,94545
94551,CA-OE10,CA,San Francisco,SFO,94545
94552,CA-LB06,CA,San Francisco,SFO,94545
94553,CA-OC04,CA,San Francisco,SFO,94545
94555,CA-LA01,CA,San Francisco,SFO,94545
94556,CA-OB02,CA,San Francisco,SFO,94545
94557,CA-LB04,CA,San Francisco,SFO,94545
94558,CA-PF01,CA,Santa Rosa,SFO,94545
94559,CA-PF02,CA,Santa Rosa,SFO,94545
94560,CA-LA03,CA,San Francisco,SFO,94545
94561,CA-OE07,CA,San Francisco,SFO,94545
94563,CA-OB01,CA,San Francisco,SFO,94545
94564,CA-LH08,CA,San Francisco,SFO,94545
94565,CA-OE08,CA,San Francisco,SFO,94545
94566,CA-OA01,CA,San Francisco,SFO,94545
94568,CA-OA03,CA,San Francisco,SFO,94545
94569,CA-LI04,CA,San Francisco,SFO,94545
94571,CA-PG10,CA,Santa Rosa,SFO,94545
94572,CA-LI02,CA,San Francisco,SFO,94545
94575,CA-OB03,CA,San Francisco,SFO,94545
94577,CA-LC04,CA,San Francisco,SFO,94545
94578,CA-LC03,CA,San Francisco,SFO,94545
94579,CA-LC02,CA,San Francisco,SFO,94545
94580,CA-LC01,CA,San Francisco,SFO,94545
94582,CA-OA04,CA,San Francisco,SFO,94545
94583,CA-OA05,CA,San Francisco,SFO,94545
94585,CA-PG08,CA,Santa Rosa,SFO,94545
94587,CA-LA02,CA,San Francisco,SFO,94545
94588,CA-OA02,CA,San Francisco,SFO,94545
94589,CA-PE05,CA,Santa Rosa,SFO,94545
94590,CA-PE03,CA,Santa Rosa,SFO,94545
94591,CA-PE02,CA,Santa Rosa,SFO,94545
94592,CA-PE04,CA,Santa Rosa,SFO,94545
94595,CA-OB05,CA,San Francisco,SFO,94545
94596,CA-OC01,CA,San Francisco,SFO,94545
94597,CA-OC02,CA,San Francisco,SFO,94545
94598,CA-OD05,CA,San Francisco,SFO,94545
94599,CA-PF03,CA,Santa Rosa,SFO,94545
94601,CA-LD02,CA,San Francisco,SFO,94545
94602,CA-LD04,CA,San Francisco,SFO,94545
94603,CA-LD01,CA,San Francisco,SFO,94545
94604,CA-LE01,CA,San Francisco,SFO,94545
94605,CA-LD02,CA,San Francisco,SFO,94545
94606,CA-LD05,CA,San Francisco,SFO,94545
94607,CA-LE02,CA,San Francisco,SFO,94545
94608,CA-LE04,CA,San Francisco,SFO,94545
94609,CA-LE03,CA,San Francisco,SFO,94545
94610,CA-LD06,CA,San Francisco,SFO,94545
94611,CA-LE06,CA,San Francisco,SFO,94545
94612,CA-LE01,CA,San Francisco,SFO,94545
94613,CA-LD03,CA,San Francisco,SFO,94545
94614,CA-LE01,CA,San Francisco,SFO,94545
94617,CA-LE01,CA,San Francisco,SFO,94545
94618,CA-LE05,CA,San Francisco,SFO,94545
94619,CA-LD03,CA,San Francisco,SFO,94545
94621,CA-LD04,CA,San Francisco,SFO,94545
94701,CA-LF02,CA,San Francisco,SFO,94545
94702,CA-LG02,CA,San Francisco,SFO,94545
94703,CA-LG01,CA,San Francisco,SFO,94545
94704,CA-LF02,CA,San Francisco,SFO,94545
94705,CA-LF01,CA,San Francisco,SFO,94545
94706,CA-LG04,CA,San Francisco,SFO,94545
94707,CA-LF06,CA,San Francisco,SFO,94545
94708,CA-LF05,CA,San Francisco,SFO,94545
94709,CA-LF04,CA,San Francisco,SFO,94545
94710,CA-LG03,CA,San Francisco,SFO,94545
94712,CA-LF02,CA,San Francisco,SFO,94545
94720,CA-LF03,CA,San Francisco,SFO,94545
94801,CA-LH05,CA,San Francisco,SFO,94545
94802,CA-LH04,CA,San Francisco,SFO,94545
94803,CA-LH07,CA,San Francisco,SFO,94545
94804,CA-LH02,CA,San Francisco,SFO,94545
94805,CA-LH04,CA,San Francisco,SFO,94545
94806,CA-LH06,CA,San Francisco,SFO,94545
94807,CA-LH04,CA,San Francisco,SFO,94545
94808,CA-LH04,CA,San Francisco,SFO,94545
94850,CA-LH03,CA,San Francisco,SFO,94545
94901,CA-PC03,CA,Santa Rosa,SFO,94545
94903,CA-PD01,CA,Santa Rosa,SFO,94545
94904,CA-PC02,CA,Santa Rosa,SFO,94545
94920,CA-PA03,CA,Santa Rosa,SFO,94545
94925,CA-PA02,CA,Santa Rosa,SFO,94545
94928,CA-PH01,CA,Santa Rosa,SFO,94545
94930,CA-PC06,CA,Santa Rosa,SFO,94545
94931,CA-PH03,CA,Santa Rosa,SFO,94545
94939,CA-PA01,CA,Santa Rosa,SFO,94545
94941,CA-PA04,CA,Santa Rosa,SFO,94545
94945,CA-PD03,CA,Santa Rosa,SFO,94545
94947,CA-PD04,CA,Santa Rosa,SFO,94545
94949,CA-PD02,CA,Santa Rosa,SFO,94545
94951,CA-PH02,CA,Santa Rosa,SFO,94545
94952,CA-PH05,CA,Santa Rosa,SFO,94545
94954,CA-PH04,CA,Santa Rosa,SFO,94545
94957,CA-PC04,CA,Santa Rosa,SFO,94545
94960,CA-PC05,CA,Santa Rosa,SFO,94545
94964,CA-PC01,CA,Santa Rosa,SFO,94545
94965,CA-PA05,CA,Santa Rosa,SFO,94545
95002,CA-JG01,CA,San Jose,SFO,94545
95003,CA-UH08,CA,Salinas,SFO,94545
95005,CA-UH09,CA,Salinas,SFO,94545
95007,CA-UI01,CA,Salinas,SFO,94545
95008,CA-JF03,CA,San Jose,SFO,94545
95010,CA-UI02,CA,Salinas,SFO,94545
95012,CA-UH04,CA,Salinas,SFO,94545
95014,CA-JF05,CA,San Jose,SFO,94545
95015,CA-JF05,CA,San Jose,SFO,94545
95018,CA-UI03,CA,Salinas,SFO,94545
95019,CA-UH05,CA,Salinas,SFO,94545
95020,CA-UJ05,CA,Salinas,SFO,94545
95023,CA-UJ07,CA,Salinas,SFO,94545
95030,CA-JE05,CA,San Jose,SFO,94545
95032,CA-JE04,CA,San Jose,SFO,94545
95035,CA-JA02,CA,San Jose,SFO,94545
95036,CA-JA03,CA,San Jose,SFO,94545
95037,CA-UJ06,CA,Salinas,SFO,94545
95039,CA-UH06,CA,Salinas,SFO,94545
95041,CA-UI04,CA,Salinas,SFO,94545
95050,CA-JG03,CA,San Jose,SFO,94545
95051,CA-JG05,CA,San Jose,SFO,94545
95053,CA-JG04,CA,San Jose,SFO,94545
95054,CA-JG02,CA,San Jose,SFO,94545
95055,CA-JG03,CA,San Jose,SFO,94545
95056,CA-JG03,CA,San Jose,SFO,94545
95060,CA-UI05,CA,Salinas,SFO,94545
95062,CA-UI06,CA,Salinas,SFO,94545
95064,CA-UI07,CA,Salinas,SFO,94545
95065,CA-UI08,CA,Salinas,SFO,94545
95066,CA-UI09,CA,Salinas,SFO,94545
95070,CA-JF06,CA,San Jose,SFO,94545
95073,CA-UJ01,CA,Salinas,SFO,94545
95076,CA-UH07,CA,Salinas,SFO,94545
95110,CA-JC03,CA,San Jose,SFO,94545
95111,CA-JD01,CA,San Jose,SFO,94545
95112,CA-JC01,CA,San Jose,SFO,94545
95113,CA-JC02,CA,San Jose,SFO,94545
95116,CA-JB01,CA,San Jose,SFO,94545
95117,CA-JF01,CA,San Jose,SFO,94545
95118,CA-JE01,CA,San Jose,SFO,94545
95119,CA-JD04,CA,San Jose,SFO,94545
95120,CA-JE02,CA,San Jose,SFO,94545
95121,CA-JB05,CA,San Jose,SFO,94545
95122,CA-JB04,CA,San Jose,SFO,94545
95123,CA-JD03,CA,San Jose,SFO,94545
95124,CA-JE03,CA,San Jose,SFO,94545
95125,CA-JC06,CA,San Jose,SFO,94545
95126,CA-JC04,CA,San Jose,SFO,94545
95127,CA-JB02,CA,San Jose,SFO,94545
95128,CA-JC05,CA,San Jose,SFO,94545
95129,CA-JF04,CA,San Jose,SFO,94545
95130,CA-JF02,CA,San Jose,SFO,94545
95131,CA-JA04,CA,San Jose,SFO,94545
95132,CA-JA03,CA,San Jose,SFO,94545
95133,CA-JA05,CA,San Jose,SFO,94545
95134,CA-JA01,CA,San Jose,SFO,94545
95135,CA-JB07,CA,San Jose,SFO,94545
95136,CA-JD02,CA,San Jose,SFO,94545
95138,CA-JB08,CA,San Jose,SFO,94545
95139,CA-JD05,CA,San Jose,SFO,94545
95140,CA-JB03,CA,San Jose,SFO,94545
95148,CA-JB06,CA,San Jose,SFO,94545
95150,CA-JC03,CA,San Jose,SFO,94545
95151,CA-JC03,CA,San Jose,SFO,94545
95152,CA-JC03,CA,San Jose,SFO,94545
95153,CA-JC03,CA,San Jose,SFO,94545
95156,CA-JC03,CA,San Jose,SFO,94545
95157,CA-JC03,CA,San Jose,SFO,94545
95158,CA-JC03,CA,San Jose,SFO,94545
95159,CA-JC03,CA,San Jose,SFO,94545
95164,CA-JC03,CA,San Jose,SFO,94545
95170,CA-JC03,CA,San Jose,SFO,94545
95192,CA-JC08,CA,San Jose,SFO,94545
95201,CA-NA18,CA,Stockton,SFO,94545
95202,CA-NA18,CA,Stockton,SFO,94545
95203,CA-NA19,CA,Stockton,SFO,94545
95204,CA-NA16,CA,Stockton,SFO,94545
95205,CA-NA17,CA,Stockton,SFO,94545
95206,CA-NA20,CA,Stockton,SFO,94545
95207,CA-NA14,CA,Stockton,SFO,94545
95208,CA-NA16,CA,Stockton,SFO,94545
95209,CA-NA10,CA,Stockton,SFO,94545
95210,CA-NA11,CA,Stockton,SFO,94545
95211,CA-NA15,CA,Stockton,SFO,94545
95212,CA-NA12,CA,Stockton,SFO,94545
95215,CA-NA21,CA,Stockton,SFO,94545
95219,CA-NA08,CA,Stockton,SFO,94545
95220,CA-NA04,CA,Stockton,SFO,94545
95227,CA-NA07,CA,Stockton,SFO,94545
95230,CA-NB01,CA,Stockton,SFO,94545
95231,CA-NB02,CA,Stockton,SFO,94545
95234,CA-NA21,CA,Stockton,SFO,94545
95236,CA-NA13,CA,Stockton,SFO,94545
95237,CA-NA05,CA,Stockton,SFO,94545
95240,CA-NA06,CA,Stockton,SFO,94545
95241,CA-NA06,CA,Stockton,SFO,94545
95242,CA-NA02,CA,Stockton,SFO,94545
95253,CA-NA06,CA,Stockton,SFO,94545
95258,CA-NA03,CA,Stockton,SFO,94545
95267,CA-NA14,CA,Stockton,SFO,94545
95269,CA-NA14,CA,Stockton,SFO,94545
95296,CA-NA18,CA,Stockton,SFO,94545
95297,CA-NA18,CA,Stockton,SFO,94545
95301,CA-ND01,CA,Stockton,SFO,94545
95304,CA-NB03,CA,Stockton,SFO,94545
95307,CA-NC16,CA,Stockton,SFO,94545
95312,CA-ND04,CA,Stockton,SFO,94545
95313,CA-NC22,CA,Stockton,SFO,94545
95315,CA-ND08,CA,Stockton,SFO,94545
95316,CA-NC10,CA,Stockton,SFO,94545
95319,CA-NC11,CA,Stockton,SFO,94545
95320,CA-NB10,CA,Stockton,SFO,94545
95323,CA-NC14,CA,Stockton,SFO,94545
95326,CA-NC15,CA,Stockton,SFO,94545
95328,CA-NC17,CA,Stockton,SFO,94545
95330,CA-NB11,CA,Stockton,SFO,94545
95334,CA-ND02,CA,Stockton,SFO,94545
95336,CA-NB07,CA,Stockton,SFO,94545
95337,CA-NB08,CA,Stockton,SFO,94545
95340,CA-ND07,CA,Stockton,SFO,94545
95341,CA-ND06,CA,Stockton,SFO,94545
95348,CA-ND05,CA,Stockton,SFO,94545
95350,CA-NC06,CA,Stockton,SFO,94545
95351,CA-NC07,CA,Stockton,SFO,94545
95352,CA-NC06,CA,Stockton,SFO,94545
95353,CA-NC06,CA,Stockton,SFO,94545
95354,CA-NC08,CA,Stockton,SFO,94545
95355,CA-NC09,CA,Stockton,SFO,94545
95356,CA-NC03,CA,Stockton,SFO,94545
95357,CA-NC10,CA,Stockton,SFO,94545
95358,CA-NC02,CA,Stockton,SFO,94545
95360,CA-NC23,CA,Stockton,SFO,94545
95361,CA-NC12,CA,Stockton,SFO,94545
95363,CA-NC24,CA,Stockton,SFO,94545
95366,CA-NB09,CA,Stockton,SFO,94545
95367,CA-NC05,CA,Stockton,SFO,94545
95368,CA-NC01,CA,Stockton,SFO,94545
95376,CA-NB04,CA,Stockton,SFO,94545
95377,CA-NB05,CA,Stockton,SFO,94545
95378,CA-NB04,CA,Stockton,SFO,94545
95380,CA-NC19,CA,Stockton,SFO,94545
95381,CA-NC19,CA,Stockton,SFO,94545
95382,CA-NC18,CA,Stockton,SFO,94545
95385,CA-NC04,CA,Stockton,SFO,94545
95386,CA-NC13,CA,Stockton,SFO,94545
95388,CA-ND03,CA,Stockton,SFO,94545
95391,CA-NB06,CA,Stockton,SFO,94545
95397,CA-NC06,CA,Stockton,SFO,94545
95401,CA-PH09,CA,Santa Rosa,SFO,94545
95403,CA-PH10,CA,Santa Rosa,SFO,94545
95404,CA-PH13,CA,Santa Rosa,SFO,94545
95405,CA-PH14,CA,Santa Rosa,SFO,94545
95407,CA-PH06,CA,Santa Rosa,SFO,94545
95409,CA-PH15,CA,Santa Rosa,SFO,94545
95422,CA-WA01,CA,Clearlake,SFO,94545
95423,CA-WA04,CA,Clearlake,SFO,94545
95425,CA-PH17,CA,Santa Rosa,SFO,94545
95435,CA-WA05,CA,Clearlake,SFO,94545
95439,CA-PH11,CA,Santa Rosa,SFO,94545
95443,CA-WA06,CA,Clearlake,SFO,94545
95444,CA-PH08,CA,Santa Rosa,SFO,94545
95451,CA-WA03,CA,Clearlake,SFO,94545
95453,CA-WA02,CA,Clearlake,SFO,94545
95458,CA-WA07,CA,Clearlake,SFO,94545
95464,CA-WA08,CA,Clearlake,SFO,94545
95472,CA-PH07,CA,Santa Rosa,SFO,94545
95476,CA-PH16,CA,Santa Rosa,SFO,94545
95485,CA-WA09,CA,Clearlake,SFO,94545
95492,CA-PH12,CA,Santa Rosa,SFO,94545
95493,CA-WA10,CA,Clearlake,SFO,94545
95501,CA-XA01,CA,Sacramento,SFO,94545
95503,CA-XA02,CA,Sacramento,SFO,94545
95519,CA-XA03,CA,Sacramento,SFO,94545
95521,CA-XA04,CA,Sacramento,SFO,94545
95524,CA-XA05,CA,Sacramento,SFO,94545
95537,CA-XA06,CA,Sacramento,SFO,94545
95540,CA-XA07,CA,Sacramento,SFO,94545
95547,CA-XA08,CA,Sacramento,SFO,94545
95551,CA-XA09,CA,Sacramento,SFO,94545
95564,CA-XA10,CA,Sacramento,SFO,94545
95602,CA-TM02,CA,Sacramento,SFO,94545
95603,CA-TM01,CA,Sacramento,SFO,94545
95605,CA-TN01,CA,Sacramento,SFO,94545
95606,CA-TF07,CA,Sacramento,SFO,94545
95608,CA-TD04,CA,Sacramento,SFO,94545
95610,CA-TI03,CA,Sacramento,SFO,94545
95616,CA-TN02,CA,Sacramento,SFO,94545
95618,CA-TN03,CA,Sacramento,SFO,94545
95620,CA-PG07,CA,Santa Rosa,SFO,94545
95621,CA-TI04,CA,Sacramento,SFO,94545
95624,CA-TA01,CA,Sacramento,SFO,94545
95625,CA-PG06,CA,Santa Rosa,SFO,94545
95626,CA-TH04,CA,Sacramento,SFO,94545
95628,CA-TD06,CA,Sacramento,SFO,94545
95630,CA-TI01,CA,Sacramento,SFO,94545
95632,CA-NA09,CA,Stockton,SFO,94545
95639,CA-TA04,CA,Sacramento,SFO,94545
95648,CA-TJ08,CA,Sacramento,SFO,94545
95650,CA-TJ07,CA,Sacramento,SFO,94545
95652,CA-TG05,CA,Sacramento,SFO,94545
95655,CA-TD01,CA,Sacramento,SFO,94545
95660,CA-TG04,CA,Sacramento,SFO,94545
95661,CA-TJ02,CA,Sacramento,SFO,94545
95662,CA-TI02,CA,Sacramento,SFO,94545
95667,CA-TK01,CA,Sacramento,SFO,94545
95670,CA-TD02,CA,Sacramento,SFO,94545
95672,CA-TK05,CA,Sacramento,SFO,94545
95673,CA-TH03,CA,Sacramento,SFO,94545
95677,CA-TJ05,CA,Sacramento,SFO,94545
95678,CA-TJ03,CA,Sacramento,SFO,94545
95682,CA-TK02,CA,Sacramento,SFO,94545
95686,CA-NA01,CA,Stockton,SFO,94545
95687,CA-PG04,CA,Santa Rosa,SFO,94545
95688,CA-PG03,CA,Santa Rosa,SFO,94545
95691,CA-TF09,CA,Sacramento,SFO,94545
95695,CA-TN04,CA,Sacramento,SFO,94545
95703,CA-TM04,CA,Sacramento,SFO,94545
95722,CA-TM03,CA,Sacramento,SFO,94545
95726,CA-TK03,CA,Sacramento,SFO,94545
95742,CA-TD05,CA,Sacramento,SFO,94545
95746,CA-TJ01,CA,Sacramento,SFO,94545
95747,CA-TJ04,CA,Sacramento,SFO,94545
95757,CA-TA02,CA,Sacramento,SFO,94545
95758,CA-TA03,CA,Sacramento,SFO,94545
95762,CA-TK04,CA,Sacramento,SFO,94545
95765,CA-TJ06,CA,Sacramento,SFO,94545
95776,CA-TN05,CA,Sacramento,SFO,94545
95811,CA-TF01,CA,Sacramento,SFO,94545
95814,CA-TF02,CA,Sacramento,SFO,94545
95815,CA-TE03,CA,Sacramento,SFO,94545
95816,CA-TF03,CA,Sacramento,SFO,94545
95817,CA-TF05,CA,Sacramento,SFO,94545
95818,CA-TF04,CA,Sacramento,SFO,94545
95819,CA-TF06,CA,Sacramento,SFO,94545
95820,CA-TC03,CA,Sacramento,SFO,94545
95821,CA-TE01,CA,Sacramento,SFO,94545
95822,CA-TB03,CA,Sacramento,SFO,94545
95823,CA-TB02,CA,Sacramento,SFO,94545
95824,CA-TC02,CA,Sacramento,SFO,94545
95825,CA-TE02,CA,Sacramento,SFO,94545
95826,CA-TC04,CA,Sacramento,SFO,94545
95827,CA-TC05,CA,Sacramento,SFO,94545
95828,CA-TC01,CA,Sacramento,SFO,94545
95829,CA-TC06,CA,Sacramento,SFO,94545
95831,CA-TB04,CA,Sacramento,SFO,94545
95832,CA-TB01,CA,Sacramento,SFO,94545
95833,CA-TF08,CA,Sacramento,SFO,94545
95834,CA-TE05,CA,Sacramento,SFO,94545
95835,CA-TH02,CA,Sacramento,SFO,94545
95837,CA-TH01,CA,Sacramento,SFO,94545
95838,CA-TE04,CA,Sacramento,SFO,94545
95841,CA-TG01,CA,Sacramento,SFO,94545
95842,CA-TG02,CA,Sacramento,SFO,94545
95843,CA-TG03,CA,Sacramento,SFO,94545
95864,CA-TD03,CA,Sacramento,SFO,94545
95901,CA-TO01,CA,Sacramento,SFO,94545
95926,CA-VA01,CA,Redding,SFO,94545
95928,CA-VA02,CA,Redding,SFO,94545
95945,CA-TL01,CA,Sacramento,SFO,94545
95946,CA-TL03,CA,Sacramento,SFO,94545
95949,CA-TL02,CA,Sacramento,SFO,94545
95961,CA-TO02,CA,Sacramento,SFO,94545
95963,CA-VB01,CA,Redding,SFO,94545
95965,CA-VA04,CA,Redding,SFO,94545
95966,CA-VA05,CA,Redding,SFO,94545
95968,CA-VA06,CA,Redding,SFO,94545
95973,CA-VA03,CA,Redding,SFO,94545
95975,CA-TL04,CA,Sacramento,SFO,94545
95991,CA-TO03,CA,Sacramento,SFO,94545
95993,CA-TO04,CA,Sacramento,SFO,94545
96001,CA-VC01,CA,Redding,SFO,94545
96002,CA-VC02,CA,Redding,SFO,94545
96003,CA-VC03,CA,Redding,SFO,94545
96007,CA-VC06,CA,Redding,SFO,94545
96019,CA-VC04,CA,Redding,SFO,94545
96021,CA-VB02,CA,Redding,SFO,94545
96022,CA-VC07,CA,Redding,SFO,94545
96073,CA-VC05,CA,Redding,SFO,94545
96080,CA-VB03,CA,Redding,SFO,94545
97005,OR-AB04,OR,Portland,SEA,98188
97006,OR-AB05,OR,Portland,SEA,98188
97007,OR-AC04,OR,Portland,SEA,98188
97008,OR-AC03,OR,Portland,SEA,98188
97009,OR-BD07,OR,Portland,SEA,98188
97015,OR-BD05,OR,Portland,SEA,98188
97024,OR-BC03,OR,Portland,SEA,98188
97027,OR-BB08,OR,Portland,SEA,98188
97030,OR-BC05,OR,Portland,SEA,98188
97034,OR-AD03,OR,Portland,SEA,98188
97035,OR-AD02,OR,Portland,SEA,98188
97045,OR-AD07,OR,Portland,SEA,98188
97060,OR-BC04,OR,Portland,SEA,98188
97062,OR-AD04,OR,Portland,SEA,98188
97068,OR-AD05,OR,Portland,SEA,98188
97070,OR-AD06,OR,Portland,SEA,98188
97080,OR-BC06,OR,Portland,SEA,98188
97086,OR-BD04,OR,Portland,SEA,98188
97089,OR-BD06,OR,Portland,SEA,98188
97123,OR-AC05,OR,Portland,SEA,98188
97124,OR-AD01,OR,Portland,SEA,98188
97140,OR-AC06,OR,Portland,SEA,98188
97201,OR-AA06,OR,Portland,SEA,98188
97202,OR-BB04,OR,Portland,SEA,98188
97203,OR-BA01,OR,Portland,SEA,98188
97204,OR-AA04,OR,Portland,SEA,98188
97205,OR-AA05,OR,Portland,SEA,98188
97206,OR-BB05,OR,Portland,SEA,98188
97208,OR-AA02,OR,Portland,SEA,98188
97209,OR-AA01,OR,Portland,SEA,98188
97210,OR-AA03,OR,Portland,SEA,98188
97211,OR-BA03,OR,Portland,SEA,98188
97212,OR-BA06,OR,Portland,SEA,98188
97213,OR-BA05,OR,Portland,SEA,98188
97214,OR-BB02,OR,Portland,SEA,98188
97215,OR-BB03,OR,Portland,SEA,98188
97216,OR-BD02,OR,Portland,SEA,98188
97217,OR-BA02,OR,Portland,SEA,98188
97218,OR-BA04,OR,Portland,SEA,98188
97219,OR-AC01,OR,Portland,SEA,98188
97220,OR-BC01,OR,Portland,SEA,98188
97221,OR-AB02,OR,Portland,SEA,98188
97222,OR-BB06,OR,Portland,SEA,98188
97223,OR-AC02,OR,Portland,SEA,98188
97224,OR-AB07,OR,Portland,SEA,98188
97225,OR-AB03,OR,Portland,SEA,98188
97227,OR-BA07,OR,Portland,SEA,98188
97229,OR-AB06,OR,Portland,SEA,98188
97230,OR-BC02,OR,Portland,SEA,98188
97232,OR-BB01,OR,Portland,SEA,98188
97233,OR-BD01,OR,Portland,SEA,98188
97236,OR-BC07,OR,Portland,SEA,98188
97239,OR-AB01,OR,Portland,SEA,98188
97266,OR-BD03,OR,Portland,SEA,98188
97267,OR-BB07,OR,Portland,SEA,98188
98001,WA-BA04,WA,Seattle,SEA,98188
98002,WA-BA06,WA,Seattle,SEA,98188
98003,WA-BA03,WA,Seattle,SEA,98188
98004,WA-CA06,WA,Seattle,SEA,98188
98005,WA-CA05,WA,Seattle,SEA,98188
98006,WA-CA02,WA,Seattle,SEA,98188
98007,WA-CA04,WA,Seattle,SEA,98188
98008,WA-CA03,WA,Seattle,SEA,98188
98011,WA-CB05,WA,Seattle,SEA,98188
98012,WA-CD07,WA,Seattle,SEA,98188
98020,WA-CD01,WA,Seattle,SEA,98188
98021,WA-CB09,WA,Seattle,SEA,98188
98023,WA-BA02,WA,Seattle,SEA,98188
98026,WA-CD02,WA,Seattle,SEA,98188
98028,WA-CB04,WA,Seattle,SEA,98188
98030,WA-BB02,WA,Seattle,SEA,98188
98031,WA-BB03,WA,Seattle,SEA,98188
98032,WA-BB04,WA,Seattle,SEA,98188
98033,WA-CB01,WA,Seattle,SEA,98188
98034,WA-CB03,WA,Seattle,SEA,98188
98036,WA-CD04,WA,Seattle,SEA,98188
98037,WA-CD05,WA,Seattle,SEA,98188
98039,WA-CA07,WA,Seattle,SEA,98188
98040,WA-CA01,WA,Seattle,SEA,98188
98042,WA-BB01,WA,Seattle,SEA,98188
98043,WA-CD03,WA,Seattle,SEA,98188
98047,WA-BA05,WA,Seattle,SEA,98188
98052,WA-CB02,WA,Seattle,SEA,98188
98055,WA-BB06,WA,Seattle,SEA,98188
98056,WA-BB08,WA,Seattle,SEA,98188
98057,WA-BB05,WA,Seattle,SEA,98188
98058,WA-BB07,WA,Seattle,SEA,98188
98059,WA-BB09,WA,Seattle,SEA,98188
98072,WA-CB06,WA,Seattle,SEA,98188
98077,WA-CB07,WA,Seattle,SEA,98188
98087,WA-CD06,WA,Seattle,SEA,98188
98092,WA-BA07,WA,Seattle,SEA,98188
98101,WA-BE05,WA,Seattle,SEA,98188
98102,WA-BE08,WA,Seattle,SEA,98188
98103,WA-CC04,WA,Seattle,SEA,98188
98104,WA-BE01,WA,Seattle,SEA,98188
98105,WA-CC02,WA,Seattle,SEA,98188
98106,WA-BD04,WA,Seattle,SEA,98188
98107,WA-CC05,WA,Seattle,SEA,98188
98108,WA-BD05,WA,Seattle,SEA,98188
98109,WA-BE09,WA,Seattle,SEA,98188
98112,WA-BE07,WA,Seattle,SEA,98188
98115,WA-CC03,WA,Seattle,SEA,98188
98116,WA-BD02,WA,Seattle,SEA,98188
98117,WA-CC06,WA,Seattle,SEA,98188
98118,WA-BD06,WA,Seattle,SEA,98188
98119,WA-BE11,WA,Seattle,SEA,98188
98121,WA-BE10,WA,Seattle,SEA,98188
98122,WA-BE06,WA,Seattle,SEA,98188
98125,WA-CC07,WA,Seattle,SEA,98188
98126,WA-BD03,WA,Seattle,SEA,98188
98133,WA-CC09,WA,Seattle,SEA,98188
98134,WA-BD08,WA,Seattle,SEA,98188
98136,WA-BD01,WA,Seattle,SEA,98188
98144,WA-BD07,WA,Seattle,SEA,98188
98146,WA-BC08,WA,Seattle,SEA,98188
98148,WA-BC04,WA,Seattle,SEA,98188
98154,WA-BE04,WA,Seattle,SEA,98188
98155,WA-CC08,WA,Seattle,SEA,98188
98158,WA-BC03,WA,Seattle,SEA,98188
98164,WA-BE03,WA,Seattle,SEA,98188
98166,WA-BC05,WA,Seattle,SEA,98188
98168,WA-BC07,WA,Seattle,SEA,98188
98174,WA-BE02,WA,Seattle,SEA,98188
98177,WA-CC10,WA,Seattle,SEA,98188
98178,WA-BC06,WA,Seattle,SEA,98188
98188,WA-BC02,WA,Seattle,SEA,98188
98195,WA-CC01,WA,Seattle,SEA,98188
98198,WA-BC01,WA,Seattle,SEA,98188
98199,WA-BE12,WA,Seattle,SEA,98188
98201,WA-CE05,WA,Seattle,SEA,98188
98203,WA-CE04,WA,Seattle,SEA,98188
98204,WA-CE02,WA,Seattle,SEA,98188
98205,WA-CE07,WA,Seattle,SEA,98188
98207,WA-CE06,WA,Seattle,SEA,98188
98208,WA-CE03,WA,Seattle,SEA,98188
98258,WA-CE08,WA,Seattle,SEA,98188
98270,WA-CE09,WA,Seattle,SEA,98188
98271,WA-CE10,WA,Seattle,SEA,98188
98275,WA-CE01,WA,Seattle,SEA,98188
98296,WA-CD08,WA,Seattle,SEA,98188
98327,WA-AB01,WA,Seattle,SEA,98188
98354,WA-AD07,WA,Seattle,SEA,98188
98371,WA-AD06,WA,Seattle,SEA,98188
98372,WA-AD09,WA,Seattle,SEA,98188
98373,WA-AE06,WA,Seattle,SEA,98188
98374,WA-AE08,WA,Seattle,SEA,98188
98375,WA-AE07,WA,Seattle,SEA,98188
98387,WA-AE03,WA,Seattle,SEA,98188
98388,WA-AB08,WA,Seattle,SEA,98188
98390,WA-AD10,WA,Seattle,SEA,98188
98402,WA-AC08,WA,Seattle,SEA,98188
98403,WA-AC07,WA,Seattle,SEA,98188
98404,WA-AD04,WA,Seattle,SEA,98188
98405,WA-AC09,WA,Seattle,SEA,98188
98406,WA-AC04,WA,Seattle,SEA,98188
98407,WA-AC06,WA,Seattle,SEA,98188
98408,WA-AD03,WA,Seattle,SEA,98188
98409,WA-AC10,WA,Seattle,SEA,98188
98416,WA-AC05,WA,Seattle,SEA,98188
98418,WA-AD02,WA,Seattle,SEA,98188
98421,WA-AD01,WA,Seattle,SEA,98188
98422,WA-BA01,WA,Seattle,SEA,98188
98424,WA-AD08,WA,Seattle,SEA,98188
98430,WA-AB03,WA,Seattle,SEA,98188
98433,WA-AB02,WA,Seattle,SEA,98188
98438,WA-AB05,WA,Seattle,SEA,98188
98439,WA-AB04,WA,Seattle,SEA,98188
98443,WA-AD05,WA,Seattle,SEA,98188
98444,WA-AE01,WA,Seattle,SEA,98188
98445,WA-AE04,WA,Seattle,SEA,98188
98446,WA-AE05,WA,Seattle,SEA,98188
98447,WA-AD02,WA,Seattle,SEA,98188
98465,WA-AC03,WA,Seattle,SEA,98188
98466,WA-AC02,WA,Seattle,SEA,98188
98467,WA-AC01,WA,Seattle,SEA,98188
98498,WA-AB07,WA,Seattle,SEA,98188
98499,WA-AB06,WA,Seattle,SEA,98188
98501,WA-AA01,WA,Seattle,SEA,98188
98502,WA-AA02,WA,Seattle,SEA,98188
98503,WA-AA03,WA,Seattle,SEA,98188
98506,WA-AA04,WA,Seattle,SEA,98188
98512,WA-AA05,WA,Seattle,SEA,98188
98513,WA-AA06,WA,Seattle,SEA,98188
98516,WA-AA07,WA,Seattle,SEA,98188
98604,OR-CB03,OR,Portland,SEA,98188
98606,OR-CB04,OR,Portland,SEA,98188
98607,OR-CC05,OR,Portland,SEA,98188
98642,OR-CB02,OR,Portland,SEA,98188
98660,OR-CA01,OR,Portland,SEA,98188
98661,OR-CA03,OR,Portland,SEA,98188
98662,OR-CB05,OR,Portland,SEA,98188
98663,OR-CA02,OR,Portland,SEA,98188
98664,OR-CC02,OR,Portland,SEA,98188
98665,OR-CA04,OR,Portland,SEA,98188
98671,OR-CC06,OR,Portland,SEA,98188
98682,OR-CC01,OR,Portland,SEA,98188
98683,OR-CC04,OR,Portland,SEA,98188
98684,OR-CC03,OR,Portland,SEA,98188
98685,OR-CB01,OR,Portland,SEA,98188
98686,OR-CA05,OR,Portland,SEA,98188
